{
"type": "FeatureCollection",
"name": "golf-course-2277",
"crs": { "type": "name", "properties": { "name": "urn:ogc:def:crs:EPSG::2277" } },
"features": [
{ "type": "Feature", "properties": { "name": "Green Tree Country Club (turf outline)" }, "geometry": { "type": "Polygon", "coordinates": [ [ [ 1732891.754498300142586, 10716689.768020322546363 ], [ 1732891.754498300142586, 10716683.862508511170745 ], [ 1732887.817490426125005, 10716683.862508511170745 ], [ 1732887.817490426125005, 10716674.019988825544715 ], [ 1732876.006466804072261, 10716674.019988825544715 ], [ 1732876.006466804072261, 10716648.429437644779682 ], [ 1732862.226939244894311, 10716648.429437644779682 ], [ 1732862.226939244894311, 10716642.523925833404064 ], [ 1732856.321427433984354, 10716642.523925833404064 ], [ 1732856.321427433984354, 10716630.712902212515473 ], [ 1732850.415915622841567, 10716630.712902212515473 ], [ 1732850.415915622841567, 10716624.807390401139855 ], [ 1732842.541899874806404, 10716624.807390401139855 ], [ 1732842.541899874806404, 10716620.870382526889443 ], [ 1732834.667884126771241, 10716620.870382526889443 ], [ 1732834.667884126771241, 10716603.153847094625235 ], [ 1732801.203317197738215, 10716603.153847094625235 ], [ 1732801.203317197738215, 10716589.374319534748793 ], [ 1732803.171821134630591, 10716589.374319534748793 ], [ 1732803.171821134630591, 10716555.909752605482936 ], [ 1732799.234813260613009, 10716555.909752605482936 ], [ 1732799.234813260613009, 10716553.94124866835773 ], [ 1732797.266309323720634, 10716553.94124866835773 ], [ 1732797.266309323720634, 10716542.130225047469139 ], [ 1732795.297805386595428, 10716542.130225047469139 ], [ 1732795.297805386595428, 10716540.161721110343933 ], [ 1732789.392293575685471, 10716540.161721110343933 ], [ 1732789.392293575685471, 10716524.413689613342285 ], [ 1732783.486781764542684, 10716524.413689613342285 ], [ 1732783.486781764542684, 10716520.476681739091873 ], [ 1732781.518277827650309, 10716520.476681739091873 ], [ 1732781.518277827650309, 10716518.508177801966667 ], [ 1732775.612766016507521, 10716518.508177801966667 ], [ 1732775.612766016507521, 10716508.665658118203282 ], [ 1732773.644262079615146, 10716508.665658118203282 ], [ 1732773.644262079615146, 10716506.697154181078076 ], [ 1732765.770246331579983, 10716506.697154181078076 ], [ 1732765.770246331579983, 10716504.72865024395287 ], [ 1732763.801742394454777, 10716504.72865024395287 ], [ 1732763.801742394454777, 10716485.04361087270081 ], [ 1732755.927726646419615, 10716485.04361087270081 ], [ 1732755.927726646419615, 10716453.54754788056016 ], [ 1732753.959222709527239, 10716453.54754788056016 ], [ 1732753.959222709527239, 10716451.579043945297599 ], [ 1732751.990718772402033, 10716451.579043945297599 ], [ 1732751.990718772402033, 10716441.736524259671569 ], [ 1732750.022214835509658, 10716441.736524259671569 ], [ 1732750.022214835509658, 10716425.988492762669921 ], [ 1732736.242687276331708, 10716425.988492762669921 ], [ 1732736.242687276331708, 10716420.082980953156948 ], [ 1732734.274183339439332, 10716420.082980953156948 ], [ 1732734.274183339439332, 10716414.17746914178133 ], [ 1732730.337175465421751, 10716414.17746914178133 ], [ 1732730.337175465421751, 10716404.3349494561553 ], [ 1732728.368671528296545, 10716404.3349494561553 ], [ 1732728.368671528296545, 10716400.397941581904888 ], [ 1732726.40016759140417, 10716400.397941581904888 ], [ 1732726.40016759140417, 10716398.429437644779682 ], [ 1732724.431663654278964, 10716398.429437644779682 ], [ 1732724.431663654278964, 10716394.49242977052927 ], [ 1732712.62064003222622, 10716394.49242977052927 ], [ 1732712.62064003222622, 10716366.933374652639031 ], [ 1732710.652136095333844, 10716366.933374652639031 ], [ 1732710.652136095333844, 10716362.996366778388619 ], [ 1732706.715128221316263, 10716362.996366778388619 ], [ 1732706.715128221316263, 10716359.059358904138207 ], [ 1732704.746624284191057, 10716359.059358904138207 ], [ 1732704.746624284191057, 10716357.090854968875647 ], [ 1732702.778120347298682, 10716357.090854968875647 ], [ 1732702.778120347298682, 10716337.405815597623587 ], [ 1732700.809616410173476, 10716337.405815597623587 ], [ 1732700.809616410173476, 10716335.437311660498381 ], [ 1732694.904104599263519, 10716335.437311660498381 ], [ 1732694.904104599263519, 10716315.752272291108966 ], [ 1732688.998592788120732, 10716315.752272291108966 ], [ 1732688.998592788120732, 10716309.846760479733348 ], [ 1732687.030088851228356, 10716309.846760479733348 ], [ 1732687.030088851228356, 10716305.909752605482936 ], [ 1732685.06158491410315, 10716305.909752605482936 ], [ 1732685.06158491410315, 10716286.224713236093521 ], [ 1732683.093080977210775, 10716286.224713236093521 ], [ 1732683.093080977210775, 10716284.256209298968315 ], [ 1732681.1245770403184, 10716284.256209298968315 ], [ 1732681.1245770403184, 10716280.319201424717903 ], [ 1732677.187569166300818, 10716280.319201424717903 ], [ 1732677.187569166300818, 10716274.413689613342285 ], [ 1732673.250561292283237, 10716274.413689613342285 ], [ 1732673.250561292283237, 10716272.445185676217079 ], [ 1732671.282057355158031, 10716272.445185676217079 ], [ 1732671.282057355158031, 10716252.760146306827664 ], [ 1732669.313553418265656, 10716252.760146306827664 ], [ 1732669.313553418265656, 10716250.791642369702458 ], [ 1732667.34504948114045, 10716250.791642369702458 ], [ 1732667.34504948114045, 10716248.823138432577252 ], [ 1732665.376545544248074, 10716248.823138432577252 ], [ 1732665.376545544248074, 10716244.88613055832684 ], [ 1732661.439537670230493, 10716244.88613055832684 ], [ 1732661.439537670230493, 10716231.106603 ], [ 1732659.471033733105287, 10716231.106603 ], [ 1732659.471033733105287, 10716213.39006756618619 ], [ 1732657.502529796212912, 10716213.39006756618619 ], [ 1732657.502529796212912, 10716205.516051817685366 ], [ 1732655.534025859087706, 10716205.516051817685366 ], [ 1732655.534025859087706, 10716197.642036071047187 ], [ 1732653.56552192219533, 10716197.642036071047187 ], [ 1732653.56552192219533, 10716195.673532133921981 ], [ 1732651.597017985070124, 10716195.673532133921981 ], [ 1732651.597017985070124, 10716189.768020322546363 ], [ 1732649.628514048177749, 10716189.768020322546363 ], [ 1732649.628514048177749, 10716187.799516385421157 ], [ 1732647.660010111052543, 10716187.799516385421157 ], [ 1732647.660010111052543, 10716174.019988825544715 ], [ 1732649.628514048177749, 10716174.019988825544715 ], [ 1732649.628514048177749, 10716148.429437644779682 ], [ 1732643.723002237034962, 10716148.429437644779682 ], [ 1732643.723002237034962, 10716138.586917961016297 ], [ 1732641.754498300142586, 10716138.586917961016297 ], [ 1732641.754498300142586, 10716136.618414023891091 ], [ 1732639.78599436301738, 10716136.618414023891091 ], [ 1732639.78599436301738, 10716130.712902212515473 ], [ 1732637.817490426125005, 10716130.712902212515473 ], [ 1732637.817490426125005, 10716097.248335283249617 ], [ 1732612.226939244894311, 10716097.248335283249617 ], [ 1732612.226939244894311, 10716095.279831346124411 ], [ 1732610.258435308001935, 10716095.279831346124411 ], [ 1732610.258435308001935, 10716093.311327408999205 ], [ 1732608.289931370876729, 10716093.311327408999205 ], [ 1732608.289931370876729, 10716079.531799849122763 ], [ 1732610.258435308001935, 10716079.531799849122763 ], [ 1732610.258435308001935, 10716075.594791976734996 ], [ 1732633.880482552107424, 10716075.594791976734996 ], [ 1732633.880482552107424, 10716051.972744731232524 ], [ 1732627.974970740964636, 10716051.972744731232524 ], [ 1732627.974970740964636, 10716038.193217173218727 ], [ 1732626.006466804072261, 10716038.193217173218727 ], [ 1732626.006466804072261, 10716034.256209298968315 ], [ 1732622.06945893005468, 10716034.256209298968315 ], [ 1732622.06945893005468, 10715977.169595126062632 ], [ 1732610.258435308001935, 10715977.169595126062632 ], [ 1732610.258435308001935, 10715959.453059691935778 ], [ 1732612.226939244894311, 10715959.453059691935778 ], [ 1732612.226939244894311, 10715957.484555754810572 ], [ 1732614.195443182019517, 10715957.484555754810572 ], [ 1732614.195443182019517, 10715943.705028196796775 ], [ 1732616.163947118911892, 10715943.705028196796775 ], [ 1732616.163947118911892, 10715941.736524259671569 ], [ 1732618.132451056037098, 10715941.736524259671569 ], [ 1732618.132451056037098, 10715898.429437644779682 ], [ 1732616.163947118911892, 10715898.429437644779682 ], [ 1732616.163947118911892, 10715884.649910086765885 ], [ 1732618.132451056037098, 10715884.649910086765885 ], [ 1732618.132451056037098, 10715861.027862841263413 ], [ 1732614.195443182019517, 10715861.027862841263413 ], [ 1732614.195443182019517, 10715847.248335283249617 ], [ 1732622.06945893005468, 10715847.248335283249617 ], [ 1732622.06945893005468, 10715839.374319534748793 ], [ 1732624.037962866947055, 10715839.374319534748793 ], [ 1732624.037962866947055, 10715784.256209298968315 ], [ 1732612.226939244894311, 10715784.256209298968315 ], [ 1732612.226939244894311, 10715770.476681739091873 ], [ 1732616.163947118911892, 10715770.476681739091873 ], [ 1732616.163947118911892, 10715764.571169927716255 ], [ 1732622.06945893005468, 10715764.571169927716255 ], [ 1732622.06945893005468, 10715762.602665992453694 ], [ 1732624.037962866947055, 10715762.602665992453694 ], [ 1732624.037962866947055, 10715760.634162055328488 ], [ 1732626.006466804072261, 10715760.634162055328488 ], [ 1732626.006466804072261, 10715748.823138432577252 ], [ 1732629.943474678089842, 10715748.823138432577252 ], [ 1732629.943474678089842, 10715715.358571503311396 ], [ 1732631.911978614982218, 10715715.358571503311396 ], [ 1732631.911978614982218, 10715711.421563629060984 ], [ 1732633.880482552107424, 10715711.421563629060984 ], [ 1732633.880482552107424, 10715679.925500636920333 ], [ 1732627.974970740964636, 10715679.925500636920333 ], [ 1732627.974970740964636, 10715666.145973078906536 ], [ 1732629.943474678089842, 10715666.145973078906536 ], [ 1732629.943474678089842, 10715664.17746914178133 ], [ 1732647.660010111052543, 10715664.17746914178133 ], [ 1732647.660010111052543, 10715640.555421896278858 ], [ 1732665.376545544248074, 10715640.555421896278858 ], [ 1732665.376545544248074, 10715614.964870715513825 ], [ 1732683.093080977210775, 10715614.964870715513825 ], [ 1732683.093080977210775, 10715587.405815597623587 ], [ 1732700.809616410173476, 10715587.405815597623587 ], [ 1732700.809616410173476, 10715563.78376835398376 ], [ 1732702.778120347298682, 10715563.78376835398376 ], [ 1732702.778120347298682, 10715559.846760479733348 ], [ 1732708.683632158208638, 10715559.846760479733348 ], [ 1732708.683632158208638, 10715555.909752605482936 ], [ 1732726.40016759140417, 10715555.909752605482936 ], [ 1732726.40016759140417, 10715565.752272291108966 ], [ 1732746.085206961492077, 10715565.752272291108966 ], [ 1732746.085206961492077, 10715567.720776228234172 ], [ 1732753.959222709527239, 10715567.720776228234172 ], [ 1732753.959222709527239, 10715575.594791976734996 ], [ 1732769.707254205597565, 10715575.594791976734996 ], [ 1732769.707254205597565, 10715587.405815597623587 ], [ 1732785.45528570166789, 10715587.405815597623587 ], [ 1732785.45528570166789, 10715605.122351031750441 ], [ 1732813.014340819790959, 10715605.122351031750441 ], [ 1732813.014340819790959, 10715603.153847094625235 ], [ 1732818.919852630700916, 10715603.153847094625235 ], [ 1732818.919852630700916, 10715593.311327408999205 ], [ 1732836.636388063896447, 10715593.311327408999205 ], [ 1732836.636388063896447, 10715597.248335283249617 ], [ 1732840.573395937914029, 10715597.248335283249617 ], [ 1732840.573395937914029, 10715607.090854968875647 ], [ 1732862.226939244894311, 10715607.090854968875647 ], [ 1732862.226939244894311, 10715603.153847094625235 ], [ 1732874.037962866947055, 10715603.153847094625235 ], [ 1732874.037962866947055, 10715579.531799849122763 ], [ 1732876.006466804072261, 10715579.531799849122763 ], [ 1732876.006466804072261, 10715567.720776228234172 ], [ 1732877.974970740964636, 10715567.720776228234172 ], [ 1732877.974970740964636, 10715542.130225047469139 ], [ 1732850.415915622841567, 10715542.130225047469139 ], [ 1732850.415915622841567, 10715546.067232919856906 ], [ 1732834.667884126771241, 10715546.067232919856906 ], [ 1732834.667884126771241, 10715544.098728984594345 ], [ 1732830.73087625275366, 10715544.098728984594345 ], [ 1732830.73087625275366, 10715542.130225047469139 ], [ 1732824.825364441843703, 10715542.130225047469139 ], [ 1732824.825364441843703, 10715522.445185676217079 ], [ 1732828.762372315861285, 10715522.445185676217079 ], [ 1732828.762372315861285, 10715502.760146306827664 ], [ 1732842.541899874806404, 10715502.760146306827664 ], [ 1732842.541899874806404, 10715504.72865024395287 ], [ 1732846.478907748823985, 10715504.72865024395287 ], [ 1732846.478907748823985, 10715506.697154181078076 ], [ 1732852.384419559966773, 10715506.697154181078076 ], [ 1732852.384419559966773, 10715516.539673864841461 ], [ 1732854.352923496859148, 10715516.539673864841461 ], [ 1732854.352923496859148, 10715522.445185676217079 ], [ 1732856.321427433984354, 10715522.445185676217079 ], [ 1732856.321427433984354, 10715528.350697487592697 ], [ 1732879.943474678089842, 10715528.350697487592697 ], [ 1732879.943474678089842, 10715520.476681739091873 ], [ 1732889.78599436301738, 10715520.476681739091873 ], [ 1732889.78599436301738, 10715516.539673864841461 ], [ 1732903.56552192219533, 10715516.539673864841461 ], [ 1732903.56552192219533, 10715550.004240794107318 ], [ 1732909.471033733105287, 10715550.004240794107318 ], [ 1732909.471033733105287, 10715555.909752605482936 ], [ 1732915.376545544248074, 10715555.909752605482936 ], [ 1732915.376545544248074, 10715569.689280165359378 ], [ 1732911.439537670230493, 10715569.689280165359378 ], [ 1732911.439537670230493, 10715599.216839220374823 ], [ 1732917.34504948114045, 10715599.216839220374823 ], [ 1732917.34504948114045, 10715691.736524259671569 ], [ 1732913.408041607122868, 10715691.736524259671569 ], [ 1732913.408041607122868, 10715735.04361087270081 ], [ 1732917.34504948114045, 10715735.04361087270081 ], [ 1732917.34504948114045, 10715752.760146306827664 ], [ 1732881.911978614982218, 10715752.760146306827664 ], [ 1732881.911978614982218, 10715762.602665992453694 ], [ 1732879.943474678089842, 10715762.602665992453694 ], [ 1732879.943474678089842, 10715764.571169927716255 ], [ 1732877.974970740964636, 10715764.571169927716255 ], [ 1732877.974970740964636, 10715766.539673864841461 ], [ 1732858.289931370876729, 10715766.539673864841461 ], [ 1732858.289931370876729, 10715794.098728984594345 ], [ 1732860.258435308001935, 10715794.098728984594345 ], [ 1732860.258435308001935, 10715807.878256542608142 ], [ 1732852.384419559966773, 10715807.878256542608142 ], [ 1732852.384419559966773, 10715809.846760479733348 ], [ 1732842.541899874806404, 10715809.846760479733348 ], [ 1732842.541899874806404, 10715813.78376835398376 ], [ 1732832.699380189878866, 10715813.78376835398376 ], [ 1732832.699380189878866, 10715831.500303786247969 ], [ 1732818.919852630700916, 10715831.500303786247969 ], [ 1732818.919852630700916, 10715815.752272291108966 ], [ 1732820.888356567826122, 10715815.752272291108966 ], [ 1732820.888356567826122, 10715800.004240794107318 ], [ 1732836.636388063896447, 10715800.004240794107318 ], [ 1732836.636388063896447, 10715796.067232919856906 ], [ 1732840.573395937914029, 10715796.067232919856906 ], [ 1732840.573395937914029, 10715792.130225047469139 ], [ 1732842.541899874806404, 10715792.130225047469139 ], [ 1732842.541899874806404, 10715744.88613055832684 ], [ 1732834.667884126771241, 10715744.88613055832684 ], [ 1732834.667884126771241, 10715738.980618746951222 ], [ 1732832.699380189878866, 10715738.980618746951222 ], [ 1732832.699380189878866, 10715737.012114809826016 ], [ 1732811.045836882665753, 10715737.012114809826016 ], [ 1732811.045836882665753, 10715738.980618746951222 ], [ 1732809.077332945773378, 10715738.980618746951222 ], [ 1732809.077332945773378, 10715742.917626621201634 ], [ 1732791.360797512577847, 10715742.917626621201634 ], [ 1732791.360797512577847, 10715748.823138432577252 ], [ 1732775.612766016507521, 10715748.823138432577252 ], [ 1732775.612766016507521, 10715738.980618746951222 ], [ 1732767.738750268472359, 10715738.980618746951222 ], [ 1732767.738750268472359, 10715735.04361087270081 ], [ 1732765.770246331579983, 10715735.04361087270081 ], [ 1732765.770246331579983, 10715733.07510693743825 ], [ 1732763.801742394454777, 10715733.07510693743825 ], [ 1732763.801742394454777, 10715721.264083314687014 ], [ 1732730.337175465421751, 10715721.264083314687014 ], [ 1732730.337175465421751, 10715735.04361087270081 ], [ 1732726.40016759140417, 10715735.04361087270081 ], [ 1732726.40016759140417, 10715737.012114809826016 ], [ 1732718.526151843369007, 10715737.012114809826016 ], [ 1732718.526151843369007, 10715778.350697487592697 ], [ 1732720.494655780261382, 10715778.350697487592697 ], [ 1732720.494655780261382, 10715786.224713236093521 ], [ 1732751.990718772402033, 10715786.224713236093521 ], [ 1732751.990718772402033, 10715809.846760479733348 ], [ 1732736.242687276331708, 10715809.846760479733348 ], [ 1732736.242687276331708, 10715800.004240794107318 ], [ 1732692.935600662138313, 10715800.004240794107318 ], [ 1732692.935600662138313, 10715801.972744731232524 ], [ 1732690.967096725245938, 10715801.972744731232524 ], [ 1732690.967096725245938, 10715803.94124866835773 ], [ 1732688.998592788120732, 10715803.94124866835773 ], [ 1732688.998592788120732, 10715807.878256542608142 ], [ 1732687.030088851228356, 10715807.878256542608142 ], [ 1732687.030088851228356, 10715809.846760479733348 ], [ 1732685.06158491410315, 10715809.846760479733348 ], [ 1732685.06158491410315, 10715815.752272291108966 ], [ 1732683.093080977210775, 10715815.752272291108966 ], [ 1732683.093080977210775, 10715847.248335283249617 ], [ 1732673.250561292283237, 10715847.248335283249617 ], [ 1732673.250561292283237, 10715851.185343157500029 ], [ 1732667.34504948114045, 10715851.185343157500029 ], [ 1732667.34504948114045, 10715880.712902212515473 ], [ 1732677.187569166300818, 10715880.712902212515473 ], [ 1732677.187569166300818, 10715904.3349494561553 ], [ 1732694.904104599263519, 10715904.3349494561553 ], [ 1732694.904104599263519, 10715924.019988825544715 ], [ 1732690.967096725245938, 10715924.019988825544715 ], [ 1732690.967096725245938, 10715969.295579377561808 ], [ 1732692.935600662138313, 10715969.295579377561808 ], [ 1732692.935600662138313, 10715975.201091188937426 ], [ 1732716.557647906243801, 10715975.201091188937426 ], [ 1732716.557647906243801, 10715988.980618746951222 ], [ 1732702.778120347298682, 10715988.980618746951222 ], [ 1732702.778120347298682, 10715983.07510693743825 ], [ 1732679.156073103193194, 10715983.07510693743825 ], [ 1732679.156073103193194, 10715990.949122684076428 ], [ 1732677.187569166300818, 10715990.949122684076428 ], [ 1732677.187569166300818, 10715994.88613055832684 ], [ 1732675.219065229175612, 10715994.88613055832684 ], [ 1732675.219065229175612, 10715996.854634495452046 ], [ 1732667.34504948114045, 10715996.854634495452046 ], [ 1732667.34504948114045, 10716018.508177801966667 ], [ 1732671.282057355158031, 10716018.508177801966667 ], [ 1732671.282057355158031, 10716032.287705361843109 ], [ 1732673.250561292283237, 10716032.287705361843109 ], [ 1732673.250561292283237, 10716034.256209298968315 ], [ 1732683.093080977210775, 10716034.256209298968315 ], [ 1732683.093080977210775, 10716040.161721110343933 ], [ 1732685.06158491410315, 10716040.161721110343933 ], [ 1732685.06158491410315, 10716055.909752605482936 ], [ 1732718.526151843369007, 10716055.909752605482936 ], [ 1732718.526151843369007, 10716065.752272291108966 ], [ 1732742.148199087474495, 10716065.752272291108966 ], [ 1732742.148199087474495, 10716063.78376835398376 ], [ 1732744.116703024366871, 10716063.78376835398376 ], [ 1732744.116703024366871, 10716032.287705361843109 ], [ 1732730.337175465421751, 10716032.287705361843109 ], [ 1732730.337175465421751, 10716016.539673864841461 ], [ 1732738.211191213456914, 10716016.539673864841461 ], [ 1732738.211191213456914, 10716006.697154181078076 ], [ 1732740.179695150349289, 10716006.697154181078076 ], [ 1732740.179695150349289, 10715988.980618746951222 ], [ 1732753.959222709527239, 10715988.980618746951222 ], [ 1732753.959222709527239, 10715979.138099063187838 ], [ 1732771.67575814248994, 10715979.138099063187838 ], [ 1732771.67575814248994, 10715981.106603 ], [ 1732773.644262079615146, 10715981.106603 ], [ 1732773.644262079615146, 10716012.602665992453694 ], [ 1732777.581269953632727, 10716012.602665992453694 ], [ 1732777.581269953632727, 10716014.571169927716255 ], [ 1732799.234813260613009, 10716014.571169927716255 ], [ 1732799.234813260613009, 10715988.980618746951222 ], [ 1732801.203317197738215, 10715988.980618746951222 ], [ 1732801.203317197738215, 10715967.327075440436602 ], [ 1732842.541899874806404, 10715967.327075440436602 ], [ 1732842.541899874806404, 10715955.516051817685366 ], [ 1732858.289931370876729, 10715955.516051817685366 ], [ 1732858.289931370876729, 10715957.484555754810572 ], [ 1732870.100954992929474, 10715957.484555754810572 ], [ 1732870.100954992929474, 10715965.358571503311396 ], [ 1732909.471033733105287, 10715965.358571503311396 ], [ 1732909.471033733105287, 10715937.799516385421157 ], [ 1732891.754498300142586, 10715937.799516385421157 ], [ 1732891.754498300142586, 10715918.114477016031742 ], [ 1732905.534025859087706, 10715918.114477016031742 ], [ 1732905.534025859087706, 10715920.082980953156948 ], [ 1732907.502529796212912, 10715920.082980953156948 ], [ 1732907.502529796212912, 10715922.051484888419509 ], [ 1732911.439537670230493, 10715922.051484888419509 ], [ 1732911.439537670230493, 10715955.516051817685366 ], [ 1732917.34504948114045, 10715955.516051817685366 ], [ 1732917.34504948114045, 10716532.287705361843109 ], [ 1732907.502529796212912, 10716532.287705361843109 ], [ 1732907.502529796212912, 10716555.909752605482936 ], [ 1732917.34504948114045, 10716555.909752605482936 ], [ 1732917.34504948114045, 10716683.862508511170745 ], [ 1732911.439537670230493, 10716683.862508511170745 ], [ 1732911.439537670230493, 10716685.831012448295951 ], [ 1732909.471033733105287, 10716685.831012448295951 ], [ 1732909.471033733105287, 10716689.768020322546363 ], [ 1732891.754498300142586, 10716689.768020322546363 ] ], [ [ 1732775.612766016507521, 10716130.712902212515473 ], [ 1732803.171821134630591, 10716130.712902212515473 ], [ 1732803.171821134630591, 10716128.744398275390267 ], [ 1732809.077332945773378, 10716128.744398275390267 ], [ 1732809.077332945773378, 10716099.216839220374823 ], [ 1732820.888356567826122, 10716099.216839220374823 ], [ 1732820.888356567826122, 10716083.468807723373175 ], [ 1732848.447411685949191, 10716083.468807723373175 ], [ 1732848.447411685949191, 10716057.878256542608142 ], [ 1732816.951348693808541, 10716057.878256542608142 ], [ 1732816.951348693808541, 10716077.563295911997557 ], [ 1732801.203317197738215, 10716077.563295911997557 ], [ 1732801.203317197738215, 10716050.004240794107318 ], [ 1732761.833238457562402, 10716050.004240794107318 ], [ 1732761.833238457562402, 10716075.594791976734996 ], [ 1732755.927726646419615, 10716075.594791976734996 ], [ 1732755.927726646419615, 10716085.437311660498381 ], [ 1732726.40016759140417, 10716085.437311660498381 ], [ 1732726.40016759140417, 10716109.059358904138207 ], [ 1732742.148199087474495, 10716109.059358904138207 ], [ 1732742.148199087474495, 10716118.901878589764237 ], [ 1732775.612766016507521, 10716118.901878589764237 ], [ 1732775.612766016507521, 10716130.712902212515473 ] ], [ [ 1732816.951348693808541, 10716030.319201424717903 ], [ 1732838.604892000788823, 10716030.319201424717903 ], [ 1732838.604892000788823, 10716008.665658118203282 ], [ 1732816.951348693808541, 10716008.665658118203282 ], [ 1732816.951348693808541, 10716030.319201424717903 ] ], [ [ 1732761.833238457562402, 10715711.421563629060984 ], [ 1732785.45528570166789, 10715711.421563629060984 ], [ 1732785.45528570166789, 10715679.925500636920333 ], [ 1732789.392293575685471, 10715679.925500636920333 ], [ 1732789.392293575685471, 10715658.271957330405712 ], [ 1732779.549773890525103, 10715658.271957330405712 ], [ 1732779.549773890525103, 10715636.618414023891091 ], [ 1732730.337175465421751, 10715636.618414023891091 ], [ 1732730.337175465421751, 10715658.271957330405712 ], [ 1732767.738750268472359, 10715658.271957330405712 ], [ 1732767.738750268472359, 10715672.051484888419509 ], [ 1732761.833238457562402, 10715672.051484888419509 ], [ 1732761.833238457562402, 10715711.421563629060984 ] ], [ [ 1732840.573395937914029, 10715697.642036071047187 ], [ 1732868.132451056037098, 10715697.642036071047187 ], [ 1732868.132451056037098, 10715672.051484888419509 ], [ 1732840.573395937914029, 10715672.051484888419509 ], [ 1732840.573395937914029, 10715668.114477016031742 ], [ 1732836.636388063896447, 10715668.114477016031742 ], [ 1732836.636388063896447, 10715662.208965204656124 ], [ 1732803.171821134630591, 10715662.208965204656124 ], [ 1732803.171821134630591, 10715689.768020322546363 ], [ 1732840.573395937914029, 10715689.768020322546363 ], [ 1732840.573395937914029, 10715697.642036071047187 ] ] ] } }
]
}
