{
"type": "FeatureCollection",
"name": "midland-draw-2277",
"crs": { "type": "name", "properties": { "name": "urn:ogc:def:crs:EPSG::2277" } },
"features": [
{ "type": "Feature", "properties": { "comid": 5688042, "gnis_name": null, "reachcode": "12080005000009" }, "geometry": { "type": "LineString", "coordinates": [ [ 1727475.527879117056727, 10718671.220144979655743 ], [ 1727816.49057883117348, 10718640.483585678040981 ], [ 1728091.817324856296182, 10718669.416785195469856 ], [ 1728276.718591323122382, 10718758.063096607103944 ], [ 1728851.639783273916692, 10718765.688519112765789 ], [ 1729019.942331367172301, 10718862.617475848644972 ], [ 1729569.492142173927277, 10719362.265871083363891 ], [ 1729889.192570234881714, 10719565.142580144107342 ], [ 1729998.162842967081815, 10719596.827083867043257 ], [ 1730139.59071977972053, 10719586.132901856675744 ], [ 1730586.916886448161677, 10719428.866736944764853 ], [ 1730854.008175578899682, 10719466.326253578066826 ], [ 1730980.076417469419539, 10719539.214729553088546 ], [ 1731147.145439541665837, 10719561.580197 ], [ 1731471.648729982785881, 10719547.887931168079376 ], [ 1732069.054344394477084, 10719396.913201726973057 ], [ 1732836.2480287628714, 10719434.20423205755651 ], [ 1733010.180806883377954, 10719364.770403442904353 ], [ 1733183.263272906886414, 10719262.238927459344268 ], [ 1733671.33916935021989, 10719037.758200611919165 ], [ 1733909.567001990042627, 10718825.732303177937865 ], [ 1734049.912284071091563, 10718748.483229830861092 ], [ 1734290.007176890037954, 10718669.60697097890079 ], [ 1734650.130489793140441, 10718255.467853723093867 ], [ 1734998.115057145012543, 10718141.725154494866729 ], [ 1735186.574905005749315, 10717955.262925939634442 ], [ 1735269.225898867705837, 10717912.071291269734502 ], [ 1735336.511279475409538, 10717952.820668103173375 ], [ 1735413.511341586709023, 10718076.374805588275194 ], [ 1735483.236558433156461, 10718267.000049885362387 ], [ 1735768.6812479426153, 10718403.899784591048956 ], [ 1736040.922221042215824, 10718757.884502872824669 ], [ 1736216.219289581757039, 10718771.771622583270073 ], [ 1736396.181981696048751, 10718577.085015716031194 ], [ 1736578.626068454002962, 10718515.900151574984193 ], [ 1736713.593076267046854, 10718622.14099513925612 ], [ 1736799.086680246284232, 10718753.929305512458086 ], [ 1736992.692002024268731, 10718883.962063362821937 ], [ 1737200.732605595141649, 10718872.579167680814862 ], [ 1737283.383806755999103, 10718829.392311533913016 ], [ 1737389.645592730725184, 10718694.490627229213715 ], [ 1737445.163475051056594, 10718010.238399950787425 ], [ 1737613.034897635923699, 10717566.138833809643984 ], [ 1737784.246407012455165, 10717346.858701534569263 ], [ 1738048.954502359265462, 10717217.759600667282939 ], [ 1738207.078363761072978, 10717223.202353866770864 ], [ 1738892.3313853291329, 10717345.646843077614903 ], [ 1739174.66872284328565, 10717290.864729762077332 ], [ 1739540.61743288510479, 10717251.835277820006013 ], [ 1740022.238163088448346, 10717160.72723095305264 ], [ 1740198.616188692627475, 10717241.205585777759552 ], [ 1740507.528726116754115, 10717277.700844805687666 ], [ 1740639.665342409629375, 10717208.980572378262877 ], [ 1740679.968726902967319, 10717133.373034274205565 ], [ 1740680.810387569945306, 10716666.877296928316355 ], [ 1740704.830190122360364, 10716599.901544632390141 ], [ 1740819.302062305388972, 10716473.247737580910325 ], [ 1741127.012880170252174, 10716434.810692241415381 ], [ 1741343.967185332905501, 10716456.421619994565845 ], [ 1741634.909141783136874, 10716434.997326446697116 ], [ 1741947.232937119435519, 10716163.252585308626294 ], [ 1742038.401655726134777, 10716128.673281220719218 ], [ 1742329.656523932702839, 10716107.249874798581004 ], [ 1742669.719969770172611, 10716018.456217996776104 ], [ 1743016.408561452524737, 10715821.126344757154584 ], [ 1743108.782719730399549, 10715861.487718902528286 ], [ 1743169.298390017822385, 10716002.061234204098582 ], [ 1743217.897389873629436, 10716442.655043914914131 ], [ 1743312.407176933949813, 10716616.159112103283405 ], [ 1743388.178275525802746, 10716664.792937587946653 ], [ 1743596.764964976813644, 10716686.552326500415802 ], [ 1743679.563495168229565, 10716651.747783357277513 ], [ 1744130.814719276269898, 10716211.505853800103068 ], [ 1744386.606215264182538, 10716065.497179845348001 ], [ 1744751.23907871870324, 10715943.218358004465699 ], [ 1745317.956504289759323, 10715958.891680110245943 ], [ 1745425.548626555129886, 10715924.05870102904737 ], [ 1745648.198439549654722, 10715778.589600667357445 ], [ 1745739.767123747151345, 10715768.756892260164022 ], [ 1745965.354346571490169, 10715806.996908739209175 ], [ 1746047.713854697300121, 10715763.836185304448009 ], [ 1746153.351182027254254, 10715587.127763774245977 ], [ 1746268.247068387223408, 10715485.5927718821913 ], [ 1746458.506469421088696, 10715407.234334539622068 ], [ 1746633.420735321706161, 10715396.437587121501565 ], [ 1746784.824886317597702, 10715485.353001683950424 ], [ 1746861.527611130848527, 10715592.562398191541433 ], [ 1747000.319599279202521, 10715940.026994828134775 ], [ 1747144.156105769332498, 10716079.278631532564759 ], [ 1747336.324054800206795, 10716101.322416968643665 ], [ 1747418.684511655010283, 10716058.16495256125927 ], [ 1747516.762933291029185, 10715931.795114502310753 ], [ 1747546.597021226771176, 10715723.186733115464449 ], [ 1747619.443455011816695, 10715588.486392775550485 ], [ 1747726.639208744978532, 10715528.560029279440641 ], [ 1748042.203116836259142, 10715456.947884451597929 ], [ 1748215.736864423146471, 10715378.865431455895305 ], [ 1748503.425848559010774, 10715132.680321311578155 ], [ 1748677.942935961764306, 10715096.793373679742217 ], [ 1749102.555965652456507, 10715081.312655357643962 ], [ 1749193.424639680422843, 10715046.757243573665619 ], [ 1749332.363165009999648, 10714877.899076050147414 ], [ 1749410.412662849761546, 10714543.356574658304453 ], [ 1749507.927341488422826, 10714400.263852920383215 ], [ 1749688.651424557436258, 10714247.481994245201349 ], [ 1750101.345369672169909, 10714007.332609055563807 ], [ 1750315.004550609504804, 10713820.556157080456614 ], [ 1750571.502320764120668, 10713716.428074894472957 ], [ 1750912.006868177792057, 10713652.816553808748722 ], [ 1751043.91283388948068, 10713567.40277342684567 ], [ 1751084.288328919792548, 10713475.069139020517468 ], [ 1751090.236544592073187, 10713341.799569176509976 ], [ 1751161.783737475052476, 10713123.802409367635846 ], [ 1751325.836127515882254, 10712954.555552158504725 ], [ 1751455.594838124932721, 10712752.740031337365508 ], [ 1751499.678804588504136, 10712385.265064520761371 ], [ 1751578.152578405104578, 10712075.829057600349188 ], [ 1752060.821936484891921, 10711534.772172659635544 ], [ 1752172.720776173751801, 10711241.547774853184819 ], [ 1752232.891761338571087, 10710832.339825699105859 ], [ 1752314.093402820639312, 10710714.620449149981141 ], [ 1752412.595911182230338, 10710613.002105375751853 ] ] } }
]
}
