{
"type": "FeatureCollection",
"name": "pipelines-2277",
"crs": { "type": "name", "properties": { "name": "urn:ogc:def:crs:EPSG::2277" } },
"features": [
{ "type": "Feature", "properties": { "operator": "ONEOK WESTEX TRANSMISSION,L.L.C.", "commodity": "NATURAL GAS", "system": "ONEOK WESTEX TRANSMISSION", "subsystem": "UNKNOWN", "diameter_in": 16.0, "t4_permit": "00679", "system_type": "Natural/Other Gas Transmission", "status": "In Service" }, "geometry": { "type": "LineString", "coordinates": [ [ 1730911.455200198106468, 10721863.427967470139265 ], [ 1725809.238693181192502, 10720560.524349359795451 ], [ 1725796.484575665555894, 10720557.269480204209685 ], [ 1725727.881331507349387, 10720539.759720668196678 ] ] } },
{ "type": "Feature", "properties": { "operator": "ORYX MIDLAND OIL GATHERING LLC", "commodity": "CRUDE OIL", "system": "GREEN TREE", "subsystem": "GREEN TREE", "diameter_in": 6.63, "t4_permit": "10611", "system_type": "Crude Oil Gathering", "status": "In Service" }, "geometry": { "type": "LineString", "coordinates": [ [ 1727535.444224064238369, 10720971.595704836770892 ], [ 1727541.009844437241554, 10720973.150670140981674 ], [ 1727541.882330338470638, 10720973.300861282274127 ], [ 1727547.293204717338085, 10720974.74530734308064 ], [ 1727572.755337285576388, 10720981.61508728004992 ], [ 1727612.750676041468978, 10720992.340370986610651 ], [ 1727652.938721911748871, 10721003.02871405147016 ], [ 1727692.081109266728163, 10721012.928527534008026 ], [ 1727732.385907402029261, 10721023.051938146352768 ], [ 1727767.225997168803588, 10721031.333042345941067 ], [ 1727807.056652561761439, 10721041.925265723839402 ], [ 1727822.81211891095154, 10721046.064576160162687 ], [ 1727846.842766080284491, 10721052.357275409623981 ], [ 1727885.029931946191937, 10721062.171682052314281 ], [ 1727925.209203491453081, 10721072.449793603271246 ], [ 1727965.081536795711145, 10721082.489365581423044 ], [ 1728004.826142399339005, 10721092.583581894636154 ], [ 1728045.100520650157705, 10721102.84196874126792 ], [ 1728085.253134074853733, 10721112.834857732057571 ], [ 1728124.850977605674416, 10721122.658498674631119 ], [ 1728164.560693595558405, 10721132.710089031606913 ], [ 1728204.671854252228513, 10721143.18059253692627 ], [ 1728240.182635963195935, 10721152.176565093919635 ], [ 1728246.596225182292983, 10721153.716565424576402 ], [ 1728283.905737665016204, 10721163.435792883858085 ], [ 1728321.73836697335355, 10721173.036529570817947 ], [ 1728361.894834879785776, 10721183.412121428176761 ], [ 1728400.124806802719831, 10721193.131608873605728 ], [ 1728440.48515727207996, 10721203.0800984762609 ], [ 1728481.395140127977356, 10721213.242843190208077 ], [ 1728521.587015421828255, 10721223.488476201891899 ], [ 1728561.521159178344533, 10721233.768353560939431 ], [ 1728600.210906892549247, 10721243.639295272529125 ], [ 1728639.787637663539499, 10721253.830556653439999 ], [ 1728677.580494976136833, 10721263.348632697016001 ], [ 1728717.72701052762568, 10721273.706685874611139 ], [ 1728757.770833174232394, 10721284.111954748630524 ], [ 1728797.881986393593252, 10721294.584959371015429 ], [ 1728838.18136950652115, 10721304.845922347158194 ], [ 1728878.231515214079991, 10721314.810990050435066 ], [ 1728918.561025614151731, 10721325.034524625167251 ], [ 1728958.370318116387352, 10721335.24399234354496 ], [ 1728998.272568739950657, 10721345.316170141100883 ], [ 1729038.887174140661955, 10721355.555567445233464 ], [ 1729078.824854643084109, 10721365.490282719954848 ], [ 1729116.410230125067756, 10721374.967716274783015 ], [ 1729156.738192261429504, 10721384.873587314039469 ], [ 1729197.301842707907781, 10721395.422986825928092 ], [ 1729236.199244951363653, 10721405.27704262919724 ], [ 1729276.388318962417543, 10721415.622717117890716 ], [ 1729315.890238060615957, 10721425.738716430962086 ], [ 1729355.491493476321921, 10721436.092632548883557 ], [ 1729395.461119729559869, 10721446.21753865480423 ], [ 1729435.280514726182446, 10721456.394520346075296 ], [ 1729474.868315972853452, 10721466.230637192726135 ], [ 1729515.515917612006888, 10721476.31005335226655 ], [ 1729555.287369105732068, 10721486.626961233094335 ], [ 1729582.997242993908003, 10721493.791127700358629 ], [ 1729594.661538024898618, 10721496.805108532309532 ], [ 1729634.416501375613734, 10721506.781796853989363 ], [ 1729674.385790008818731, 10721517.019258186221123 ], [ 1729714.368327619740739, 10721527.00913542509079 ], [ 1729753.013030845206231, 10721536.887445574626327 ], [ 1729786.454334035050124, 10721545.364453362300992 ], [ 1729788.261050972389057, 10721544.259317960590124 ], [ 1729798.300607305718586, 10721504.391985837370157 ], [ 1729799.669896372128278, 10721499.020905835554004 ], [ 1729809.413210031343624, 10721461.186201812699437 ], [ 1729819.699109744746238, 10721420.911904830485582 ], [ 1729829.851198821561411, 10721381.052414055913687 ], [ 1729839.810693319188431, 10721341.192345537245274 ], [ 1729849.883650989504531, 10721301.02996607683599 ], [ 1729860.034439352573827, 10721260.770271312445402 ], [ 1729870.205380101921037, 10721220.463113263249397 ], [ 1729880.314483068184927, 10721180.758571095764637 ], [ 1729890.925324805779383, 10721140.557785231620073 ], [ 1729901.830998933408409, 10721101.295852800831199 ], [ 1729902.614023272879422, 10721100.417761540040374 ], [ 1729927.500075348187238, 10721087.540940299630165 ], [ 1729964.552397652063519, 10721068.765148375183344 ], [ 1730000.235387782566249, 10721051.205858940258622 ], [ 1730036.690744541818276, 10721032.986055074259639 ], [ 1730073.539086737902835, 10721014.669881321489811 ], [ 1730110.340423320885748, 10720996.180980270728469 ], [ 1730146.963594944216311, 10720977.884141029790044 ], [ 1730183.06087838858366, 10720959.795829262584448 ], [ 1730220.266340928850695, 10720941.665819358080626 ], [ 1730257.585356666473672, 10720923.203483752906322 ], [ 1730294.373099096119404, 10720905.077223243191838 ], [ 1730331.809222345240414, 10720886.765313962474465 ], [ 1730359.926475766580552, 10720873.192833149805665 ], [ 1730369.01449727313593, 10720868.697834743186831 ], [ 1730406.172976690344512, 10720850.387593803927302 ], [ 1730442.916079663904384, 10720832.133635567501187 ], [ 1730449.321414168691263, 10720828.92123481631279 ], [ 1730480.009917304385453, 10720813.693135686218739 ], [ 1730517.201205297606066, 10720795.285444380715489 ], [ 1730552.348744946764782, 10720777.787079885601997 ], [ 1730588.791092750616372, 10720759.734820699319243 ], [ 1730626.019756581867114, 10720741.374765271320939 ], [ 1730661.436761050950736, 10720724.099820408970118 ], [ 1730699.108194761676714, 10720705.723584460094571 ], [ 1730704.624002592405304, 10720703.038780381903052 ], [ 1730706.640640331199393, 10720703.662638919427991 ], [ 1730713.919193702517077, 10720718.699481258168817 ], [ 1730732.59374313056469, 10720756.149199586361647 ], [ 1730750.879534122766927, 10720793.12001284211874 ], [ 1730768.354696876369417, 10720828.497598906978965 ], [ 1730786.486799852922559, 10720865.00521975569427 ], [ 1730804.89269483438693, 10720901.961385814473033 ], [ 1730823.470214125234634, 10720939.238226808607578 ], [ 1730841.216930290684104, 10720974.976807618513703 ], [ 1730859.613505796762183, 10721012.538248402997851 ], [ 1730877.190190985566005, 10721048.258810389786959 ], [ 1730895.957383450120687, 10721085.6762904394418 ], [ 1730902.560780097497627, 10721098.985244479030371 ], [ 1730946.21583219547756, 10721187.125209236517549 ], [ 1730964.255137301981449, 10721224.550510756671429 ], [ 1730982.463145312853158, 10721262.436548477038741 ], [ 1730996.171532588312402, 10721290.274070326238871 ] ] } },
{ "type": "Feature", "properties": { "operator": "ORYX MIDLAND OIL GATHERING LLC", "commodity": "CRUDE OIL", "system": "GREEN TREE", "subsystem": "GREEN TREE", "diameter_in": 6.63, "t4_permit": "10611", "system_type": "Crude Oil Gathering", "status": "In Service" }, "geometry": { "type": "LineString", "coordinates": [ [ 1730996.171532588312402, 10721290.274070326238871 ], [ 1731000.651486033573747, 10721299.374553203582764 ], [ 1731019.108223510207608, 10721336.058235513046384 ], [ 1731019.287849347572774, 10721337.046768389642239 ], [ 1731016.460555155994371, 10721347.345940932631493 ], [ 1731005.926884023938328, 10721387.669519700109959 ], [ 1730995.538839360699058, 10721427.808442775160074 ], [ 1730985.35969958268106, 10721466.679858485236764 ], [ 1730975.360663229832426, 10721505.546811962500215 ], [ 1730965.19586563645862, 10721545.473798466846347 ], [ 1730954.933972969185561, 10721586.083335155621171 ], [ 1730944.659226374933496, 10721625.974974336102605 ], [ 1730934.498213063925505, 10721665.474258361384273 ], [ 1730924.007640531519428, 10721705.605370191857219 ], [ 1730918.759371696971357, 10721726.665164291858673 ], [ 1730913.886454402236268, 10721746.002722688019276 ], [ 1730903.580357462866232, 10721786.339490475133061 ], [ 1730897.155864225234836, 10721811.780448514968157 ], [ 1730898.251122242538258, 10721813.544614601880312 ], [ 1730910.417811502469704, 10721816.677661255002022 ], [ 1730922.47307693050243, 10721819.760153520852327 ] ] } },
{ "type": "Feature", "properties": { "operator": "ENLINK PERMIAN, LLC", "commodity": "NATURAL GAS", "system": "CORONADO SYSTEM", "subsystem": "AUTRY STEPHENS CONNECT", "diameter_in": 20.0, "t4_permit": "10274", "system_type": "Natural Gas Gathering", "status": "In Service" }, "geometry": { "type": "MultiLineString", "coordinates": [ [ [ 1729244.183442524401471, 10721496.091390831395984 ], [ 1729222.98459030687809, 10721579.629943531006575 ] ], [ [ 1729247.319362953305244, 10721482.966730922460556 ], [ 1729249.640986699378118, 10721474.474445709958673 ], [ 1729249.873330796370283, 10721474.565187737345695 ], [ 1729246.77788998815231, 10721485.869058599695563 ], [ 1729244.183442524401471, 10721496.091390831395984 ] ] ] } },
{ "type": "Feature", "properties": { "operator": "ENERGY TRANSFER COMPANY", "commodity": "NATURAL GAS", "system": "SALE RANCH", "subsystem": "771367  TIES IN BLACKFOOT", "diameter_in": 10.75, "t4_permit": "09393", "system_type": "Natural Gas Gathering", "status": "In Service" }, "geometry": { "type": "LineString", "coordinates": [ [ 1727477.273288917029276, 10720923.019497921690345 ], [ 1727477.060259444173425, 10720923.994346609339118 ], [ 1727447.030957766575739, 10721060.497561044991016 ], [ 1727442.011276060715318, 10721102.911217592656612 ], [ 1727960.293292998569086, 10721233.688110267743468 ], [ 1728840.606378124793991, 10721456.996771303936839 ], [ 1729632.339970415923744, 10721659.529447143897414 ], [ 1729661.096880852477625, 10721666.189000679180026 ], [ 1729668.224827406229451, 10721678.901729444041848 ], [ 1729662.210373569978401, 10721691.047515632584691 ] ] } },
{ "type": "Feature", "properties": { "operator": "ENERGY TRANSFER COMPANY", "commodity": "HIGHLY VOLATILE LIQUID", "system": "ROSWELL EAST", "subsystem": "S187 TX NGL ANDREWS TO MP 108  100 LINE", "diameter_in": 8.63, "t4_permit": "06792", "system_type": "Highly Volatile Liquid Transmission", "status": "In Service" }, "geometry": { "type": "LineString", "coordinates": [ [ 1729778.887820429634303, 10721720.644862473011017 ], [ 1731048.868699395330623, 10721085.722296023741364 ] ] } },
{ "type": "Feature", "properties": { "operator": "ENERGY TRANSFER COMPANY", "commodity": "CRUDE OIL", "system": "MALLET TO MIDLAND 3", "subsystem": "C24022 ANDREWS TO MIDLAND 3", "diameter_in": 12.75, "t4_permit": "06776", "system_type": "Crude Oil Transmission", "status": "In Service" }, "geometry": { "type": "LineString", "coordinates": [ [ 1731056.487090636743233, 10721055.845199648290873 ], [ 1731123.220351363299415, 10721022.528630882501602 ], [ 1731123.681589662097394, 10721022.298345565795898 ] ] } },
{ "type": "Feature", "properties": { "operator": "ENERGY TRANSFER COMPANY", "commodity": "CRUDE OIL", "system": "MALLET TO MIDLAND 2", "subsystem": "C2401203  ANDREWS TO MIDLAND 2", "diameter_in": 10.75, "t4_permit": "06776", "system_type": "Crude Oil Transmission", "status": "In Service" }, "geometry": { "type": "LineString", "coordinates": [ [ 1731052.798914391547441, 10721070.463950796052814 ], [ 1731056.045390654820949, 10721068.845375567674637 ], [ 1731096.10077464254573, 10721048.715410560369492 ], [ 1731120.031239706091583, 10721036.765997236594558 ] ] } },
{ "type": "Feature", "properties": { "operator": "ENERGY TRANSFER COMPANY", "commodity": "CRUDE OIL", "system": "MALLET TO MIDLAND 3", "subsystem": "C24022 ANDREWS TO MIDLAND 3", "diameter_in": 12.75, "t4_permit": "06776", "system_type": "Crude Oil Transmission", "status": "In Service" }, "geometry": { "type": "LineString", "coordinates": [ [ 1729743.220771138323471, 10721711.597269669175148 ], [ 1729759.396530746947974, 10721703.542416047304869 ], [ 1730088.424619079334661, 10721538.92665034532547 ], [ 1730128.064214129466563, 10721518.990535739809275 ], [ 1730168.627917849924415, 10721498.672000704333186 ], [ 1730210.122123430017382, 10721478.341249572113156 ], [ 1730248.536366921616718, 10721459.151834243908525 ], [ 1730290.024164284579456, 10721438.455881252884865 ], [ 1730330.581444779178128, 10721417.77714684791863 ], [ 1730371.461723945802078, 10721397.819741560146213 ], [ 1730411.715252823429182, 10721377.507779771462083 ], [ 1730452.281450217124075, 10721357.191753437742591 ], [ 1730485.780360636767, 10721340.62891348823905 ], [ 1730516.511969986604527, 10721325.205846084281802 ], [ 1730559.225118844304234, 10721303.763193722814322 ], [ 1730600.712916148127988, 10721283.067240685224533 ], [ 1730640.968938706209883, 10721262.757787588983774 ], [ 1730681.235291443765163, 10721243.173728162422776 ], [ 1731056.487090636743233, 10721055.845199648290873 ] ] } },
{ "type": "Feature", "properties": { "operator": "ENERGY TRANSFER COMPANY", "commodity": "CRUDE OIL", "system": "MALLET TO MIDLAND 2", "subsystem": "C2401203  ANDREWS TO MIDLAND 2", "diameter_in": 10.75, "t4_permit": "06776", "system_type": "Crude Oil Transmission", "status": "In Service" }, "geometry": { "type": "LineString", "coordinates": [ [ 1729758.32798339263536, 10721715.429487572982907 ], [ 1729799.722519433824345, 10721694.929021097719669 ], [ 1729840.967082490213215, 10721674.437441082671285 ], [ 1729845.330779749201611, 10721672.264438480138779 ], [ 1729867.324614598881453, 10721661.312407737597823 ], [ 1729906.685440372209996, 10721641.75314574316144 ], [ 1729937.684666198911145, 10721626.335883719846606 ], [ 1729964.968868235126138, 10721612.808427643030882 ], [ 1729995.549481061985716, 10721597.692561157047749 ], [ 1730029.612120794598013, 10721580.813753545284271 ], [ 1730071.054768548347056, 10721560.160186422988772 ], [ 1730109.321191989351064, 10721541.052868951112032 ], [ 1730150.147734768223017, 10721520.665087392553687 ], [ 1730190.688904921989888, 10721500.353988520801067 ], [ 1730228.118980250321329, 10721481.556818449869752 ], [ 1730265.695870193885639, 10721463.012715118005872 ], [ 1730274.643530329223722, 10721458.614844406023622 ], [ 1730310.095091823954135, 10721440.659663043916225 ], [ 1730350.538796589709818, 10721420.320757998153567 ], [ 1730387.913994939532131, 10721401.47339827939868 ], [ 1730430.201327276881784, 10721380.232069846242666 ], [ 1730466.448932067258283, 10721362.061667669564486 ], [ 1730506.622031457722187, 10721341.879529619589448 ], [ 1730544.239406211534515, 10721323.180470144376159 ], [ 1730563.780659473733976, 10721313.51422855257988 ], [ 1730643.134143409319222, 10721273.889845861122012 ], [ 1730684.068141343770549, 10721253.534902807325125 ], [ 1730725.310495634563267, 10721232.945767233148217 ], [ 1730759.75418480951339, 10721215.78045878559351 ], [ 1730766.096853571245447, 10721212.612892538309097 ], [ 1730807.263698293827474, 10721192.181109216064215 ], [ 1730848.460910407826304, 10721171.63185821659863 ], [ 1730889.331912383437157, 10721151.431803710758686 ], [ 1730931.898661853279918, 10721130.431433470919728 ], [ 1730974.302613891893998, 10721109.503111129626632 ], [ 1731015.997975531267002, 10721088.820286927744746 ], [ 1731052.798914391547441, 10721070.463950796052814 ] ] } },
{ "type": "Feature", "properties": { "operator": "ENERGY TRANSFER COMPANY", "commodity": "HIGHLY VOLATILE LIQUID", "system": "ROSWELL EAST", "subsystem": "S187 TX NGL ANDREWS TO MP 108  100 LINE", "diameter_in": 8.63, "t4_permit": "06792", "system_type": "Highly Volatile Liquid Transmission", "status": "In Service" }, "geometry": { "type": "LineString", "coordinates": [ [ 1731048.868699395330623, 10721085.722296023741364 ], [ 1731113.718335422454402, 10721053.300526892766356 ], [ 1731116.168468254385516, 10721052.075551807880402 ] ] } },
{ "type": "Feature", "properties": { "operator": "ENLINK PERMIAN, LLC", "commodity": "NATURAL GAS", "system": "CORONADO SYSTEM", "subsystem": "IDAHO", "diameter_in": 16.0, "t4_permit": "10274", "system_type": "Natural Gas Gathering", "status": "In Service" }, "geometry": { "type": "MultiLineString", "coordinates": [ [ [ 1730779.845603629015386, 10721974.555926509201527 ], [ 1730796.831402904354036, 10721899.928715797141194 ], [ 1729244.183442524401471, 10721496.091390831395984 ] ], [ [ 1729244.183442524401471, 10721496.091390831395984 ], [ 1727484.375673401169479, 10721038.471020860597491 ], [ 1727509.841966391308233, 10720915.550916554406285 ] ] ] } }
]
}
