{"type": "FeatureCollection", "crs": {"type": "name", "properties": {"name": "EPSG:2277"}}, "features": [{"type": "Feature", "properties": {"abstract": "34", "survey": "T&P RR CO", "block": "39 T1S", "section": "7", "county": "Midland", "county_fips": "329", "source": "MidlandCADWebService FeatureServer layer 1 (Abstracts), OBJECTID 57, queried 2026-09-26", "source_url": "https://services5.arcgis.com/1pOc2HE5GDuzMESK/arcgis/rest/services/MidlandCADWebService/FeatureServer/1", "quarter_section_lines": "not carried by source layer"}, "geometry": {"type": "Polygon", "coordinates": [[[1732178.51239139, 10716841.6239456], [1727033.71559438, 10715545.2640056], [1725690.29964605, 10720683.5004482], [1730877.18625389, 10721999.2481448], [1732178.51239139, 10716841.6239456]]]}}]}