{"type": "FeatureCollection", "crs": {"type": "name", "properties": {"name": "EPSG:4326"}}, "features": [{"type": "Feature", "properties": {"abstract": "34", "survey": "T&P RR CO", "block": "39 T1S", "section": "7", "county": "Midland", "county_fips": "329", "center_lon": -102.165577, "center_lat": 32.062992, "source": "MidlandCADWebService FeatureServer layer 1 (Abstracts), OBJECTID 57, queried 2026-09-26", "source_url": "https://services5.arcgis.com/1pOc2HE5GDuzMESK/arcgis/rest/services/MidlandCADWebService/FeatureServer/1", "quarter_section_lines": "not carried by source layer"}, "geometry": {"type": "Polygon", "coordinates": [[[-102.155039474364, 32.0578458179065], [-102.171572900628, 32.0540505226581], [-102.176182711375, 32.0681103721048], [-102.159512196278, 32.0719614055448], [-102.155039474364, 32.0578458179065]]]}}]}