{
"type": "FeatureCollection",
"name": "ssurgo-2277",
"crs": { "type": "name", "properties": { "name": "urn:ogc:def:crs:EPSG::2277" } },
"features": [
{ "type": "Feature", "properties": { "musym": "Bc", "muname": "Bippus clay loam, 0 to 2 percent slopes, occasionally flooded" }, "geometry": { "type": "Polygon", "coordinates": [ [ [ 1726123.960453398758546, 10719161.509657083079219 ], [ 1726323.650986853288487, 10719151.290877936407924 ], [ 1726677.552714186254889, 10719191.284259017556906 ], [ 1726796.903227594448254, 10719175.847270281985402 ], [ 1726889.907982712145895, 10719141.197042550891638 ], [ 1726936.368253611261025, 10719140.06511271558702 ], [ 1727165.790776818757877, 10718922.67936791293323 ], [ 1727231.415951411705464, 10718881.205044776201248 ], [ 1727403.584207247011364, 10718817.957849781960249 ], [ 1727563.201470811385661, 10718801.494609124958515 ], [ 1727963.031582578551024, 10718807.994215097278357 ], [ 1728103.927504408638924, 10718858.795155616477132 ], [ 1728198.908419240964577, 10718943.830339774489403 ], [ 1728267.268303847871721, 10719049.317868791520596 ], [ 1728287.975854565156624, 10719102.465801926329732 ], [ 1728316.576033300021663, 10719202.059437278658152 ], [ 1728311.612505934434012, 10719295.65685897693038 ], [ 1728286.601569423219189, 10719376.121570330113173 ], [ 1728227.723566990578547, 10719450.959021970629692 ], [ 1728103.208801813656464, 10719566.541604390367866 ], [ 1727984.209641098976135, 10719621.994436386972666 ], [ 1727858.381473460700363, 10719657.911195771768689 ], [ 1727765.140530731994659, 10719659.450195793062449 ], [ 1727887.865015388699248, 10719810.979480646550655 ], [ 1728060.689911157591268, 10719787.75074976682663 ], [ 1728318.836938481545076, 10719696.162916716188192 ], [ 1728423.876563349971548, 10719620.928330222144723 ], [ 1728509.179149674018845, 10719532.556109620258212 ], [ 1728585.39870662568137, 10719344.26852798089385 ], [ 1728563.372559554874897, 10719211.089914664626122 ], [ 1728587.940564340911806, 10719103.706080885604024 ], [ 1728653.331253207987174, 10719029.125838909298182 ], [ 1728686.147586124483496, 10719008.571961838752031 ], [ 1728792.906569738173857, 10718999.899147083982825 ], [ 1728940.641304578864947, 10719070.967730041593313 ], [ 1729115.998533475678414, 10719201.257334733381867 ], [ 1729276.824440456926823, 10719258.284577084705234 ], [ 1729439.498266951646656, 10719408.797687284648418 ], [ 1729493.988475250545889, 10719481.403404923155904 ], [ 1729582.459035826381296, 10719566.549531178548932 ], [ 1729817.685376639245078, 10719682.394334740936756 ], [ 1729905.521813889034092, 10719747.902537362650037 ], [ 1730073.158758703386411, 10719804.821469958871603 ], [ 1730133.051864286419004, 10719810.386603221297264 ], [ 1730272.757782696513459, 10719808.090353969484568 ], [ 1730418.178895226214081, 10719738.748006455600262 ], [ 1730523.532633222639561, 10719663.514723317697644 ], [ 1730563.271946175489575, 10719649.398626804351807 ], [ 1730749.526903824182227, 10719632.512552199885249 ], [ 1730929.718722905730829, 10719642.653657361865044 ], [ 1731270.862645614892244, 10719736.756770620122552 ], [ 1731364.514585552737117, 10719741.406361853703856 ], [ 1731437.512877276400104, 10719733.659356530755758 ], [ 1731449.841198984300718, 10719729.610336491838098 ], [ 1731525.134294919902459, 10719431.196677962318063 ], [ 1730972.256172885652632, 10719421.448081256821752 ], [ 1730852.045667852740735, 10719403.408360835164785 ], [ 1730725.354541949694976, 10719405.852390300482512 ], [ 1730678.357803439255804, 10719393.160834427922964 ], [ 1730472.054997937055305, 10719396.913294358178973 ], [ 1730279.312677716603503, 10719433.920503489673138 ], [ 1730233.833281461847946, 10719494.707081027328968 ], [ 1730181.216192705091089, 10719535.961869459599257 ], [ 1730128.466491571860388, 10719550.292271500453353 ], [ 1730041.730459867045283, 10719551.718177314847708 ], [ 1729914.052838543895632, 10719494.142260856926441 ], [ 1729752.122117870952934, 10719369.813610097393394 ], [ 1729711.636173863429576, 10719357.380143601447344 ], [ 1729644.268848040839657, 10719311.912600701674819 ], [ 1729360.059893458383158, 10719062.969754563644528 ], [ 1729164.24395421333611, 10718913.366633776575327 ], [ 1729028.309454837115481, 10718768.600310888141394 ], [ 1729033.496726930839941, 10718688.462721237912774 ], [ 1729157.137306205462664, 10718519.408748656511307 ], [ 1729182.144963138271123, 10718438.580983251333237 ], [ 1729204.745016663335264, 10718211.5158626511693 ], [ 1729235.687901336699724, 10718077.101108688861132 ], [ 1729255.553396925097331, 10717702.712619662284851 ], [ 1729232.256635637721047, 10717529.892673006281257 ], [ 1729211.21429391996935, 10717456.37292718142271 ], [ 1729155.979374516988173, 10717357.581215925514698 ], [ 1729094.650139848701656, 10717265.075793428346515 ], [ 1728931.629427377367392, 10717094.193401742726564 ], [ 1728803.301491864491254, 10717016.619331758469343 ], [ 1728690.010761481244117, 10717005.386633446440101 ], [ 1728603.90787073969841, 10717026.818616759032011 ], [ 1728486.224314020015299, 10717162.663572622463107 ], [ 1728433.599622313864529, 10717203.55713021568954 ], [ 1728334.284274822100997, 10717231.757342422381043 ], [ 1728281.005983253242448, 10717232.999778192490339 ], [ 1728248.18815985089168, 10717253.553994229063392 ], [ 1728208.884935422101989, 10717294.228213664144278 ], [ 1728197.105849036248401, 10717387.937824331223965 ], [ 1728147.201570546953008, 10717556.142518704757094 ], [ 1728068.39439756097272, 10717644.044310331344604 ], [ 1727989.108822622802109, 10717665.365412600338459 ], [ 1727728.872031924780458, 10717650.0110292006284 ], [ 1727556.595188439358026, 10717707.07234862446785 ], [ 1727396.744525782298297, 10717709.71218871511519 ], [ 1727126.494446533964947, 10717500.947195382788777 ], [ 1726979.085938602685928, 10717450.257875883951783 ], [ 1726840.368817088659853, 10717512.953923974186182 ], [ 1726631.080859603127465, 10717730.372173976153135 ], [ 1726559.827125605894253, 10717825.066171376034617 ], [ 1726501.497684133704752, 10717933.009845973923802 ], [ 1726464.183317678282037, 10718093.731499163433909 ], [ 1726487.592849343782291, 10718253.81247434951365 ], [ 1726515.329439252614975, 10718319.578631492331624 ], [ 1726569.827525339322165, 10718392.179614916443825 ], [ 1726617.158139507751912, 10718424.87312793917954 ], [ 1726717.23869952140376, 10718443.231023255735636 ], [ 1726743.657339586177841, 10718429.330827474594116 ], [ 1726809.836329450365156, 10718421.3229536768049 ], [ 1727054.10191275482066, 10718276.829903906211257 ], [ 1727147.015986506827176, 10718255.281399054452777 ], [ 1727333.277128299931064, 10718238.376885805279016 ], [ 1727484.982445300091058, 10718155.45519607886672 ], [ 1727589.802863562945276, 10718066.758573245257139 ], [ 1727754.944417956983671, 10717990.529858104884624 ], [ 1727854.885087891481817, 10717981.602869471535087 ], [ 1727948.352666371269152, 10717993.523758081719279 ], [ 1728074.193056237185374, 10717957.971175488084555 ], [ 1728198.713716996600851, 10717842.388728493824601 ], [ 1728341.622036669170484, 10717639.174026217311621 ], [ 1728412.84084790176712, 10717504.458369012922049 ], [ 1728517.02004845184274, 10717395.39840168133378 ], [ 1728576.371999921044335, 10717367.857371879741549 ], [ 1728636.357578167924657, 10717359.955137383192778 ], [ 1728790.027900780551136, 10717377.072033848613501 ], [ 1728843.66740378504619, 10717416.578186856582761 ], [ 1728932.144724310608581, 10717501.722407152876258 ], [ 1728989.147581985685974, 10717707.827179061248899 ], [ 1728964.045706132659689, 10717801.755984513089061 ], [ 1728879.263066184939817, 10717903.217654744163156 ], [ 1728826.423318881075829, 10717931.014774911105633 ], [ 1728574.195498852990568, 10717969.01144252717495 ], [ 1728476.099666623631492, 10718071.057465128600597 ], [ 1728477.634907271247357, 10718164.183703670278192 ], [ 1728518.256672132993117, 10718203.540112493559718 ], [ 1728765.060260249301791, 10718212.572017174214125 ], [ 1728839.905358414631337, 10718297.940686779096723 ], [ 1728846.962168695405126, 10718331.300766220316291 ], [ 1728835.485589468153194, 10718424.64140909910202 ], [ 1728632.130793212912977, 10718588.82438755966723 ], [ 1728420.111612711800262, 10718659.635988548398018 ], [ 1728347.111612126464024, 10718667.389376228675246 ], [ 1727939.500782341696322, 10718621.351464044302702 ], [ 1727419.789666714379564, 10718617.19577818363905 ], [ 1727094.589365531923249, 10718682.971522009000182 ], [ 1726995.399607137078419, 10718718.451131641864777 ], [ 1726817.387829985236749, 10718821.823100235313177 ], [ 1726804.951549799880013, 10718875.518183248117566 ], [ 1726778.978350974386558, 10718916.337648181244731 ], [ 1726700.797393320128322, 10719004.232474969699979 ], [ 1726680.884521311614662, 10719018.0251275729388 ], [ 1726594.679557552561164, 10719032.91424229554832 ], [ 1726474.573493741219863, 10719021.437744993716478 ], [ 1726447.716061930404976, 10719008.782623916864395 ], [ 1726134.84018174931407, 10718983.241951504722238 ], [ 1726085.924528459087014, 10719170.332325609400868 ], [ 1726123.960453398758546, 10719161.509657083079219 ] ] ] } },
{ "type": "Feature", "properties": { "musym": "AfA", "muname": "Amarillo fine sandy loam, 0 to 1 percent slopes" }, "geometry": { "type": "MultiPolygon", "coordinates": [ [ [ [ 1726878.726467667846009, 10716684.144822988659143 ], [ 1727112.328461152268574, 10716699.933005932718515 ], [ 1727246.418675483437255, 10716750.842916348949075 ], [ 1727341.211746374377981, 10716842.792310306802392 ], [ 1727522.518672763369977, 10716919.486114097759128 ], [ 1727682.58918812032789, 10716929.942708982154727 ], [ 1727775.177052775863558, 10716888.38838255032897 ], [ 1727853.777542469091713, 10716806.675271051004529 ], [ 1727864.693855166668072, 10716679.503558199852705 ], [ 1727769.375819723354653, 10716574.462010378018022 ], [ 1727613.827530752401799, 10716443.852372920140624 ], [ 1727592.147010515443981, 10716350.695076139643788 ], [ 1727610.652945948531851, 10716270.337589452043176 ], [ 1727708.5293832893949, 10716154.829730432480574 ], [ 1727834.794179348740727, 10716125.81915963627398 ], [ 1727974.932873736135662, 10716130.056401105597615 ], [ 1728108.498124517966062, 10716167.878897987306118 ], [ 1728277.037211724091321, 10716278.263501405715942 ], [ 1728507.197488417848945, 10716461.135343639180064 ], [ 1728621.479281626874581, 10716532.390079587697983 ], [ 1728769.110903386725113, 10716596.545988939702511 ], [ 1728902.539812603034079, 10716607.447229562327266 ], [ 1728962.526784993009642, 10716599.545569645240903 ], [ 1729194.063537128735334, 10716508.767265973612666 ], [ 1729179.000939409248531, 10716422.049775732681155 ], [ 1729110.087854398414493, 10716283.093631030991673 ], [ 1729094.809319615829736, 10716183.280355142429471 ], [ 1729159.985230707330629, 10716095.241735342890024 ], [ 1729184.899697755463421, 10716087.308522654697299 ], [ 1727033.715594379929826, 10715545.264005599543452 ], [ 1726733.500845681875944, 10716693.511772260069847 ], [ 1726878.726467667846009, 10716684.144822988659143 ] ] ], [ [ [ 1729454.261776897590607, 10716163.536082569509745 ], [ 1729624.20145159214735, 10716340.492762863636017 ], [ 1729792.411665786057711, 10716431.241022335365415 ], [ 1729826.21829627151601, 10716470.710977064445615 ], [ 1729860.550006333272904, 10716523.271731343120337 ], [ 1729916.890736324246973, 10716689.362641857936978 ], [ 1729920.711718344129622, 10716902.892885921522975 ], [ 1729935.000671222805977, 10716942.683899652212858 ], [ 1730050.599506482016295, 10717094.337505221366882 ], [ 1730092.846017398172989, 10717213.720947438850999 ], [ 1730087.769566344097257, 10717300.769935453310609 ], [ 1730068.923628716031089, 10717360.754843277856708 ], [ 1729913.012091413838789, 10717584.188949244096875 ], [ 1729893.755145143019035, 10717637.994904067367315 ], [ 1729730.460911609232426, 10717808.062045287340879 ], [ 1729670.893402984365821, 10717822.505223292857409 ], [ 1729565.52973657194525, 10717897.377159386873245 ], [ 1729559.245688257738948, 10717910.943856189027429 ], [ 1729587.096338083036244, 10717983.987950040027499 ], [ 1729576.281994881341234, 10718117.707281481474638 ], [ 1729511.659754953579977, 10718239.212609354406595 ], [ 1729493.460400199750438, 10718319.564187349751592 ], [ 1729515.040424504550174, 10718425.823912486433983 ], [ 1729585.580432898597792, 10718645.170396720990539 ], [ 1729674.401357295690104, 10718770.336997052654624 ], [ 1729688.380116534652188, 10718810.13310269638896 ], [ 1729784.767901812214404, 10718962.10215518437326 ], [ 1730021.64234958216548, 10719177.986406646668911 ], [ 1730135.893004402518272, 10719229.233699498698115 ], [ 1730251.464571337215602, 10719360.875708948820829 ], [ 1730279.312677716603503, 10719433.920503489673138 ], [ 1730472.054997937055305, 10719396.913294358178973 ], [ 1730678.357803439255804, 10719393.160834427922964 ], [ 1730725.354541949694976, 10719405.852390300482512 ], [ 1730852.045667852740735, 10719403.408360835164785 ], [ 1730972.256172885652632, 10719421.448081256821752 ], [ 1731525.134294919902459, 10719431.196677962318063 ], [ 1732178.512391390046105, 10716841.623945599421859 ], [ 1729437.869620480109006, 10716151.050607480108738 ], [ 1729454.261776897590607, 10716163.536082569509745 ] ] ] ] } },
{ "type": "Feature", "properties": { "musym": "SnB", "muname": "Spantara fine sandy loam, 1 to 3 percent slopes" }, "geometry": { "type": "Polygon", "coordinates": [ [ [ 1729247.672331833746284, 10716527.533798141404986 ], [ 1729268.14459910034202, 10716547.573631335049868 ], [ 1729357.079611176857725, 10716679.286993021145463 ], [ 1729378.755168210016564, 10716772.445443836972117 ], [ 1729401.640002529602498, 10716939.08625902235508 ], [ 1729389.179433870129287, 10716972.767611579969525 ], [ 1729331.546275587985292, 10717481.318581838160753 ], [ 1729360.164142315043136, 10717600.925556633621454 ], [ 1729409.335600163321942, 10717726.743998980149627 ], [ 1729443.672753144986928, 10717779.668199384585023 ], [ 1729565.52973657194525, 10717897.377159386873245 ], [ 1729670.893402984365821, 10717822.505223292857409 ], [ 1729730.460911609232426, 10717808.062045287340879 ], [ 1729893.755145143019035, 10717637.994904067367315 ], [ 1729913.012091413838789, 10717584.188949244096875 ], [ 1730068.923628716031089, 10717360.754843277856708 ], [ 1730087.769566344097257, 10717300.769935453310609 ], [ 1730092.846017398172989, 10717213.720947438850999 ], [ 1730050.599506482016295, 10717094.337505221366882 ], [ 1729935.000671222805977, 10716942.683899652212858 ], [ 1729920.711718344129622, 10716902.892885921522975 ], [ 1729916.890736324246973, 10716689.362641857936978 ], [ 1729860.550006333272904, 10716523.271731343120337 ], [ 1729826.21829627151601, 10716470.710977064445615 ], [ 1729792.411665786057711, 10716431.241022335365415 ], [ 1729624.20145159214735, 10716340.492762863636017 ], [ 1729454.261776897590607, 10716163.536082569509745 ], [ 1729437.869620480109006, 10716151.050607480108738 ], [ 1729184.899697755463421, 10716087.308522654697299 ], [ 1729159.985230707330629, 10716095.241735342890024 ], [ 1729094.809319615829736, 10716183.280355142429471 ], [ 1729110.087854398414493, 10716283.093631030991673 ], [ 1729179.000939409248531, 10716422.049775732681155 ], [ 1729194.063537128735334, 10716508.767265973612666 ], [ 1729247.672331833746284, 10716527.533798141404986 ] ] ] } },
{ "type": "Feature", "properties": { "musym": "AfA", "muname": "Amarillo fine sandy loam, 0 to 1 percent slopes" }, "geometry": { "type": "Polygon", "coordinates": [ [ [ 1730228.281356102554128, 10721758.459481958299875 ], [ 1730281.008613158483058, 10721724.116398938000202 ], [ 1730438.116209313506261, 10721574.529353702440858 ], [ 1730581.355988483410329, 10721391.694414835423231 ], [ 1730692.236876505427063, 10721275.980559473857284 ], [ 1730758.708114171633497, 10721248.32614959217608 ], [ 1730884.867710876045749, 10721232.791380250826478 ], [ 1731069.757684100884944, 10721236.018205808475614 ], [ 1731311.591351497685537, 10720277.544277403503656 ], [ 1731274.155090745538473, 10720277.419055311009288 ], [ 1730941.820557166356593, 10720323.262754339724779 ], [ 1730829.002170169493183, 10720358.955139864236116 ], [ 1730664.282884818036109, 10720441.712235959246755 ], [ 1730448.617119080619887, 10720686.139487473294139 ], [ 1730330.060613390989602, 10720768.503723360598087 ], [ 1730110.775256984168664, 10720792.484912009909749 ], [ 1729710.753519275924191, 10720772.864420147612691 ], [ 1729637.453988453838974, 10720780.983964571729302 ], [ 1729458.786784516880289, 10720844.327218398451805 ], [ 1729399.661779445130378, 10720885.326557325199246 ], [ 1729249.174091036198661, 10721041.722841024398804 ], [ 1729158.451116647338495, 10721177.1225182749331 ], [ 1729082.689963689772412, 10721411.977722587063909 ], [ 1729062.345002601621673, 10721538.880803732201457 ], [ 1730113.58707457431592, 10721805.547388011589646 ], [ 1730228.281356102554128, 10721758.459481958299875 ] ] ] } },
{ "type": "Feature", "properties": { "musym": "AfB", "muname": "Amarillo fine sandy loam, 1 to 3 percent slopes" }, "geometry": { "type": "Polygon", "coordinates": [ [ [ 1730884.867710876045749, 10721232.791380250826478 ], [ 1730758.708114171633497, 10721248.32614959217608 ], [ 1730692.236876505427063, 10721275.980559473857284 ], [ 1730581.355988483410329, 10721391.694414835423231 ], [ 1730438.116209313506261, 10721574.529353702440858 ], [ 1730281.008613158483058, 10721724.116398938000202 ], [ 1730228.281356102554128, 10721758.459481958299875 ], [ 1730113.58707457431592, 10721805.547388011589646 ], [ 1730877.186253889929503, 10721999.248144799843431 ], [ 1731069.757684100884944, 10721236.018205808475614 ], [ 1730884.867710876045749, 10721232.791380250826478 ] ] ] } },
{ "type": "Feature", "properties": { "musym": "MdA", "muname": "Midessa fine sandy loam, 0 to 1 percent slopes" }, "geometry": { "type": "Polygon", "coordinates": [ [ [ 1726453.149758094456047, 10718588.054495666176081 ], [ 1726628.720468955347314, 10718711.778288688510656 ], [ 1726817.387829985236749, 10718821.823100235313177 ], [ 1726995.399607137078419, 10718718.451131641864777 ], [ 1727094.589365531923249, 10718682.971522009000182 ], [ 1727419.789666714379564, 10718617.19577818363905 ], [ 1727939.500782341696322, 10718621.351464044302702 ], [ 1728347.111612126464024, 10718667.389376228675246 ], [ 1728420.111612711800262, 10718659.635988548398018 ], [ 1728632.130793212912977, 10718588.82438755966723 ], [ 1728835.485589468153194, 10718424.64140909910202 ], [ 1728846.962168695405126, 10718331.300766220316291 ], [ 1728839.905358414631337, 10718297.940686779096723 ], [ 1728765.060260249301791, 10718212.572017174214125 ], [ 1728518.256672132993117, 10718203.540112493559718 ], [ 1728477.634907271247357, 10718164.183703670278192 ], [ 1728476.099666623631492, 10718071.057465128600597 ], [ 1728574.195498852990568, 10717969.01144252717495 ], [ 1728826.423318881075829, 10717931.014774911105633 ], [ 1728879.263066184939817, 10717903.217654744163156 ], [ 1728964.045706132659689, 10717801.755984513089061 ], [ 1728989.147581985685974, 10717707.827179061248899 ], [ 1728932.144724310608581, 10717501.722407152876258 ], [ 1728843.66740378504619, 10717416.578186856582761 ], [ 1728790.027900780551136, 10717377.072033848613501 ], [ 1728636.357578167924657, 10717359.955137383192778 ], [ 1728576.371999921044335, 10717367.857371879741549 ], [ 1728517.02004845184274, 10717395.39840168133378 ], [ 1728412.84084790176712, 10717504.458369012922049 ], [ 1728341.622036669170484, 10717639.174026217311621 ], [ 1728198.713716996600851, 10717842.388728493824601 ], [ 1728074.193056237185374, 10717957.971175488084555 ], [ 1727948.352666371269152, 10717993.523758081719279 ], [ 1727854.885087891481817, 10717981.602869471535087 ], [ 1727754.944417956983671, 10717990.529858104884624 ], [ 1727589.802863562945276, 10718066.758573245257139 ], [ 1727484.982445300091058, 10718155.45519607886672 ], [ 1727333.277128299931064, 10718238.376885805279016 ], [ 1727147.015986506827176, 10718255.281399054452777 ], [ 1727054.10191275482066, 10718276.829903906211257 ], [ 1726809.836329450365156, 10718421.3229536768049 ], [ 1726743.657339586177841, 10718429.330827474594116 ], [ 1726717.23869952140376, 10718443.231023255735636 ], [ 1726617.158139507751912, 10718424.87312793917954 ], [ 1726569.827525339322165, 10718392.179614916443825 ], [ 1726515.329439252614975, 10718319.578631492331624 ], [ 1726487.592849343782291, 10718253.81247434951365 ], [ 1726464.183317678282037, 10718093.731499163433909 ], [ 1726501.497684133704752, 10717933.009845973923802 ], [ 1726559.827125605894253, 10717825.066171376034617 ], [ 1726631.080859603127465, 10717730.372173976153135 ], [ 1726840.368817088659853, 10717512.953923974186182 ], [ 1726979.085938602685928, 10717450.257875883951783 ], [ 1726983.715590993175283, 10717336.65293675288558 ], [ 1727002.213494665222242, 10717255.931247277185321 ], [ 1727092.283683656016365, 10717080.875264763832092 ], [ 1727249.486955327214673, 10716917.809849832206964 ], [ 1727341.211746374377981, 10716842.792310306802392 ], [ 1727246.418675483437255, 10716750.842916348949075 ], [ 1727112.328461152268574, 10716699.933005932718515 ], [ 1726878.726467667846009, 10716684.144822988659143 ], [ 1726733.500845681875944, 10716693.511772260069847 ], [ 1726261.450220502447337, 10718498.989612586796284 ], [ 1726453.149758094456047, 10718588.054495666176081 ] ] ] } },
{ "type": "Feature", "properties": { "musym": "GmB", "muname": "Gomez fine sandy loam, 1 to 3 percent slopes" }, "geometry": { "type": "Polygon", "coordinates": [ [ [ 1727126.494446533964947, 10717500.947195382788777 ], [ 1727396.744525782298297, 10717709.71218871511519 ], [ 1727556.595188439358026, 10717707.07234862446785 ], [ 1727728.872031924780458, 10717650.0110292006284 ], [ 1727989.108822622802109, 10717665.365412600338459 ], [ 1728068.39439756097272, 10717644.044310331344604 ], [ 1728147.201570546953008, 10717556.142518704757094 ], [ 1728197.105849036248401, 10717387.937824331223965 ], [ 1728208.884935422101989, 10717294.228213664144278 ], [ 1728248.18815985089168, 10717253.553994229063392 ], [ 1728281.005983253242448, 10717232.999778192490339 ], [ 1728334.284274822100997, 10717231.757342422381043 ], [ 1728433.599622313864529, 10717203.55713021568954 ], [ 1728486.224314020015299, 10717162.663572622463107 ], [ 1728603.90787073969841, 10717026.818616759032011 ], [ 1728690.010761481244117, 10717005.386633446440101 ], [ 1728803.301491864491254, 10717016.619331758469343 ], [ 1728931.629427377367392, 10717094.193401742726564 ], [ 1729094.650139848701656, 10717265.075793428346515 ], [ 1729155.979374516988173, 10717357.581215925514698 ], [ 1729211.21429391996935, 10717456.37292718142271 ], [ 1729232.256635637721047, 10717529.892673006281257 ], [ 1729255.553396925097331, 10717702.712619662284851 ], [ 1729235.687901336699724, 10718077.101108688861132 ], [ 1729204.745016663335264, 10718211.5158626511693 ], [ 1729182.144963138271123, 10718438.580983251333237 ], [ 1729157.137306205462664, 10718519.408748656511307 ], [ 1729033.496726930839941, 10718688.462721237912774 ], [ 1729028.309454837115481, 10718768.600310888141394 ], [ 1729164.24395421333611, 10718913.366633776575327 ], [ 1729360.059893458383158, 10719062.969754563644528 ], [ 1729644.268848040839657, 10719311.912600701674819 ], [ 1729711.636173863429576, 10719357.380143601447344 ], [ 1729752.122117870952934, 10719369.813610097393394 ], [ 1729914.052838543895632, 10719494.142260856926441 ], [ 1730041.730459867045283, 10719551.718177314847708 ], [ 1730128.466491571860388, 10719550.292271500453353 ], [ 1730181.216192705091089, 10719535.961869459599257 ], [ 1730233.833281461847946, 10719494.707081027328968 ], [ 1730279.312677716603503, 10719433.920503489673138 ], [ 1730251.464571337215602, 10719360.875708948820829 ], [ 1730135.893004402518272, 10719229.233699498698115 ], [ 1730021.64234958216548, 10719177.986406646668911 ], [ 1729784.767901812214404, 10718962.10215518437326 ], [ 1729688.380116534652188, 10718810.13310269638896 ], [ 1729674.401357295690104, 10718770.336997052654624 ], [ 1729585.580432898597792, 10718645.170396720990539 ], [ 1729515.040424504550174, 10718425.823912486433983 ], [ 1729493.460400199750438, 10718319.564187349751592 ], [ 1729511.659754953579977, 10718239.212609354406595 ], [ 1729576.281994881341234, 10718117.707281481474638 ], [ 1729587.096338083036244, 10717983.987950040027499 ], [ 1729559.245688257738948, 10717910.943856189027429 ], [ 1729565.52973657194525, 10717897.377159386873245 ], [ 1729443.672753144986928, 10717779.668199384585023 ], [ 1729409.335600163321942, 10717726.743998980149627 ], [ 1729360.164142315043136, 10717600.925556633621454 ], [ 1729331.546275587985292, 10717481.318581838160753 ], [ 1729389.179433870129287, 10716972.767611579969525 ], [ 1729401.640002529602498, 10716939.08625902235508 ], [ 1729378.755168210016564, 10716772.445443836972117 ], [ 1729357.079611176857725, 10716679.286993021145463 ], [ 1729268.14459910034202, 10716547.573631335049868 ], [ 1729247.672331833746284, 10716527.533798141404986 ], [ 1729194.063537128735334, 10716508.767265973612666 ], [ 1728962.526784993009642, 10716599.545569645240903 ], [ 1728902.539812603034079, 10716607.447229562327266 ], [ 1728769.110903386725113, 10716596.545988939702511 ], [ 1728621.479281626874581, 10716532.390079587697983 ], [ 1728507.197488417848945, 10716461.135343639180064 ], [ 1728277.037211724091321, 10716278.263501405715942 ], [ 1728108.498124517966062, 10716167.878897987306118 ], [ 1727974.932873736135662, 10716130.056401105597615 ], [ 1727834.794179348740727, 10716125.81915963627398 ], [ 1727708.5293832893949, 10716154.829730432480574 ], [ 1727610.652945948531851, 10716270.337589452043176 ], [ 1727592.147010515443981, 10716350.695076139643788 ], [ 1727613.827530752401799, 10716443.852372920140624 ], [ 1727769.375819723354653, 10716574.462010378018022 ], [ 1727864.693855166668072, 10716679.503558199852705 ], [ 1727853.777542469091713, 10716806.675271051004529 ], [ 1727775.177052775863558, 10716888.38838255032897 ], [ 1727682.58918812032789, 10716929.942708982154727 ], [ 1727522.518672763369977, 10716919.486114097759128 ], [ 1727341.211746374377981, 10716842.792310306802392 ], [ 1727249.486955327214673, 10716917.809849832206964 ], [ 1727092.283683656016365, 10717080.875264763832092 ], [ 1727002.213494665222242, 10717255.931247277185321 ], [ 1726983.715590993175283, 10717336.65293675288558 ], [ 1726979.085938602685928, 10717450.257875883951783 ], [ 1727126.494446533964947, 10717500.947195382788777 ] ] ] } },
{ "type": "Feature", "properties": { "musym": "MdB", "muname": "Midessa fine sandy loam, 1 to 3 percent slopes" }, "geometry": { "type": "Polygon", "coordinates": [ [ [ 1726447.716061930404976, 10719008.782623916864395 ], [ 1726474.573493741219863, 10719021.437744993716478 ], [ 1726594.679557552561164, 10719032.91424229554832 ], [ 1726680.884521311614662, 10719018.0251275729388 ], [ 1726700.797393320128322, 10719004.232474969699979 ], [ 1726778.978350974386558, 10718916.337648181244731 ], [ 1726804.951549799880013, 10718875.518183248117566 ], [ 1726817.387829985236749, 10718821.823100235313177 ], [ 1726628.720468955347314, 10718711.778288688510656 ], [ 1726453.149758094456047, 10718588.054495666176081 ], [ 1726261.450220502447337, 10718498.989612586796284 ], [ 1726134.84018174931407, 10718983.241951504722238 ], [ 1726447.716061930404976, 10719008.782623916864395 ] ] ] } },
{ "type": "Feature", "properties": { "musym": "MdB", "muname": "Midessa fine sandy loam, 1 to 3 percent slopes" }, "geometry": { "type": "Polygon", "coordinates": [ [ [ 1726950.572549343341962, 10719193.319784954190254 ], [ 1726931.300211273832247, 10719227.114779544994235 ], [ 1726913.020181756233796, 10719320.932602938264608 ], [ 1726927.663442668970674, 10719400.742830982431769 ], [ 1726955.714124362450093, 10719466.868096940219402 ], [ 1727024.076870187651366, 10719572.353230237960815 ], [ 1727125.563773392699659, 10719657.27801507525146 ], [ 1727252.812888976652175, 10719688.651815596967936 ], [ 1727439.288612311007455, 10719685.207520382478833 ], [ 1727598.69163102703169, 10719656.012306092306972 ], [ 1727765.140530731994659, 10719659.450195793062449 ], [ 1727858.381473460700363, 10719657.911195771768689 ], [ 1727984.209641098976135, 10719621.994436386972666 ], [ 1728103.208801813656464, 10719566.541604390367866 ], [ 1728227.723566990578547, 10719450.959021970629692 ], [ 1728286.601569423219189, 10719376.121570330113173 ], [ 1728311.612505934434012, 10719295.65685897693038 ], [ 1728316.576033300021663, 10719202.059437278658152 ], [ 1728287.975854565156624, 10719102.465801926329732 ], [ 1728267.268303847871721, 10719049.317868791520596 ], [ 1728198.908419240964577, 10718943.830339774489403 ], [ 1728103.927504408638924, 10718858.795155616477132 ], [ 1727963.031582578551024, 10718807.994215097278357 ], [ 1727563.201470811385661, 10718801.494609124958515 ], [ 1727403.584207247011364, 10718817.957849781960249 ], [ 1727231.415951411705464, 10718881.205044776201248 ], [ 1727165.790776818757877, 10718922.67936791293323 ], [ 1726936.368253611261025, 10719140.06511271558702 ], [ 1726950.572549343341962, 10719193.319784954190254 ] ] ] } },
{ "type": "Feature", "properties": { "musym": "MdB", "muname": "Midessa fine sandy loam, 1 to 3 percent slopes" }, "geometry": { "type": "Polygon", "coordinates": [ [ [ 1728632.282411707099527, 10719350.045503120869398 ], [ 1728767.329246532870457, 10719440.971664907410741 ], [ 1728954.693177856970578, 10719491.374280501157045 ], [ 1729042.082415924174711, 10719529.597128638997674 ], [ 1729116.063167374115437, 10719581.504333840683103 ], [ 1729434.934247982455418, 10719903.37732551805675 ], [ 1729569.976796129252762, 10719994.306702390313148 ], [ 1729831.29576908540912, 10720076.609749220311642 ], [ 1729931.673483470687643, 10720094.608154414221644 ], [ 1730005.088182017439976, 10720093.400978323072195 ], [ 1730144.565721001941711, 10720077.280736932530999 ], [ 1730290.004467093851417, 10720027.950574032962322 ], [ 1730323.130546733271331, 10720007.393138168379664 ], [ 1730414.72092143446207, 10719905.458993585780263 ], [ 1730432.788947162451223, 10719798.183254413306713 ], [ 1730418.178895226214081, 10719738.748006455600262 ], [ 1730272.757782696513459, 10719808.090353969484568 ], [ 1730133.051864286419004, 10719810.386603221297264 ], [ 1730073.158758703386411, 10719804.821469958871603 ], [ 1729905.521813889034092, 10719747.902537362650037 ], [ 1729817.685376639245078, 10719682.394334740936756 ], [ 1729582.459035826381296, 10719566.549531178548932 ], [ 1729493.988475250545889, 10719481.403404923155904 ], [ 1729439.498266951646656, 10719408.797687284648418 ], [ 1729276.824440456926823, 10719258.284577084705234 ], [ 1729115.998533475678414, 10719201.257334733381867 ], [ 1728940.641304578864947, 10719070.967730041593313 ], [ 1728792.906569738173857, 10718999.899147083982825 ], [ 1728686.147586124483496, 10719008.571961838752031 ], [ 1728653.331253207987174, 10719029.125838909298182 ], [ 1728587.940564340911806, 10719103.706080885604024 ], [ 1728563.372559554874897, 10719211.089914664626122 ], [ 1728585.39870662568137, 10719344.26852798089385 ], [ 1728632.282411707099527, 10719350.045503120869398 ] ] ] } },
{ "type": "Feature", "properties": { "musym": "AfA", "muname": "Amarillo fine sandy loam, 0 to 1 percent slopes" }, "geometry": { "type": "Polygon", "coordinates": [ [ [ 1727230.063721024431288, 10721030.996943354606628 ], [ 1727259.349193933187053, 10720796.905450116842985 ], [ 1727233.940267773112282, 10720496.764795577153563 ], [ 1727236.808930137660354, 10720276.573300424963236 ], [ 1727261.041384759824723, 10720149.180741952732205 ], [ 1727397.894456780282781, 10719993.001094801351428 ], [ 1727483.752232193946838, 10719938.457373620942235 ], [ 1727616.063548648031428, 10719882.41908124089241 ], [ 1727781.655157974222675, 10719852.758637495338917 ], [ 1727887.865015388699248, 10719810.979480646550655 ], [ 1727765.140530731994659, 10719659.450195793062449 ], [ 1727598.69163102703169, 10719656.012306092306972 ], [ 1727439.288612311007455, 10719685.207520382478833 ], [ 1727252.812888976652175, 10719688.651815596967936 ], [ 1727125.563773392699659, 10719657.27801507525146 ], [ 1727024.076870187651366, 10719572.353230237960815 ], [ 1726955.714124362450093, 10719466.868096940219402 ], [ 1726927.663442668970674, 10719400.742830982431769 ], [ 1726913.020181756233796, 10719320.932602938264608 ], [ 1726931.300211273832247, 10719227.114779544994235 ], [ 1726950.572549343341962, 10719193.319784954190254 ], [ 1726936.368253611261025, 10719140.06511271558702 ], [ 1726889.907982712145895, 10719141.197042550891638 ], [ 1726796.903227594448254, 10719175.847270281985402 ], [ 1726677.552714186254889, 10719191.284259017556906 ], [ 1726323.650986853288487, 10719151.290877936407924 ], [ 1726123.960453398758546, 10719161.509657083079219 ], [ 1726085.924528459087014, 10719170.332325609400868 ], [ 1725690.299646049970761, 10720683.500448200851679 ], [ 1727199.401927459985018, 10721066.311564158648252 ], [ 1727230.063721024431288, 10721030.996943354606628 ] ] ] } },
{ "type": "Feature", "properties": { "musym": "AfB", "muname": "Amarillo fine sandy loam, 1 to 3 percent slopes" }, "geometry": { "type": "Polygon", "coordinates": [ [ [ 1729082.689963689772412, 10721411.977722587063909 ], [ 1729158.451116647338495, 10721177.1225182749331 ], [ 1729249.174091036198661, 10721041.722841024398804 ], [ 1729399.661779445130378, 10720885.326557325199246 ], [ 1729458.786784516880289, 10720844.327218398451805 ], [ 1729637.453988453838974, 10720780.983964571729302 ], [ 1729710.753519275924191, 10720772.864420147612691 ], [ 1730110.775256984168664, 10720792.484912009909749 ], [ 1730330.060613390989602, 10720768.503723360598087 ], [ 1730448.617119080619887, 10720686.139487473294139 ], [ 1730664.282884818036109, 10720441.712235959246755 ], [ 1730829.002170169493183, 10720358.955139864236116 ], [ 1730941.820557166356593, 10720323.262754339724779 ], [ 1731274.155090745538473, 10720277.419055311009288 ], [ 1731311.591351497685537, 10720277.544277403503656 ], [ 1731449.841198984300718, 10719729.610336491838098 ], [ 1731437.512877276400104, 10719733.659356530755758 ], [ 1731364.514585552737117, 10719741.406361853703856 ], [ 1731270.862645614892244, 10719736.756770620122552 ], [ 1730929.718722905730829, 10719642.653657361865044 ], [ 1730749.526903824182227, 10719632.512552199885249 ], [ 1730563.271946175489575, 10719649.398626804351807 ], [ 1730523.532633222639561, 10719663.514723317697644 ], [ 1730418.178895226214081, 10719738.748006455600262 ], [ 1730432.788947162451223, 10719798.183254413306713 ], [ 1730414.72092143446207, 10719905.458993585780263 ], [ 1730323.130546733271331, 10720007.393138168379664 ], [ 1730290.004467093851417, 10720027.950574032962322 ], [ 1730144.565721001941711, 10720077.280736932530999 ], [ 1730005.088182017439976, 10720093.400978323072195 ], [ 1729931.673483470687643, 10720094.608154414221644 ], [ 1729831.29576908540912, 10720076.609749220311642 ], [ 1729569.976796129252762, 10719994.306702390313148 ], [ 1729434.934247982455418, 10719903.37732551805675 ], [ 1729116.063167374115437, 10719581.504333840683103 ], [ 1729042.082415924174711, 10719529.597128638997674 ], [ 1728954.693177856970578, 10719491.374280501157045 ], [ 1728767.329246532870457, 10719440.971664907410741 ], [ 1728632.282411707099527, 10719350.045503120869398 ], [ 1728585.39870662568137, 10719344.26852798089385 ], [ 1728509.179149674018845, 10719532.556109620258212 ], [ 1728423.876563349971548, 10719620.928330222144723 ], [ 1728318.836938481545076, 10719696.162916716188192 ], [ 1728060.689911157591268, 10719787.75074976682663 ], [ 1727887.865015388699248, 10719810.979480646550655 ], [ 1727781.655157974222675, 10719852.758637495338917 ], [ 1727616.063548648031428, 10719882.41908124089241 ], [ 1727483.752232193946838, 10719938.457373620942235 ], [ 1727397.894456780282781, 10719993.001094801351428 ], [ 1727261.041384759824723, 10720149.180741952732205 ], [ 1727236.808930137660354, 10720276.573300424963236 ], [ 1727233.940267773112282, 10720496.764795577153563 ], [ 1727259.349193933187053, 10720796.905450116842985 ], [ 1727230.063721024431288, 10721030.996943354606628 ], [ 1727199.401927459985018, 10721066.311564158648252 ], [ 1729062.345002601621673, 10721538.880803732201457 ], [ 1729082.689963689772412, 10721411.977722587063909 ] ] ] } }
]
}
