{
"type": "FeatureCollection",
"name": "streets-2277",
"crs": { "type": "name", "properties": { "name": "urn:ogc:def:crs:EPSG::2277" } },
"features": [
{ "type": "Feature", "properties": { "name": "N Midland Dr" }, "geometry": { "type": "LineString", "coordinates": [ [ 1738900.721872131573036, 10690537.774277621880174 ], [ 1738811.446815012488514, 10690885.247502271085978 ], [ 1738769.750283174682409, 10691068.215098891407251 ], [ 1738765.223425742471591, 10691075.929351503029466 ], [ 1738765.317563931224868, 10691081.749569108709693 ], [ 1738762.890297178411856, 10691085.063557539135218 ], [ 1738763.060923406388611, 10691095.612702094018459 ], [ 1738760.639541571959853, 10691099.290454342961311 ], [ 1738760.780750114936382, 10691108.020781004801393 ], [ 1738758.7046989062801, 10691113.876100620254874 ], [ 1738758.851791713619605, 10691122.970191042870283 ], [ 1738758.624136640224606, 10691128.067896278575063 ], [ 1738758.987117097945884, 10691131.336754325777292 ], [ 1738759.128326196223497, 10691140.067081341519952 ], [ 1738756.742250484414399, 10691145.92741584777832 ], [ 1738756.824622825719416, 10691151.020106669515371 ], [ 1738759.35779098351486, 10691154.253862930461764 ], [ 1738759.593139488017187, 10691168.80440840870142 ], [ 1738759.365484831156209, 10691173.902113925665617 ], [ 1738759.740232305601239, 10691177.89849946834147 ], [ 1738761.992790173040703, 10691182.956088803708553 ], [ 1738762.44402520544827, 10691191.681401859968901 ], [ 1738762.204603010555729, 10691196.051580211147666 ], [ 1738764.761302146362141, 10691200.740391662344337 ], [ 1738764.826022449182346, 10691204.741791889071465 ], [ 1738767.078577939653769, 10691209.799381723627448 ], [ 1738767.453324270667508, 10691213.795767523348331 ], [ 1738769.699995211325586, 10691218.489593921229243 ], [ 1738769.764714975608513, 10691222.490994246676564 ], [ 1738772.327294828370214, 10691227.543570090085268 ], [ 1738772.081988181686029, 10691231.549984889104962 ], [ 1738774.626916361274198, 10691235.511269953101873 ], [ 1738777.224795823683962, 10691242.746428286656737 ], [ 1738779.436162575613707, 10691245.257673421874642 ], [ 1738782.0222733754199, 10691251.765304859727621 ], [ 1738784.60838323738426, 10691258.272936539724469 ], [ 1738784.714285604422912, 10691264.820682909339666 ], [ 1738787.259209991432726, 10691268.781969061121345 ], [ 1738787.013902072096244, 10691272.788383960723877 ], [ 1738789.558825630927458, 10691276.749670328572392 ], [ 1738789.623543206136674, 10691280.75107098557055 ], [ 1738792.16846590465866, 10691284.712357569485903 ], [ 1738791.91139080026187, 10691287.991245118901134 ], [ 1738792.356734379660338, 10691296.352796019986272 ], [ 1738794.591630172217265, 10691300.319097122177482 ], [ 1738794.726947614457458, 10691308.685662418603897 ], [ 1738795.101690042763948, 10691312.682049011811614 ], [ 1738794.85638169082813, 10691316.68846408650279 ], [ 1738795.21935732034035, 10691319.957323294132948 ], [ 1738794.974049034062773, 10691323.963738402351737 ], [ 1738795.354674690635875, 10691328.323888797312975 ], [ 1738795.109366480028257, 10691332.330303942784667 ], [ 1738795.484108698321506, 10691336.326690657064319 ], [ 1738795.244683927856386, 10691340.69686958193779 ], [ 1738795.619426071410999, 10691344.693256340920925 ], [ 1738795.374118009582162, 10691348.699671562761068 ], [ 1738795.748860081657767, 10691352.696058370172977 ], [ 1738795.491785357473418, 10691355.974946167320013 ], [ 1738793.415744601981714, 10691361.830265497788787 ], [ 1738793.604013094678521, 10691373.470705084502697 ], [ 1738791.188531937077641, 10691377.512220203876495 ], [ 1738791.312083686934784, 10691385.151258794590831 ], [ 1738788.896603658329695, 10691389.192774133756757 ], [ 1738789.259579313918948, 10691392.461633583530784 ], [ 1738786.849983524996787, 10691396.86691283993423 ], [ 1738786.914701649453491, 10691400.868314098566771 ], [ 1738784.499223291641101, 10691404.909829821437597 ], [ 1738459.413086717016995, 10692663.66442347317934 ], [ 1738390.583469045814127, 10692932.579107619822025 ], [ 1738179.05522627895698, 10693753.23291951417923 ], [ 1738162.957101435400546, 10693793.154345460236073 ], [ 1738135.924974215216935, 10693866.364117208868265 ], [ 1738073.871197345200926, 10694112.974716190248728 ], [ 1737991.355907308170572, 10694436.327643563970923 ], [ 1737909.146362105151638, 10694759.312111638486385 ], [ 1737824.55872358311899, 10695088.521099047735333 ], [ 1737764.502726573729888, 10695324.184509433805943 ], [ 1737748.916294434340671, 10695376.469206372275949 ], [ 1737679.004161739721894, 10695597.010433888062835 ], [ 1737654.120914057828486, 10695668.73051624186337 ], [ 1737631.552559368545189, 10695730.224990639835596 ], [ 1737568.995680437423289, 10695964.474065642803907 ], [ 1737459.785943523747846, 10696381.046597894281149 ], [ 1737323.686389920534566, 10696917.402480222284794 ], [ 1737301.544320523738861, 10697005.088422302156687 ], [ 1737184.084145695203915, 10697466.915189629420638 ], [ 1737135.429497862001881, 10697659.459851877763867 ], [ 1737041.691040460020304, 10698016.110346738249063 ], [ 1736970.499244986334816, 10698290.890171237289906 ], [ 1736901.664338196627796, 10698557.990886958315969 ], [ 1736792.374526591971517, 10698987.667528895661235 ], [ 1736530.238833723589778, 10700008.921573087573051 ], [ 1736454.338913747342303, 10700298.698171375319362 ], [ 1736376.442158313700929, 10700599.059553204104304 ], [ 1736301.038179802009836, 10700900.10846708342433 ], [ 1736223.14428548514843, 10701200.470423478633165 ], [ 1736142.920190109638497, 10701509.967172494158149 ], [ 1736019.106111632427201, 10701998.466443235054612 ], [ 1735965.194060731912032, 10702210.020510509610176 ], [ 1735960.41267811274156, 10702221.014192160218954 ], [ 1735836.025630718795583, 10702712.071018880233169 ], [ 1735798.072880284395069, 10702856.414890583604574 ], [ 1735726.931806372944266, 10703133.017805220559239 ], [ 1735726.996902544982731, 10703137.019259920343757 ], [ 1735658.265359322307631, 10703409.216855555772781 ], [ 1735622.657399238785729, 10703545.154026582837105 ], [ 1735620.337889746995643, 10703555.016125749796629 ], [ 1735586.727984010474756, 10703680.368763223290443 ], [ 1735504.642718296032399, 10704008.091721005737782 ], [ 1735484.764705167617649, 10704081.916041914373636 ], [ 1735446.939456849126145, 10704233.899701755493879 ], [ 1735400.296969686402008, 10704415.500073907896876 ], [ 1735286.558120271191001, 10704855.082117423415184 ], [ 1735190.993531657150015, 10705230.32845383323729 ], [ 1735166.818008098285645, 10705325.691174678504467 ], [ 1735117.847592127043754, 10705516.426796557381749 ], [ 1734982.057905299821869, 10706048.064060209318995 ], [ 1734942.186599887441844, 10706207.359392127022147 ], [ 1734917.560398984001949, 10706293.996976736932993 ], [ 1734882.106885397573933, 10706439.02966184169054 ], [ 1734880.002860501408577, 10706443.066477699205279 ], [ 1734830.595514343352988, 10706625.804886884987354 ], [ 1734774.882685268530622, 10706821.017651867121458 ], [ 1734649.835884409956634, 10707288.441607991233468 ], [ 1734598.648928493494168, 10707475.939871583133936 ], [ 1734487.334963835543022, 10707891.835709158331156 ], [ 1734418.219092001207173, 10708158.222147569060326 ], [ 1734362.201478301314637, 10708353.441015360876918 ], [ 1734155.719214536715299, 10709186.064134063199162 ], [ 1734147.141479954356328, 10709230.232124542817473 ], [ 1734080.480465162079781, 10709494.760392563417554 ], [ 1733975.819911342347041, 10709880.713395109400153 ], [ 1733871.243937947787344, 10710290.680892266333103 ], [ 1733827.002763094147667, 10710466.423983735963702 ], [ 1733806.864230781793594, 10710542.801342377439141 ], [ 1733669.007514082361013, 10711078.12033312395215 ], [ 1733498.014298572437838, 10711747.521681880578399 ], [ 1733382.508726795669645, 10712208.612142032012343 ], [ 1733246.674386665923521, 10712734.076667830348015 ], [ 1732837.380497222300619, 10714313.052416682243347 ], [ 1732221.694245029706508, 10716702.847519563511014 ], [ 1732175.075804524123669, 10716883.727617010474205 ], [ 1732143.858119384851307, 10717002.13345162756741 ], [ 1731997.721289322711527, 10717463.734031185507774 ], [ 1731883.275234393542632, 10717835.66747853346169 ], [ 1731778.935894419439137, 10718238.001189772039652 ], [ 1731660.802827099803835, 10718687.137334503233433 ] ] } },
{ "type": "Feature", "properties": { "name": "FM 868" }, "geometry": { "type": "LineString", "coordinates": [ [ 1731778.935894419439137, 10718238.001189772039652 ], [ 1731883.275234393542632, 10717835.66747853346169 ], [ 1731997.721289322711527, 10717463.734031185507774 ], [ 1732143.858119384851307, 10717002.13345162756741 ], [ 1732175.075804524123669, 10716883.727617010474205 ], [ 1732221.694245029706508, 10716702.847519563511014 ], [ 1732837.380497222300619, 10714313.052416682243347 ], [ 1733246.674386665923521, 10712734.076667830348015 ], [ 1733382.508726795669645, 10712208.612142032012343 ], [ 1733498.014298572437838, 10711747.521681880578399 ], [ 1733669.007514082361013, 10711078.12033312395215 ], [ 1733806.864230781793594, 10710542.801342377439141 ], [ 1733827.002763094147667, 10710466.423983735963702 ], [ 1733871.243937947787344, 10710290.680892266333103 ], [ 1733975.819911342347041, 10709880.713395109400153 ], [ 1734080.480465162079781, 10709494.760392563417554 ], [ 1734147.141479954356328, 10709230.232124542817473 ] ] } },
{ "type": "Feature", "properties": { "name": "Calen Ct" }, "geometry": { "type": "LineString", "coordinates": [ [ 1726672.968626758316532, 10717846.118899060413241 ], [ 1726635.181126853683963, 10717997.023575017228723 ] ] } },
{ "type": "Feature", "properties": { "name": "Bella Pl" }, "geometry": { "type": "LineString", "coordinates": [ [ 1727091.752403178950772, 10716186.120959585532546 ], [ 1727093.531170710688457, 10716087.482116369530559 ], [ 1727144.77460809214972, 10715887.961024440824986 ], [ 1727149.229334803298116, 10715876.243502512574196 ], [ 1727155.239098647376522, 10715864.864160073921084 ], [ 1727163.13173718820326, 10715854.909198258072138 ], [ 1727172.597446182044223, 10715846.383737025782466 ], [ 1727183.326420644298196, 10715839.292896213009953 ], [ 1727195.020875299815089, 10715834.369341580197215 ], [ 1727207.364993319613859, 10715831.254419375211 ], [ 1727220.048967913491651, 10715829.953248580917716 ], [ 1727541.179273112909868, 10715910.159355135634542 ], [ 1727550.527458935976028, 10715913.279853040352464 ], [ 1727558.970255672931671, 10715917.870791789144278 ], [ 1727566.513668869854882, 10715924.295943882316351 ], [ 1727574.11113473540172, 10715933.995056146755815 ], [ 1727578.902342329500243, 10715942.648886039853096 ], [ 1727581.792681583203375, 10715948.786994591355324 ], [ 1727583.897753791650757, 10715963.671004690229893 ], [ 1727582.892775680869818, 10715977.878618828952312 ], [ 1727579.944891834398732, 10715987.024098796769977 ], [ 1727566.454200148116797, 10716014.537267956882715 ] ] } },
{ "type": "Feature", "properties": { "name": "Paradise Ln" }, "geometry": { "type": "LineString", "coordinates": [ [ 1731394.343333711149171, 10718140.602996047586203 ], [ 1731258.625230353558436, 10718669.717145031318069 ] ] } },
{ "type": "Feature", "properties": { "name": "Scottsboro Ln" }, "geometry": { "type": "LineString", "coordinates": [ [ 1727150.351030196994543, 10717275.679409259930253 ], [ 1726682.682326863054186, 10717159.329462869092822 ] ] } },
{ "type": "Feature", "properties": { "name": "Westwind Ct" }, "geometry": { "type": "LineString", "coordinates": [ [ 1731497.037829592823982, 10717335.852146090939641 ], [ 1731459.300255222246051, 10717491.116741169244051 ] ] } },
{ "type": "Feature", "properties": { "name": "Corsair Ct" }, "geometry": { "type": "LineString", "coordinates": [ [ 1730721.642230136319995, 10717632.396073756739497 ], [ 1730668.373908719280735, 10717709.684049742296338 ] ] } },
{ "type": "Feature", "properties": { "name": "Hackberry Ct" }, "geometry": { "type": "LineString", "coordinates": [ [ 1731817.177018178626895, 10714236.968176785856485 ], [ 1731815.264610472833738, 10714252.645960060879588 ], [ 1731812.947007623501122, 10714262.508450534194708 ], [ 1731808.478556778049096, 10714273.497799847275019 ], [ 1731803.855282034724951, 10714293.950328808277845 ], [ 1731799.398761035641655, 10714305.667226050049067 ], [ 1731797.379062781576067, 10714314.797094820067286 ], [ 1731792.89274013414979, 10714324.69512739405036 ], [ 1731790.604956093942747, 10714336.376486133784056 ], [ 1731785.796897200634703, 10714345.552050752565265 ], [ 1731781.340389556018636, 10714357.268951116129756 ], [ 1731776.842154359677806, 10714366.439439959824085 ], [ 1731774.530532748671249, 10714376.665707649663091 ], [ 1731765.480418920516968, 10714391.732729557901621 ], [ 1731760.714106816798449, 10714403.454710699617863 ], [ 1731756.203959978651255, 10714411.897656388580799 ], [ 1731746.909626670414582, 10714430.971266619861126 ], [ 1731740.260574213927612, 10714441.268623877316713 ], [ 1731735.440620198380202, 10714449.716650335118175 ], [ 1731728.773688769666478, 10714458.922690400853753 ], [ 1731717.01873344136402, 10714479.128251571208239 ], [ 1731712.50860772957094, 10714487.571203792467713 ], [ 1731707.96867288206704, 10714494.195290550589561 ], [ 1731700.956166651798412, 10714501.223775073885918 ], [ 1731696.469897524220869, 10714511.121822582557797 ], [ 1731694.098686497891322, 10714517.710365185514092 ], [ 1731680.568348940694705, 10714543.039234155789018 ], [ 1731678.226956351660192, 10714551.446644376963377 ], [ 1731673.740700720576569, 10714561.344695473089814 ], [ 1731669.230596937006339, 10714569.78765425644815 ], [ 1731666.889209138229489, 10714578.195065541192889 ], [ 1731664.571673562983051, 10714588.05757012963295 ], [ 1731660.061575717758387, 10714596.50053040497005 ], [ 1731657.714229346020147, 10714604.544169327244163 ], [ 1731651.333569056820124, 10714631.211343642324209 ], [ 1731433.639790945220739, 10715491.697266772389412 ] ] } },
{ "type": "Feature", "properties": { "name": null }, "geometry": { "type": "LineString", "coordinates": [ [ 1726018.696191900409758, 10719391.401527440175414 ], [ 1725977.273744898848236, 10719640.613571625202894 ], [ 1725708.848377462010831, 10720439.397745963186026 ], [ 1725658.304319529561326, 10720661.471076825633645 ] ] } },
{ "type": "Feature", "properties": { "name": "Sequoia Dr" }, "geometry": { "type": "LineString", "coordinates": [ [ 1727267.1518408076372, 10715454.750561602413654 ], [ 1727273.838758734054863, 10715428.077431937679648 ], [ 1727531.586041988339275, 10714428.267231507226825 ], [ 1727602.265467853518203, 10714148.010833416134119 ], [ 1727720.321407912066206, 10713696.317071018740535 ], [ 1727724.602516531245783, 10713674.050265226513147 ], [ 1727729.421611943049356, 10713665.601687092334032 ], [ 1727733.798795887967572, 10713649.15523699298501 ], [ 1727738.284056492382661, 10713639.256685612723231 ], [ 1727740.648578234016895, 10713632.30410685017705 ], [ 1727745.133843144867569, 10713622.405556576326489 ], [ 1727749.643126273527741, 10713613.962095370516181 ], [ 1727752.013656057417393, 10713607.373289695009589 ], [ 1727756.522942941868678, 10713598.929829563945532 ], [ 1727761.008217043243349, 10713589.031281780451536 ], [ 1727763.372747122542933, 10713582.078705018386245 ], [ 1727767.882040284108371, 10713573.635246645659208 ], [ 1727777.228469594148919, 10713557.834534887224436 ], [ 1727781.767787174554542, 10713551.209938939660788 ], [ 1727788.755693513667211, 10713542.725577905774117 ], [ 1727793.264998306520283, 10713534.28212328068912 ], [ 1727800.276924355421215, 10713527.252852996811271 ], [ 1727804.786234091967344, 10713518.809400044381618 ], [ 1727809.635388125898317, 10713512.179695073515177 ], [ 1727816.635315783554688, 10713504.422884218394756 ], [ 1727821.144632668234408, 10713495.979433650150895 ], [ 1727828.16257539507933, 10713489.313941434025764 ], [ 1727832.713918093591928, 10713483.416896851733327 ], [ 1727839.416036596987396, 10713476.392747765406966 ], [ 1727844.265203451737761, 10713469.763048021122813 ], [ 1727851.277153287781402, 10713462.733788689598441 ], [ 1727858.307114150607958, 10713456.795846961438656 ] ] } },
{ "type": "Feature", "properties": { "name": "Ellen Jayne Way" }, "geometry": { "type": "LineString", "coordinates": [ [ 1726778.311405073851347, 10716121.074546333402395 ], [ 1726947.279691109666601, 10716163.401447024196386 ], [ 1727043.751161650056019, 10716188.005824161693454 ], [ 1727055.875512596452609, 10716190.35256402567029 ], [ 1727080.028026570100337, 10716189.225685460492969 ], [ 1727091.752403178950772, 10716186.120959585532546 ], [ 1727566.454200148116797, 10716014.537267956882715 ], [ 1727714.592924490338191, 10715958.966308047994971 ], [ 1727945.587489102967083, 10716004.276889869943261 ], [ 1728024.506608687108383, 10716223.481453934684396 ] ] } },
{ "type": "Feature", "properties": { "name": "Chesley Ct" }, "geometry": { "type": "LineString", "coordinates": [ [ 1727255.287689640419558, 10716612.424753436818719 ], [ 1726899.29733370593749, 10716522.609131895005703 ] ] } },
{ "type": "Feature", "properties": { "name": "Holiday Hill Rd" }, "geometry": { "type": "LineString", "coordinates": [ [ 1730734.573050441453233, 10701427.653102139011025 ], [ 1730699.730108089279383, 10701458.061889288946986 ], [ 1730669.232273183530197, 10701488.763257682323456 ], [ 1730643.788969815475866, 10701525.203524991869926 ], [ 1730623.328538837842643, 10701563.017477268353105 ], [ 1730586.718814228894189, 10701693.518272411078215 ], [ 1730549.674659291049466, 10701835.306083809584379 ], [ 1730318.657327299006283, 10702737.847100574523211 ], [ 1730240.766204837942496, 10703034.949324196204543 ], [ 1730149.624397234758362, 10703393.399037832394242 ], [ 1730103.050238772993907, 10703577.552734697237611 ], [ 1730098.098478033440188, 10703596.91899892129004 ], [ 1730091.984769765054807, 10703621.034615809097886 ], [ 1730034.000171146821231, 10703846.49284141510725 ], [ 1729962.87155854399316, 10704120.925353981554508 ], [ 1729786.816030480200425, 10704800.974947679787874 ], [ 1729653.606928761582822, 10705315.125900521874428 ], [ 1729518.763151831924915, 10705918.088260175660253 ], [ 1729454.673896749736741, 10706167.663916895166039 ], [ 1729435.155974144348875, 10706243.669434666633606 ], [ 1729135.083737977780402, 10707428.994446463882923 ], [ 1728890.104503174778074, 10708382.36032560095191 ], [ 1728604.330276427557692, 10709492.501344814896584 ], [ 1728551.954526328947395, 10709643.27849517762661 ], [ 1728354.008799511007965, 10710401.93388382345438 ], [ 1728346.14649658696726, 10710432.628540942445397 ], [ 1728341.774558905744925, 10710449.438615739345551 ], [ 1728222.96036420809105, 10710912.784353068098426 ], [ 1728154.355113642755896, 10711150.431109918281436 ], [ 1728100.014869533246383, 10711275.770842524245381 ], [ 1728076.121199277462438, 10711330.381568349897861 ], [ 1727834.924267213093117, 10712020.983852431178093 ], [ 1727631.891479128738865, 10712826.30563029833138 ], [ 1727424.890021852450445, 10713597.127378571778536 ], [ 1727285.126508709974587, 10714179.082838766276836 ], [ 1727102.172816562699154, 10714885.105594027787447 ], [ 1726973.619721513241529, 10715375.910189084708691 ], [ 1726932.813941281056032, 10715531.958078263327479 ], [ 1726778.311405073851347, 10716121.074546333402395 ], [ 1726555.879828238394111, 10716968.210066761821508 ], [ 1726524.34488630713895, 10717141.207516994327307 ], [ 1726312.738874250091612, 10717948.868538903072476 ], [ 1726289.71386905782856, 10718055.500645717605948 ], [ 1726280.111046385252848, 10718093.138542983680964 ], [ 1726223.655438311398029, 10718314.216449942439795 ] ] } },
{ "type": "Feature", "properties": { "name": "Bent Tree Trl" }, "geometry": { "type": "LineString", "coordinates": [ [ 1731108.268209834583104, 10716417.993831047788262 ], [ 1731037.160369226476178, 10716692.428584702312946 ], [ 1731008.406838680384681, 10716809.70342112891376 ], [ 1730994.980106210336089, 10716860.138139717280865 ], [ 1730992.573383456561714, 10716864.544105255976319 ], [ 1730992.972732976544648, 10716869.995634324848652 ], [ 1730990.298007593955845, 10716876.953104065731168 ], [ 1730990.387561859562993, 10716882.409717578440905 ], [ 1730990.804822453297675, 10716888.952569467946887 ], [ 1730990.548759539844468, 10716892.231622003018856 ], [ 1730990.930198358837515, 10716896.59182851947844 ], [ 1730991.037663421826437, 10716903.139764910563827 ], [ 1730990.781600637594238, 10716906.418817508965731 ], [ 1731010.059784113895148, 10717061.475885739549994 ], [ 1731012.645596980117261, 10717067.98315005376935 ], [ 1731012.401474066777155, 10717071.989751862362027 ], [ 1731019.753592525143176, 10717085.696241052821279 ], [ 1731020.117116302484646, 10717088.965125985443592 ], [ 1731024.853570806095377, 10717094.345479695126414 ], [ 1731029.60793357854709, 10717100.817157130688429 ], [ 1731152.099222846096382, 10717219.612779824063182 ], [ 1731154.625311746494845, 10717222.482311893254519 ], [ 1731159.31397881032899, 10717224.952489610761404 ], [ 1731161.846035262569785, 10717228.185796676203609 ], [ 1731166.558574985945597, 10717232.11107312887907 ], [ 1731171.253208313602954, 10717234.945026937872171 ], [ 1731176.27553837094456, 10717238.865222007036209 ], [ 1731180.636504320893437, 10717240.249162077903748 ], [ 1731183.466413330985233, 10717242.749839229509234 ], [ 1731185.688673982862383, 10717245.988230772316456 ], [ 1731192.849705321481451, 10717248.053977763280272 ], [ 1731200.052512750029564, 10717252.666147392243147 ], [ 1731204.735204332973808, 10717254.772556953132153 ], [ 1731209.721719465684146, 10717256.510110273957253 ], [ 1731214.124457734636962, 10717260.440475802868605 ], [ 1731219.105003626551479, 10717261.814256044104695 ], [ 1731233.129198184236884, 10717266.678396632894874 ], [ 1731238.115710113430396, 10717268.415954098105431 ], [ 1731245.288668849738315, 10717271.209260988980532 ], [ 1731497.037829592823982, 10717335.852146090939641 ], [ 1731793.592649440281093, 10717411.770298792049289 ], [ 1731997.721289322711527, 10717463.734031185507774 ] ] } },
{ "type": "Feature", "properties": { "name": "Courtney Ct" }, "geometry": { "type": "LineString", "coordinates": [ [ 1727627.109181879321113, 10718074.147831263020635 ], [ 1727595.968325478024781, 10718196.195699760690331 ], [ 1727584.839236285537481, 10718235.313913006335497 ] ] } },
{ "type": "Feature", "properties": { "name": "Breezeway Ct" }, "geometry": { "type": "LineString", "coordinates": [ [ 1730571.499322766903788, 10716697.890281090512872 ], [ 1731008.406838680384681, 10716809.70342112891376 ], [ 1731321.779781865188852, 10716890.435752665624022 ] ] } },
{ "type": "Feature", "properties": { "name": "Driftwood Dr" }, "geometry": { "type": "LineString", "coordinates": [ [ 1732335.276356082875282, 10714536.316767675802112 ], [ 1732335.359735439298674, 10714541.409594755619764 ], [ 1732349.926940406905487, 10714560.456260932609439 ], [ 1732354.729028672911227, 10714569.838286690413952 ], [ 1732362.015599677804857, 10714579.543510096147656 ], [ 1732366.823637483408675, 10714589.289311148226261 ], [ 1732374.134022194892168, 10714600.449630962684751 ], [ 1732378.953964273212478, 10714610.922980802133679 ], [ 1732384.065853870706633, 10714620.299939362332225 ], [ 1732388.873880101367831, 10714630.045744026079774 ], [ 1732398.543519840575755, 10714652.811316594481468 ], [ 1732403.357492694398388, 10714662.920897126197815 ], [ 1732408.475323282182217, 10714672.661633403971791 ], [ 1732410.858407364692539, 10714685.721975985914469 ], [ 1732415.976232651155442, 10714695.462713662534952 ], [ 1732418.317628838820383, 10714705.976642951369286 ], [ 1732423.459268263075501, 10714717.172475842759013 ], [ 1732425.854253641329706, 10714730.960367167368531 ], [ 1732428.374455666868016, 10714733.466209737583995 ], [ 1732433.325366703560576, 10714751.942585552111268 ], [ 1732435.672708977479488, 10714762.82029027864337 ], [ 1732438.645633476786315, 10714774.051626095548272 ], [ 1732443.679897892288864, 10714797.62083343975246 ], [ 1732443.518947991076857, 10714806.720242444425821 ], [ 1732446.211825271369889, 10714819.775518450886011 ], [ 1732448.863019018899649, 10714830.284380240365863 ], [ 1732449.077381840907037, 10714843.380227137356997 ], [ 1732451.418759369757026, 10714853.894160715863109 ], [ 1732452.115615432150662, 10714877.534369520843029 ], [ 1732451.996345890918747, 10714889.180194290354848 ], [ 1732454.677305607590824, 10714901.507925262674689 ], [ 1732454.84998536342755, 10714912.057358482852578 ], [ 1732452.562023437349126, 10714923.738682365044951 ], [ 1732452.758521959651262, 10714935.743210172280669 ], [ 1732453.258878907188773, 10714947.378893354907632 ], [ 1732453.151519013103098, 10714959.75226635299623 ], [ 1732451.155510501936078, 10714970.337199058383703 ], [ 1732451.369873363291845, 10714983.43304836563766 ], [ 1732447.07400415581651, 10715004.971759792417288 ], [ 1732446.978556501213461, 10715018.072680953890085 ], [ 1732442.700558941112831, 10715040.702714757993817 ], [ 1732440.394747156416997, 10715051.292720530182123 ], [ 1732438.416612813714892, 10715062.968976138159633 ], [ 1732433.971895137103274, 10715075.413350438699126 ], [ 1732431.666088697733358, 10715086.003357274457812 ], [ 1732429.687959686852992, 10715097.679613893851638 ], [ 1732427.358337081503123, 10715106.814526718109846 ], [ 1732422.591908468166366, 10715118.536427363753319 ], [ 1732133.484863727586344, 10716236.352994438260794 ], [ 1732129.374054710147902, 10716250.247449396178126 ], [ 1732124.59598138416186, 10716261.241860309615731 ], [ 1732106.496539416955784, 10716310.297127369791269 ], [ 1732102.028282872866839, 10716321.286467919126153 ], [ 1732090.625292783370242, 10716344.03329542838037 ], [ 1732083.678643819410354, 10716355.0632348600775 ], [ 1732079.21635947865434, 10716366.416353181004524 ], [ 1732065.323082812130451, 10716388.476238837465644 ], [ 1732058.388369141612202, 10716400.233732391148806 ], [ 1732053.634176591411233, 10716412.683252092450857 ], [ 1732047.027148816268891, 10716425.526996107771993 ], [ 1732042.582763659302145, 10716437.97144285030663 ], [ 1732035.671904890798032, 10716451.184038609266281 ], [ 1732026.503150522708893, 10716477.896882846951485 ], [ 1732013.158130499301478, 10716514.502687377855182 ], [ 1732004.001331000123173, 10716541.943088307976723 ], [ 1732001.75536482129246, 10716556.170886687934399 ], [ 1731997.311014326522127, 10716568.615341372787952 ], [ 1731997.406367955729365, 10716574.435729691758752 ], [ 1731995.065053007332608, 10716582.843140676617622 ], [ 1731984.252240688307211, 10716641.603666141629219 ] ] } },
{ "type": "Feature", "properties": { "name": null }, "geometry": { "type": "LineString", "coordinates": [ [ 1726018.696191900409758, 10719391.401527440175414 ], [ 1725833.745103375287727, 10719337.336095493286848 ], [ 1725274.621062371414155, 10719254.177250249311328 ], [ 1725202.50226452248171, 10719221.53267545811832 ], [ 1725160.868664891924709, 10719083.950803551822901 ], [ 1725187.208611758425832, 10718953.247067240998149 ], [ 1725184.771723204292357, 10718806.282317316159606 ], [ 1725214.901739880442619, 10718679.882299469783902 ], [ 1725306.098746961914003, 10718573.574612559750676 ], [ 1725643.737592384452, 10718454.450296627357602 ], [ 1726223.655438311398029, 10718314.216449942439795 ], [ 1726139.730584038421512, 10718766.445270666852593 ], [ 1726018.696191900409758, 10719391.401527440175414 ] ] } },
{ "type": "Feature", "properties": { "name": null }, "geometry": { "type": "LineString", "coordinates": [ [ 1725658.304319529561326, 10720661.471076825633645 ], [ 1727749.440379035659134, 10721167.241283336654305 ], [ 1729012.7747508068569, 10721474.987976897507906 ], [ 1729802.884603807004169, 10720214.257542492821813 ] ] } },
{ "type": "Feature", "properties": { "name": "Green Tree Blvd" }, "geometry": { "type": "LineString", "coordinates": [ [ 1736627.247690569143742, 10717923.090406995266676 ], [ 1733163.122692585224286, 10717025.844138765707612 ], [ 1733151.279141367413104, 10717021.671308794990182 ], [ 1733139.471273006638512, 10717019.681131051853299 ], [ 1733113.323646209901199, 10717012.467337872833014 ], [ 1733101.51577231567353, 10717010.477173157036304 ], [ 1733089.666259919293225, 10717005.940589772537351 ], [ 1733077.834589198464528, 10717002.495334504172206 ], [ 1733051.651244516950101, 10716993.09894029982388 ], [ 1733015.757171402918175, 10716977.31167253293097 ], [ 1732992.004554830258712, 10716964.964597536250949 ], [ 1732980.160961274290457, 10716960.791826732456684 ], [ 1732970.43833363475278, 10716953.673396853730083 ], [ 1732958.564985878998414, 10716947.681760407984257 ], [ 1732937.290688572451472, 10716935.294190213084221 ], [ 1732848.892707430757582, 10716892.347729472443461 ], [ 1732817.996821018401533, 10716879.026009446009994 ], [ 1732784.932340688537806, 10716865.739795062690973 ], [ 1732753.720657661790028, 10716852.059426862746477 ], [ 1732720.685886131832376, 10716840.592147298157215 ], [ 1732687.323439126135781, 10716828.038645152002573 ], [ 1732654.002636471297592, 10716818.031597074121237 ], [ 1732587.331204771995544, 10716796.198725577443838 ], [ 1732221.694245029706508, 10716702.847519563511014 ], [ 1731984.252240688307211, 10716641.603666141629219 ], [ 1731108.268209834583104, 10716417.993831047788262 ], [ 1730586.076411515474319, 10716283.564420802518725 ], [ 1730524.157151266001165, 10716268.207167573273182 ], [ 1730500.528616628143936, 10716263.50107329711318 ], [ 1730476.912026484264061, 10716259.522542936727405 ], [ 1730452.961726096924394, 10716254.094022640958428 ], [ 1730429.369027876993641, 10716251.570620268583298 ], [ 1730405.752420593053102, 10716247.59213875234127 ], [ 1730374.706553721800447, 10716244.099604478105903 ], [ 1730351.11981900036335, 10716241.94002952426672 ], [ 1730327.556989711010829, 10716241.235565975308418 ], [ 1730303.982204379979521, 10716239.803570929914713 ], [ 1730280.109570824773982, 10716239.104230372235179 ], [ 1730256.534781528171152, 10716237.672267792746425 ], [ 1730232.97194633516483, 10716236.967868903651834 ], [ 1730209.11724381102249, 10716237.359898906201124 ], [ 1730157.118452753406018, 10716241.125484624877572 ], [ 1730136.045985555509105, 10716241.107964685186744 ], [ 1730110.022676849504933, 10716241.535707782953978 ], [ 1730088.658347168006003, 10716242.614630410447717 ], [ 1730065.083550168666989, 10716241.182798786088824 ], [ 1730043.689320421544835, 10716240.442880501970649 ], [ 1729977.272225675173104, 10716234.257348479703069 ], [ 1729970.456595818977803, 10716234.369405932724476 ], [ 1729965.785651560174301, 10716232.990714557468891 ], [ 1729953.709379314212129, 10716233.553140554577112 ], [ 1729949.050396546255797, 10716232.901998922228813 ], [ 1729944.403376001864672, 10716232.978405393660069 ], [ 1729939.422629077685997, 10716231.604811374098063 ], [ 1729934.775608358206227, 10716231.681219141930342 ], [ 1729930.104662232799456, 10716230.3025326076895 ], [ 1729925.44567853352055, 10716229.651394164189696 ], [ 1729916.103784564184025, 10716226.894024269655347 ], [ 1729911.146961785387248, 10716226.975529264658689 ], [ 1729889.984756695106626, 10716221.501553891226649 ], [ 1729650.110504532232881, 10716163.58854447118938 ], [ 1729251.255633248249069, 10716067.540314842015505 ], [ 1729208.597040625521913, 10716055.143196484073997 ], [ 1729182.411882779095322, 10716045.74975511431694 ], [ 1729156.2506683699321, 10716037.8114277664572 ], [ 1729130.07746213208884, 10716029.145573390647769 ], [ 1729101.693689117208123, 10716017.96903407946229 ], [ 1729046.80288002290763, 10715996.676735326647758 ], [ 1728999.055460307048634, 10715976.358491713181138 ], [ 1728949.079440052621067, 10715952.438299659639597 ], [ 1728922.834211902925745, 10715939.407322730869055 ], [ 1728891.88197932112962, 10715922.815180433914065 ], [ 1728865.636706665623933, 10715909.784247605130076 ], [ 1728841.857863590121269, 10715895.984958577901125 ], [ 1728789.403179021552205, 10715872.105830432847142 ], [ 1728763.187796413432807, 10715860.893843289464712 ], [ 1728736.960408798186108, 10715848.954329594969749 ], [ 1728711.066784352995455, 10715838.464824490249157 ], [ 1728679.882480879314244, 10715826.607032921165228 ], [ 1728627.511506499024108, 10715807.820979747921228 ], [ 1728573.007810147479177, 10715791.253389051184058 ], [ 1728544.367813433986157, 10715783.35637809894979 ], [ 1728518.206247126683593, 10715775.418538086116314 ], [ 1728475.588994512567297, 10715765.568745048716664 ], [ 1727409.674897594610229, 10715490.603033052757382 ], [ 1727385.735565481008962, 10715485.904196469113231 ], [ 1727333.435445888433605, 10715471.485394014045596 ], [ 1727303.871469274861738, 10715463.968542354181409 ], [ 1727300.141751957824454, 10715463.302407048642635 ], [ 1727267.1518408076372, 10715454.750561602413654 ], [ 1726973.619721513241529, 10715375.910189084708691 ], [ 1726833.414724152069539, 10715349.117993382737041 ], [ 1726782.627115029608831, 10715332.491784546524286 ], [ 1726733.818612023955211, 10715323.110369369387627 ], [ 1726684.736364382319152, 10715315.916782774031162 ], [ 1726635.684174917638302, 10715310.542129637673497 ], [ 1726586.048448472982273, 10715307.360430406406522 ], [ 1726445.502947316505015, 10715278.756076293066144 ], [ 1725876.270339859183878, 10715131.712617535144091 ], [ 1725762.361257389187813, 10715102.3060841280967 ] ] } },
{ "type": "Feature", "properties": { "name": "Verde Glen Ct" }, "geometry": { "type": "LineString", "coordinates": [ [ 1731793.592649440281093, 10717411.770298792049289 ], [ 1731855.911753188353032, 10717168.046200478449464 ], [ 1731859.039300973759964, 10717150.892955353483558 ], [ 1731859.372751546557993, 10717133.421625411137938 ], [ 1731857.323234168346971, 10717121.811300586909056 ], [ 1731857.215932945488021, 10717115.263359494507313 ], [ 1731854.606438929215074, 10717107.300933286547661 ], [ 1731852.276931208558381, 10717097.514558242633939 ], [ 1731849.679357351735234, 10717090.279681574553251 ], [ 1731840.09344124654308, 10717072.607032837346196 ], [ 1731832.78337912610732, 10717061.446789933368564 ], [ 1731820.790632742922753, 10717048.180055409669876 ], [ 1731813.546137284720317, 10717041.021336017176509 ], [ 1731804.454797265585512, 10717034.620629463344812 ], [ 1731784.746983432676643, 10717023.299707679077983 ], [ 1731780.064297610195354, 10717021.193219961598516 ], [ 1731775.393535263370723, 10717019.814281759783626 ], [ 1731768.214607570320368, 10717016.657091023400426 ], [ 1731758.563285923795775, 10717013.904295954853296 ], [ 1731751.735885705333203, 10717013.288452256470919 ], [ 1731744.586766171036288, 10717011.950138645246625 ], [ 1731737.449570903088897, 10717011.339375378564 ], [ 1731732.80861779814586, 10717011.779315127059817 ], [ 1731723.204992410261184, 10717011.936725439503789 ], [ 1731714.226918468717486, 10717012.447757096961141 ], [ 1731705.570564627880231, 10717013.681261992082 ], [ 1731695.389091150602326, 10717016.395256960764527 ], [ 1731680.900314123369753, 10717020.99922127276659 ], [ 1731670.456755460938439, 10717026.628497233614326 ], [ 1731658.178288135910407, 10717033.743344336748123 ], [ 1731649.605428437236696, 10717040.069705341011286 ], [ 1731638.024083527270705, 10717051.903470499441028 ], [ 1731626.770431342534721, 10717064.823484363034368 ], [ 1731621.32534184330143, 10717072.917938375845551 ], [ 1731612.025885358452797, 10717091.627876365557313 ], [ 1731608.779177761869505, 10717101.505653418600559 ], [ 1731605.359846903011203, 10717119.755322290584445 ], [ 1731603.626327523030341, 10717127.425059160217643 ], [ 1731595.685347818303853, 10717153.390176905319095 ], [ 1731592.134822260821238, 10717163.63680973649025 ], [ 1731588.608155011199415, 10717175.338540995493531 ], [ 1731586.481353058479726, 10717177.920515490695834 ], [ 1731579.558897124836221, 10717190.405666310340166 ], [ 1731577.175981411943212, 10717196.266690934076905 ], [ 1731575.079002506565303, 10717200.667538657784462 ], [ 1731572.642410534899682, 10717203.254593219608068 ], [ 1731549.331141804810613, 10717236.749175203964114 ], [ 1731533.275989579502493, 10717259.208630105480552 ], [ 1731520.890643876511604, 10717278.696941403672099 ], [ 1731506.176101085497066, 10717307.3202587608248 ], [ 1731501.440137622877955, 10717320.861192807555199 ], [ 1731497.037829592823982, 10717335.852146090939641 ] ] } },
{ "type": "Feature", "properties": { "name": "Charles Trl" }, "geometry": { "type": "LineString", "coordinates": [ [ 1728795.115551548777148, 10718513.363893328234553 ], [ 1728741.926351513247937, 10718726.742393476888537 ] ] } },
{ "type": "Feature", "properties": { "name": "Chadwick Ct" }, "geometry": { "type": "LineString", "coordinates": [ [ 1726984.174526910763234, 10717926.847758047282696 ], [ 1726946.361718355910853, 10718076.297013411298394 ] ] } },
{ "type": "Feature", "properties": { "name": "Corsair Ct" }, "geometry": { "type": "LineString", "coordinates": [ [ 1730721.642230136319995, 10717632.396073756739497 ], [ 1730563.948331081774086, 10717521.093670202419162 ] ] } },
{ "type": "Feature", "properties": { "name": "Pebble Ct" }, "geometry": { "type": "LineString", "coordinates": [ [ 1731793.592649440281093, 10717411.770298792049289 ], [ 1731742.360503483330831, 10717594.546178778633475 ] ] } },
{ "type": "Feature", "properties": { "name": "Shady Oak Ct" }, "geometry": { "type": "LineString", "coordinates": [ [ 1730993.414070901460946, 10714026.696269096806645 ], [ 1730977.996491950005293, 10714088.07958915643394 ], [ 1730973.391589285572991, 10714109.623542970046401 ], [ 1730966.576160714263096, 10714128.656679660081863 ], [ 1730962.269151353742927, 10714149.468005632981658 ], [ 1730953.529775572242215, 10714183.451429015025496 ], [ 1730946.744225163012743, 10714204.303436206653714 ], [ 1730939.619012244278565, 10714223.341665325686336 ], [ 1730933.107475640485063, 10714242.005953619256616 ], [ 1730926.315979734994471, 10714262.494193434715271 ], [ 1730917.34978941641748, 10714282.654257347807288 ], [ 1730910.54039965919219, 10714302.051182361319661 ], [ 1730901.234557200223207, 10714320.397471582517028 ], [ 1730894.449067972367629, 10714341.249492753297091 ], [ 1730883.016314541222528, 10714362.177795734256506 ], [ 1730816.768673826707527, 10714517.546581104397774 ], [ 1730810.293094794498757, 10714538.393538208678365 ], [ 1730801.029176265466958, 10714559.286271734163165 ], [ 1730794.577503122389317, 10714581.588325327262282 ], [ 1730787.500234754057601, 10714603.536780066788197 ], [ 1730781.048579563153908, 10714625.838837468996644 ], [ 1730774.382672128500417, 10714653.966353198513389 ], [ 1730767.621220547240227, 10714676.273500891402364 ], [ 1730745.890888412250206, 10714787.247116995975375 ], [ 1730741.662508152192459, 10714831.708833439275622 ], [ 1730682.356607683934271, 10715390.861340807750821 ] ] } },
{ "type": "Feature", "properties": { "name": "Sandstone Dr" }, "geometry": { "type": "LineString", "coordinates": [ [ 1726611.413890794385225, 10711069.29727772064507 ], [ 1726616.431498768972233, 10711110.331633668392897 ], [ 1726627.709018862340599, 10711211.301062339916825 ], [ 1726784.534614054020494, 10711455.048321695998311 ], [ 1726882.236260062083602, 10711609.533677160739899 ], [ 1726896.367995375301689, 10711676.97999120131135 ], [ 1726887.959018082125112, 10711787.007847230881453 ], [ 1726687.906687658978626, 10712583.916969530284405 ], [ 1726404.414309373823926, 10713712.967601306736469 ], [ 1726188.184999758610502, 10714504.691557541489601 ], [ 1726131.814735323889181, 10714600.231241643428802 ], [ 1726004.468378426041454, 10714770.084294388070703 ], [ 1725942.72043569246307, 10714840.242322528734803 ], [ 1725939.491314538987353, 10714907.248253718018532 ], [ 1725897.044128904817626, 10715057.502560364082456 ], [ 1725876.270339859183878, 10715131.712617535144091 ] ] } },
{ "type": "Feature", "properties": { "name": "Sunrise Ct" }, "geometry": { "type": "LineString", "coordinates": [ [ 1731660.802827099803835, 10718687.137334503233433 ], [ 1731565.001978604588658, 10718608.292047046124935 ], [ 1731560.35527836647816, 10718608.368235619738698 ], [ 1731546.194868680555373, 10718614.058511914685369 ], [ 1731539.069929509656504, 10718614.17533852905035 ], [ 1731529.824249875964597, 10718617.237924586981535 ], [ 1731522.687381400493905, 10718616.627204265445471 ], [ 1731515.568407816579565, 10718617.107810910791159 ], [ 1731501.324495970271528, 10718617.705253452062607 ], [ 1731496.338190770940855, 10718615.967654658481479 ], [ 1731489.463378634303808, 10718612.441660162061453 ], [ 1731482.326508317142725, 10718611.830948209390044 ], [ 1731470.531006819568574, 10718610.568888118490577 ], [ 1731463.435894954018295, 10718612.504606116563082 ], [ 1731446.797262917738408, 10718618.235564405098557 ], [ 1731343.886187246534973, 10718672.68501004576683 ], [ 1731339.269330327166244, 10718674.580104211345315 ], [ 1731332.186172685353085, 10718677.243399692699313 ], [ 1731322.600912729511037, 10718678.492247104644775 ], [ 1731310.847197808325291, 10718679.776667630299926 ], [ 1731301.529947313014418, 10718678.474013345316052 ], [ 1731291.908884102944285, 10718677.540218394249678 ], [ 1731287.26219320227392, 10718677.616443796083331 ], [ 1731258.625230353558436, 10718669.717145031318069 ], [ 1731254.169508838094771, 10718681.434179406613111 ], [ 1731251.774823907529935, 10718686.567687597125769 ], [ 1731251.840470286319032, 10718690.569214200600982 ], [ 1731247.331042878795415, 10718699.012273408472538 ], [ 1731244.906520627439022, 10718702.326906437054276 ], [ 1731245.281946971546859, 10718706.32335102185607 ], [ 1731238.002415825380012, 10718715.903476022183895 ], [ 1731233.47509114514105, 10718723.25521183386445 ], [ 1731231.378255169373006, 10718727.656089207157493 ], [ 1731226.505345869809389, 10718732.830257287248969 ], [ 1731221.954153248807415, 10718738.726894114166498 ], [ 1731217.402962216176093, 10718744.623531583696604 ], [ 1731205.786545301787555, 10718754.274816924706101 ], [ 1731198.757129928795621, 10718760.21211663633585 ], [ 1731187.098943684715778, 10718767.316982246935368 ], [ 1731182.494045078055933, 10718769.939647980034351 ], [ 1731180.057596951257437, 10718772.52673552557826 ], [ 1731165.921190900495276, 10718779.672269919887185 ], [ 1731156.723338627722114, 10718785.645158089697361 ], [ 1731142.563066625501961, 10718791.335601475089788 ], [ 1731126.216443407349288, 10718795.970307247713208 ], [ 1731118.799671346554533, 10718797.18362945318222 ], [ 1731111.692678095772862, 10718798.391869958490133 ], [ 1731107.075850488850847, 10718800.286995518952608 ], [ 1731097.782501800917089, 10718800.439496785402298 ], [ 1731093.141797016141936, 10718800.879523526877165 ], [ 1731071.761125686811283, 10718800.866513658314943 ], [ 1731064.612345746485516, 10718799.528337707743049 ], [ 1731059.941791702061892, 10718798.149493107572198 ], [ 1731052.816890593385324, 10718798.2664202619344 ], [ 1731047.812677463982254, 10718795.43756047077477 ], [ 1731043.166002457030118, 10718795.513818776234984 ], [ 1731038.483506731223315, 10718793.40742677077651 ], [ 1730903.114858677377924, 10718758.150370746850967 ], [ 1730882.002135141054168, 10718755.585967665538192 ], [ 1730872.375108234817162, 10718754.288514640182257 ], [ 1730865.244226112961769, 10718754.041705470532179 ], [ 1730851.000377775169909, 10718754.639416873455048 ], [ 1730843.887412009760737, 10718755.483937438577414 ], [ 1730834.629884842084721, 10718757.819160291925073 ], [ 1730829.995149400318041, 10718758.622997568920255 ], [ 1730799.22035303269513, 10718771.499947365373373 ], [ 1730794.603538267314434, 10718773.395114716142416 ], [ 1730480.920231791911647, 10718955.753076447173953 ], [ 1730475.993681961437687, 10718957.653375882655382 ], [ 1730471.388861794024706, 10718960.276137236505747 ], [ 1730464.305827698437497, 10718962.939612017944455 ], [ 1730459.718937904573977, 10718966.653700353577733 ], [ 1730455.114120168145746, 10718969.276463910937309 ], [ 1730450.479421322932467, 10718970.080352423712611 ], [ 1730445.892533964011818, 10718973.794442633166909 ], [ 1730438.785598624963313, 10718975.002822153270245 ], [ 1730433.871006874600425, 10718977.630677921697497 ], [ 1730417.554446121910587, 10718984.084596557542682 ], [ 1730412.919750071363524, 10718984.888490119948983 ], [ 1730401.196053197607398, 10718987.992097010836005 ], [ 1730396.269512240309268, 10718989.892407912760973 ], [ 1730389.162581805838272, 10718991.100797697901726 ], [ 1730379.911124343750998, 10718993.799918504431844 ], [ 1730372.786263687070459, 10718993.91698626242578 ], [ 1730276.059355984441936, 10719009.697501864284277 ], [ 1730136.976900118635967, 10719031.268726162612438 ], [ 1730132.020480701234192, 10719031.350199388340116 ], [ 1730122.703275002073497, 10719030.047863189131021 ], [ 1730115.584401745581999, 10719030.528759229928255 ], [ 1730103.735165007179603, 10719025.993190310895443 ], [ 1730096.586390586802736, 10719024.655214777216315 ], [ 1730094.072299611289054, 10719022.513303626328707 ], [ 1730089.401734506711364, 10719021.134590161964297 ] ] } },
{ "type": "Feature", "properties": { "name": "Rustic Trl" }, "geometry": { "type": "LineString", "coordinates": [ [ 1729101.693689117208123, 10716017.96903407946229 ], [ 1729081.419473707210273, 10716085.255357367917895 ], [ 1729076.976104598958045, 10716097.700180221349001 ], [ 1729077.047988603822887, 10716102.065462404862046 ], [ 1729074.635462198872119, 10716106.107783844694495 ], [ 1729072.252888303482905, 10716111.968973068520427 ], [ 1729070.150165601167828, 10716116.006193248555064 ], [ 1729070.22205051057972, 10716120.371475530788302 ], [ 1729067.809526250930503, 10716124.413797531276941 ], [ 1729056.39647075207904, 10716146.434074554592371 ], [ 1729054.01390295359306, 10716152.295265348628163 ], [ 1729051.601382927037776, 10716156.337588662281632 ], [ 1729049.474702970124781, 10716158.919716166332364 ], [ 1729047.06218396848999, 10716162.962039835751057 ], [ 1729044.965458185179159, 10716167.36303536221385 ], [ 1729042.552940330468118, 10716171.40535937063396 ], [ 1729037.977800607215613, 10716175.847170609980822 ], [ 1729033.450588547857478, 10716183.199170829728246 ], [ 1729031.044064031215385, 10716187.605269288644195 ], [ 1729026.468927988782525, 10716192.047082133591175 ], [ 1729024.056414101971313, 10716196.08940758369863 ], [ 1729019.463307229336351, 10716199.439900742843747 ], [ 1729014.632291746558622, 10716207.16077933087945 ], [ 1729010.027205154765397, 10716209.783726682886481 ], [ 1729007.93048711726442, 10716214.184724723920226 ], [ 1729003.325401977170259, 10716216.807672994211316 ], [ 1729000.912892610765994, 10716220.850000182166696 ], [ 1728995.998007444199175, 10716223.478051729500294 ], [ 1728993.88331836881116, 10716226.787730015814304 ], [ 1728984.36934425169602, 10716232.402506997808814 ], [ 1728982.254656861303374, 10716235.712186029180884 ], [ 1728972.734695636434481, 10716240.963192718103528 ], [ 1728970.6080269345548, 10716243.545325385406613 ], [ 1728965.723104974254966, 10716247.992249144241214 ], [ 1728961.130010729655623, 10716251.342750295996666 ], [ 1728956.49497593799606, 10716252.146837117150426 ], [ 1728954.058507978683338, 10716254.734073495492339 ], [ 1728949.471407465869561, 10716258.448349812999368 ], [ 1728944.866332668578252, 10716261.0713060349226 ], [ 1728940.231299539562315, 10716261.875395039096475 ], [ 1728935.334400388877839, 10716265.594776080921292 ], [ 1728930.699368068715557, 10716266.398866377770901 ], [ 1728926.082311826059595, 10716268.294278 ], [ 1728923.67580721527338, 10716272.700384436175227 ], [ 1728919.02879203739576, 10716272.77692917175591 ], [ 1728914.089952115435153, 10716273.949898280203342 ], [ 1728909.484882049495354, 10716276.572859287261963 ], [ 1728904.867828307440504, 10716278.468273775652051 ], [ 1728899.922997420886531, 10716279.2774713691324 ], [ 1728895.305944554042071, 10716281.17288713529706 ], [ 1728890.676907518180087, 10716282.34075640141964 ], [ 1728886.083825084846467, 10716285.691267704591155 ], [ 1728881.4368116625119, 10716285.767817508429289 ], [ 1728876.497974805999547, 10716286.940792018547654 ], [ 1728871.850961548509076, 10716287.017343113198876 ], [ 1728867.221926046302542, 10716288.185215538367629 ], [ 1728862.604876118246466, 10716290.080635719001293 ], [ 1728857.957863284042105, 10716290.157188687473536 ], [ 1728853.019027804723009, 10716291.330166574567556 ], [ 1728848.395986268296838, 10716292.86181509308517 ], [ 1728836.629547637188807, 10716293.419528916478157 ], [ 1728831.970549344085157, 10716292.768538264557719 ], [ 1728827.043701078509912, 10716294.669067 ], [ 1728817.755669770063832, 10716295.18595671094954 ], [ 1728812.786870499607176, 10716294.540072565898299 ], [ 1728794.204814994707704, 10716295.21008862927556 ], [ 1728789.253995455102995, 10716295.655528541654348 ], [ 1728784.583009552676231, 10716294.276997184380889 ], [ 1728777.457590748555958, 10716294.394394787028432 ], [ 1728768.115617235423997, 10716291.637335911393166 ], [ 1728763.468604611465707, 10716291.713901618495584 ], [ 1728753.81682832702063, 10716288.961951022967696 ], [ 1728749.169815349392593, 10716289.038518659770489 ], [ 1728321.482035976601765, 10716173.46312166377902 ], [ 1728311.842186440713704, 10716171.438842156901956 ], [ 1728307.171163727063686, 10716170.060375748202205 ], [ 1728302.530133236665279, 10716170.500777028501034 ], [ 1728293.182087772525847, 10716167.380073979496956 ], [ 1728286.032647960819304, 10716166.042479572817683 ], [ 1728281.081815178273246, 10716166.487992430105805 ], [ 1728276.404791716253385, 10716164.745756797492504 ], [ 1728267.116731149144471, 10716165.262794859707355 ], [ 1728259.967289801687002, 10716163.925205860286951 ], [ 1728250.679229194065556, 10716164.442248346284032 ], [ 1728245.710399201372638, 10716163.796446088701487 ], [ 1728224.649863257072866, 10716164.507641719654202 ], [ 1728219.711029686499387, 10716165.680710168555379 ], [ 1728207.944554225774482, 10716166.238638583570719 ], [ 1728203.327522521140054, 10716168.134146766737103 ], [ 1728198.668494013603777, 10716167.483241856098175 ], [ 1728193.741661028936505, 10716169.383860809728503 ], [ 1728189.094631923595443, 10716169.460503969341516 ], [ 1728181.987186690559611, 10716170.669344859197736 ], [ 1728177.370156957302243, 10716172.56485653296113 ], [ 1728172.425326153170317, 10716173.374158380553126 ], [ 1728167.808297291398048, 10716175.269671341404319 ], [ 1728158.556240957695991, 10716177.969378978013992 ], [ 1728151.448798452038318, 10716179.178226176649332 ], [ 1728024.506608687108383, 10716223.481453934684396 ], [ 1727396.877788706216961, 10716441.976769961416721 ], [ 1727389.824498852016404, 10716446.45973495952785 ], [ 1727382.741169450106099, 10716449.123834544792771 ], [ 1727373.507270426489413, 10716452.915073940530419 ], [ 1727368.914355367887765, 10716456.265788061544299 ], [ 1727361.837038045516238, 10716459.293665364384651 ], [ 1727359.400703041581437, 10716461.881015080958605 ], [ 1727354.783756246557459, 10716463.776637623086572 ], [ 1727349.905079684220254, 10716468.587564900517464 ], [ 1727345.288134296890348, 10716470.483188727870584 ], [ 1727343.161600550403818, 10716473.065422497689724 ], [ 1727338.246874432777986, 10716475.693711198866367 ], [ 1727335.822559929220006, 10716479.008609397336841 ], [ 1727331.247678484302014, 10716483.450648797675967 ], [ 1727326.642753849038854, 10716486.073821922764182 ], [ 1727324.2064234088175, 10716488.661174228414893 ], [ 1727322.09191023116, 10716491.970956113189459 ], [ 1727317.177188416942954, 10716494.599247889593244 ], [ 1727312.614329516887665, 10716499.768836615607142 ], [ 1727310.190019218949601, 10716503.083736728876829 ], [ 1727308.093535526888445, 10716507.48483968898654 ], [ 1727305.967006899416447, 10716510.067075863480568 ], [ 1727301.052288902457803, 10716512.695369997993112 ], [ 1727296.501453272532672, 10716518.592507764697075 ], [ 1727294.065127435140312, 10716521.17986230738461 ], [ 1727291.652838976122439, 10716525.222310591489077 ], [ 1727289.526312705827877, 10716527.804547848179936 ], [ 1727285.005527715897188, 10716535.520554222166538 ], [ 1727282.569203970720991, 10716538.107909629121423 ], [ 1727280.198983723530546, 10716544.696772614493966 ], [ 1727277.774679808877409, 10716548.011675195768476 ], [ 1727275.678203143412247, 10716552.412780391052365 ], [ 1727273.265919127501547, 10716556.455230128020048 ], [ 1727268.799227215582505, 10716567.44519960321486 ], [ 1727266.441030846675858, 10716574.761610602959991 ], [ 1727264.344557366101071, 10716579.162716643884778 ], [ 1727264.410662408685312, 10716583.164224203675985 ], [ 1727261.974343663780019, 10716585.751581223681569 ], [ 1727262.040448994841427, 10716589.753088818863034 ], [ 1727259.634178924374282, 10716594.159313129261136 ], [ 1727260.010082631139085, 10716598.155702846124768 ], [ 1727255.287689640419558, 10716612.424753436818719 ], [ 1727168.681248621782288, 10716940.977278245612979 ], [ 1727128.315935848746449, 10717086.101808318868279 ], [ 1727126.285635256208479, 10717094.504435639828444 ], [ 1727126.38181285909377, 10717100.324813822284341 ], [ 1727123.969586671562865, 10717104.36727686971426 ], [ 1727124.065764694707468, 10717110.187655121088028 ], [ 1727124.459713899763301, 10717115.275366980582476 ], [ 1727122.035466746194288, 10717118.590282958000898 ], [ 1727122.113611688604578, 10717123.319340361282229 ], [ 1727121.875952154397964, 10717127.689743299037218 ], [ 1727122.275912724202499, 10717133.141228904947639 ], [ 1727119.893745322013274, 10717139.002560690045357 ], [ 1727120.603064077207819, 10717181.927853159606457 ], [ 1727123.171574033796787, 10717187.343505039811134 ], [ 1727122.933915081666782, 10717191.713908348232508 ], [ 1727123.309830483281985, 10717195.710299694910645 ], [ 1727123.066160453716293, 10717199.716929359361529 ], [ 1727125.622646539472044, 10717204.405034182593226 ], [ 1727126.004572660662234, 10717208.76519931294024 ], [ 1727125.772924719844013, 10717213.499376405030489 ], [ 1727150.351030196994543, 10717275.679409259930253 ], [ 1727175.130650666309521, 10717331.306418457999825 ], [ 1727282.714838889194652, 10717559.860651353374124 ], [ 1727358.766774529125541, 10717717.98081579618156 ], [ 1727424.836140325525776, 10717853.342023879289627 ], [ 1727454.363858009921387, 10717915.076689835637808 ], [ 1727456.908233367837965, 10717919.037275530397892 ], [ 1727459.172860676189885, 10717924.821848014369607 ], [ 1727463.909768423996866, 10717930.201717836782336 ], [ 1727463.975853008916602, 10717934.203232895582914 ], [ 1727466.496195264393464, 10717936.70872301235795 ], [ 1727468.718766405712813, 10717939.946877554059029 ], [ 1727471.239107900997624, 10717942.452368028461933 ], [ 1727473.527761750621721, 10717949.692038061097264 ], [ 1727478.550419673090801, 10717953.611697655171156 ], [ 1727485.807659635320306, 10717961.497061943635345 ], [ 1727488.066272067138925, 10717966.917862551286817 ], [ 1727493.100940640550107, 10717971.565072594210505 ], [ 1727497.789778126170859, 10717974.034754434600472 ], [ 1727500.322129697538912, 10717977.267795398831367 ], [ 1727505.034994947724044, 10717981.192574750632048 ], [ 1727509.771887992275879, 10717986.572451293468475 ], [ 1727516.987064034910873, 10717991.911403579637408 ], [ 1727521.657875767210498, 10717993.289766332134604 ], [ 1727524.178209583973512, 10717995.795260867103934 ], [ 1727528.891069607343525, 10717999.720043580979109 ], [ 1727533.87166526215151, 10718001.093292510136962 ], [ 1727541.086834527319297, 10718006.432249946519732 ], [ 1727545.763650127220899, 10718008.174390144646168 ], [ 1727555.117279902799055, 10718011.658672457560897 ], [ 1727564.810726298252121, 10718016.956712920218706 ], [ 1727574.158345168689266, 10718020.077226283028722 ], [ 1727581.307433043373749, 10718021.414676524698734 ], [ 1727586.288023381028324, 10718022.787933070212603 ], [ 1727627.109181879321113, 10718074.147831263020635 ], [ 1727636.075886711245403, 10718035.429215740412474 ], [ 1727847.356597817270085, 10718088.705867066979408 ], [ 1727866.057745162164792, 10718095.310824541375041 ], [ 1727882.858154714806005, 10718099.400046292692423 ], [ 1727897.198293180437759, 10718104.62149646691978 ], [ 1727911.240648735780269, 10718110.575613230466843 ], [ 1727928.029039540095255, 10718113.937308581545949 ], [ 1727942.369164883391932, 10718119.158777663484216 ], [ 1727956.423511554254219, 10718125.840461514890194 ], [ 1727970.763627509353682, 10718131.061942499130964 ], [ 1728028.226077382685617, 10718158.132089691236615 ], [ 1728054.172213435638696, 10718171.895083656534553 ], [ 1728314.311980516184121, 10718313.153639713302255 ], [ 1728345.280388072133064, 10718330.836640018969774 ], [ 1728376.218773023225367, 10718346.700796291232109 ], [ 1728407.454915898153558, 10718361.832324152812362 ], [ 1728440.531731297029182, 10718375.841913297772408 ], [ 1728471.458037051605061, 10718390.978607088327408 ], [ 1728504.832586135249585, 10718404.25560249760747 ], [ 1728559.737950310809538, 10718426.638431454077363 ], [ 1728795.115551548777148, 10718513.363893328234553 ], [ 1728868.709269085666165, 10718541.625144788995385 ], [ 1728902.029581362847239, 10718551.628555892035365 ], [ 1728935.391819809330627, 10718564.178422017022967 ], [ 1728968.712090107612312, 10718574.18189792893827 ], [ 1729002.044323792215437, 10718584.912955582141876 ], [ 1729035.042791259475052, 10718594.19404879771173 ], [ 1729381.71862209495157, 10718684.5487354490906 ], [ 1729386.669103858293965, 10718684.103379497304559 ], [ 1729391.345731315203011, 10718685.845771858468652 ], [ 1729398.494605308864266, 10718687.183600416406989 ], [ 1729403.147282284684479, 10718687.470895137637854 ], [ 1729407.823908425634727, 10718689.213289747014642 ], [ 1729412.46461049397476, 10718688.773036101832986 ], [ 1729436.377486302750185, 10718692.018202854320407 ], [ 1729441.018188297748566, 10718691.577953066676855 ], [ 1729452.789800498867407, 10718691.384219268336892 ], [ 1729462.386971135390922, 10718690.862401427701116 ], [ 1729467.045633626636118, 10718691.513479609042406 ], [ 1729481.289493474643677, 10718690.915196204558015 ], [ 1729485.906250132713467, 10718689.019853139296174 ], [ 1729493.043146660784259, 10718689.630151674151421 ], [ 1729497.683849576395005, 10718689.189909514039755 ], [ 1729502.30659365747124, 10718687.658343495801091 ], [ 1729507.245103718712926, 10718686.485455201938748 ], [ 1729511.861862348159775, 10718684.590115642175078 ], [ 1729516.508552312385291, 10718684.51365084759891 ], [ 1729521.447063277242705, 10718683.340764602646232 ], [ 1729526.063823090866208, 10718681.445426946505904 ], [ 1729530.698541444959119, 10718680.641414400190115 ], [ 1729535.649025343125686, 10718680.196079853922129 ], [ 1729540.253814506344497, 10718677.573194457218051 ], [ 1729544.870576087385416, 10718675.677859334275126 ], [ 1729549.505295622628182, 10718674.873849332332611 ], [ 1729554.43183749797754, 10718672.973418163135648 ], [ 1729559.036629031877965, 10718670.350535290315747 ], [ 1729563.653392584528774, 10718668.455202702432871 ], [ 1729568.282127876998857, 10718667.287420397624373 ], [ 1729572.88692120811902, 10718664.664539396762848 ], [ 1729577.503686263225973, 10718662.769208678975701 ], [ 1729582.418260441627353, 10718660.141231877729297 ], [ 1729587.011084953090176, 10718656.790803130716085 ], [ 1729591.639822560595348, 10718655.623023977503181 ], [ 1729594.076161904260516, 10718653.035824606195092 ], [ 1729598.978768138447776, 10718649.680300561711192 ], [ 1729603.583566129673272, 10718647.057423714548349 ], [ 1729608.21230558375828, 10718645.88964680954814 ], [ 1729612.805134490365162, 10718642.539221562445164 ], [ 1729615.241476350929588, 10718639.952023722231388 ], [ 1729624.451078085461631, 10718634.706275071948767 ], [ 1729629.335734977154061, 10718630.259430944919586 ], [ 1729631.450329231331125, 10718626.949781274423003 ], [ 1729640.969716797349975, 10718621.698940519243479 ], [ 1729643.066358260810375, 10718617.297967141494155 ], [ 1729647.67116392031312, 10718614.675096295773983 ], [ 1729650.083571427734569, 10718610.632801746949553 ], [ 1729654.986189149552956, 10718607.277285834774375 ], [ 1729657.08283332339488, 10718602.876313392072916 ], [ 1729661.687641981523484, 10718600.253444472327828 ], [ 1729664.100052182096988, 10718596.211150979623199 ], [ 1729678.122529219370335, 10718582.153280980885029 ], [ 1729682.637576365610585, 10718574.07379281334579 ], [ 1729687.212469117948785, 10718569.632053375244141 ], [ 1729701.049456634791568, 10718544.297174502164125 ], [ 1729839.644473548745736, 10718342.251160824671388 ], [ 1729874.246474619023502, 10718279.459809245541692 ], [ 1729908.07222990738228, 10718188.299167355522513 ], [ 1729921.646341857966036, 10718146.958305051550269 ], [ 1729934.874813534552231, 10718103.439896419644356 ], [ 1729961.975358407013118, 10718017.848012885078788 ], [ 1729973.017492080805823, 10717973.273957950994372 ], [ 1729995.143717512954026, 10717886.672288201749325 ], [ 1730004.017433279426768, 10717842.133904190734029 ], [ 1730005.851014313753694, 10717821.726878926157951 ], [ 1730008.084097466897219, 10717806.771378545090556 ], [ 1730007.826922288630158, 10717791.129075258970261 ], [ 1730010.071970308432356, 10717776.901124583557248 ], [ 1730009.820777056738734, 10717761.622596371918917 ], [ 1730011.744078930001706, 10717746.67219060100615 ], [ 1730011.014425178291276, 10717702.291706459596753 ], [ 1730003.012364700669423, 10717498.290666395798326 ], [ 1729994.286565676098689, 10717250.272999716922641 ], [ 1729993.933694774983451, 10717228.810320418328047 ], [ 1729991.2280816687271, 10717215.027646997943521 ], [ 1729989.864439120749012, 10717132.087130941450596 ], [ 1729992.11551266303286, 10717118.222965532913804 ], [ 1729991.882259056437761, 10717104.03577315248549 ], [ 1729993.823541958350688, 10717090.176701735705137 ], [ 1729996.098543645115569, 10717077.767633931711316 ], [ 1729995.865291964029893, 10717063.58044227771461 ], [ 1729997.806579284137115, 10717049.721371814608574 ], [ 1730000.379418178927153, 10717036.579663399606943 ], [ 1730004.256021245848387, 10717008.497750187292695 ], [ 1730009.00938912620768, 10716996.047938676550984 ], [ 1730013.327373105799779, 10716975.963964994996786 ], [ 1730020.075877166818827, 10716952.929054683074355 ], [ 1730024.513483564602211, 10716940.120565224438906 ], [ 1730026.764586130389944, 10716926.256405560299754 ], [ 1730031.178277116268873, 10716911.992821108549833 ], [ 1730033.453306115465239, 10716899.583758674561977 ], [ 1730037.872983976034448, 10716885.683949630707502 ], [ 1730040.148017431143671, 10716873.27488805167377 ], [ 1730042.083355512237176, 10716859.052049467340112 ], [ 1730048.544854026986286, 10716818.555994438007474 ], [ 1730048.317605975782499, 10716804.732581252232194 ], [ 1730050.56274857185781, 10716790.504651574417949 ], [ 1730050.347461894154549, 10716777.408786917105317 ], [ 1730052.288791045779362, 10716763.549724688753486 ], [ 1730052.05556471273303, 10716749.362538479268551 ], [ 1730054.076078684302047, 10716570.668039390817285 ], [ 1730053.5749167711474, 10716559.032366935163736 ], [ 1730053.711292064981535, 10716548.477830765768886 ], [ 1730053.317771967267618, 10716543.390088899061084 ], [ 1730053.549829138442874, 10716538.655935356393456 ], [ 1730050.975758020766079, 10716532.876295480877161 ], [ 1730050.7186122413259, 10716517.234018003568053 ], [ 1730048.174439965048805, 10716513.273247953504324 ], [ 1730048.0667970769573, 10716506.725317981094122 ], [ 1730045.808501970255747, 10716501.304359769448638 ], [ 1730045.64105684007518, 10716491.118691125884652 ], [ 1730043.096882152138278, 10716487.157921573147178 ], [ 1730040.838585080811754, 10716481.736963830888271 ], [ 1730040.433102180249989, 10716475.921674819663167 ], [ 1730038.198725043796003, 10716471.955812783911824 ], [ 1730035.624646730255336, 10716466.176174562424421 ], [ 1730025.810375302331522, 10716434.680639419704676 ], [ 1730018.362040831008926, 10716415.153992965817451 ], [ 1729997.856654414907098, 10716336.530854115262628 ], [ 1729993.19649020768702, 10716316.958376005291939 ], [ 1729985.592613687040284, 10716287.973621565848589 ], [ 1729980.353498505195603, 10716252.036420810967684 ], [ 1729977.272225675173104, 10716234.257348479703069 ] ] } },
{ "type": "Feature", "properties": { "name": "Island Cir" }, "geometry": { "type": "LineString", "coordinates": [ [ 1729176.415981662692502, 10717111.994529120624065 ], [ 1729171.597045171773061, 10717120.442942900583148 ], [ 1729166.926186028402299, 10717119.06435813382268 ], [ 1729159.735051658237353, 10717115.180162511765957 ], [ 1729155.064191309036687, 10717113.801579365506768 ], [ 1729145.680540913715959, 10717108.497996905818582 ], [ 1729138.221537478268147, 10717107.165324857458472 ], [ 1729133.532705382211134, 10717104.695422621443868 ], [ 1729128.861842520302162, 10717103.31684303842485 ], [ 1729124.161029187263921, 10717100.119394088163972 ], [ 1729112.352932553039864, 10717098.130596147850156 ], [ 1729100.508892903802916, 10717093.95915831066668 ], [ 1729090.881328942254186, 10717092.662206202745438 ], [ 1728770.403356362367049, 10717013.522637045010924 ], [ 1728639.738182390807196, 10716982.199509592726827 ], [ 1728217.207249315921217, 10716878.184369415044785 ], [ 1728212.560315786395222, 10716878.261009410023689 ], [ 1728205.411019034683704, 10716876.923430373892188 ], [ 1728200.740086448378861, 10716875.544977057725191 ], [ 1728193.590788641944528, 10716874.207400484010577 ], [ 1728188.94385457248427, 10716874.284043662250042 ], [ 1728181.794556004460901, 10716872.946469537913799 ], [ 1728172.196891946485266, 10716873.468643140047789 ], [ 1728165.047592503484339, 10716872.131072485819459 ], [ 1728153.591154691297561, 10716872.683910008519888 ], [ 1728148.610423712758347, 10716871.310573648661375 ], [ 1728141.473123526433483, 10716870.700555324554443 ], [ 1728129.706889846362174, 10716871.258510772138834 ], [ 1728125.083957458147779, 10716872.790257414802909 ], [ 1728117.952657674904913, 10716872.544017663225532 ], [ 1728113.335726604796946, 10716874.439539590850472 ], [ 1728101.563493735622615, 10716874.633730944246054 ], [ 1728096.624766583554447, 10716875.806818045675755 ], [ 1728089.505468914983794, 10716876.288131598383188 ], [ 1728084.870537015376613, 10716877.092336229979992 ], [ 1728073.146313608856872, 10716880.196726938709617 ], [ 1728068.529385937610641, 10716882.092254878953099 ], [ 1728061.416091055842116, 10716882.937347946688533 ], [ 1728056.799164375523105, 10716884.832877459004521 ], [ 1728049.691871630726382, 10716886.041746657341719 ], [ 1728042.596582142869011, 10716887.978164723142982 ], [ 1728037.991660023806617, 10716890.601244175806642 ], [ 1728033.064940182492137, 10716892.501887822523713 ], [ 1728028.460019387537614, 10716895.124968571588397 ], [ 1728021.352729672566056, 10716896.333843616768718 ], [ 1728016.759813595796004, 10716899.684473348781466 ], [ 1728011.845099629368633, 10716902.312667459249496 ], [ 1728005.047607265645638, 10716903.516434723511338 ], [ 1728000.14489840879105, 10716906.872177923098207 ], [ 1727995.515974431997165, 10716908.040168296545744 ], [ 1727990.911058521596715, 10716910.663254108279943 ], [ 1727986.336153266020119, 10716915.105209082365036 ], [ 1727981.731239002896473, 10716917.728296138346195 ], [ 1727976.828534424304962, 10716921.084042714908719 ], [ 1727972.223621673649177, 10716923.707131069153547 ], [ 1727965.146350747672841, 10716926.734886290505528 ], [ 1727960.231644518440589, 10716929.363087844103575 ], [ 1727951.045833887532353, 10716936.06436450406909 ], [ 1727941.568239252315834, 10716943.862076591700315 ], [ 1727939.441691847052425, 10716946.444275168702006 ], [ 1727929.982110496377572, 10716955.333311691880226 ], [ 1727925.377205864293501, 10716957.9564064219594 ], [ 1727916.221423366572708, 10716966.476561192423105 ], [ 1727913.80909559968859, 10716970.51896832510829 ], [ 1727904.65331935021095, 10716979.039126304909587 ], [ 1727902.246996750356629, 10716983.445308035239577 ], [ 1727897.672112695639953, 10716987.88727517798543 ], [ 1727892.781432295916602, 10716991.970581455156207 ], [ 1727890.684906661044806, 10716996.371651824563742 ], [ 1727886.092016647802666, 10716999.72229940444231 ], [ 1727881.571164898108691, 10717007.438232354819775 ], [ 1727876.692495554918423, 10717012.249088477343321 ], [ 1727872.183654052205384, 10717020.692570259794593 ], [ 1727867.632791966432706, 10717026.58963655680418 ], [ 1727865.226477578049526, 10717030.995821136981249 ], [ 1727862.844177084276453, 10717036.857100866734982 ], [ 1727860.741654827957973, 10717040.894399587064981 ], [ 1727855.868996617617086, 10717046.069032615050673 ], [ 1727851.414195850258693, 10717057.786481214687228 ], [ 1727846.917373795295134, 10717066.957514302805066 ], [ 1727842.4625789814163, 10717078.674964373931289 ], [ 1727839.776495760539547, 10717084.905132507905364 ], [ 1727833.261216185986996, 10717103.206300856545568 ], [ 1727824.513750105863437, 10717136.463098449632525 ], [ 1727821.746025110827759, 10717156.521785253658891 ], [ 1727820.293120394228026, 10717162.367730293422937 ], [ 1727820.067380471620709, 10717167.465676296502352 ], [ 1727820.163441145094112, 10717173.2860570512712 ], [ 1727818.090951768448576, 10717179.142228094860911 ], [ 1727818.457184492377564, 10717201.332430280745029 ], [ 1727818.255460564512759, 10717207.885471820831299 ], [ 1727818.375536935869604, 10717215.160948142409325 ], [ 1727818.793398150242865, 10717221.703764008358121 ], [ 1727821.058006203034893, 10717227.488354988396168 ], [ 1727821.178082054713741, 10717234.763831524178386 ], [ 1727821.595942624378949, 10717241.306647595018148 ], [ 1727823.884564090287313, 10717248.546334249898791 ], [ 1727823.99263188848272, 10717255.094263311475515 ], [ 1727826.591044148197398, 10717262.328837437555194 ], [ 1727826.699111477937549, 10717268.876766633242369 ], [ 1727828.987730232300237, 10717276.116453889757395 ], [ 1727829.071782280458137, 10717281.20928779989481 ], [ 1727833.946800884557888, 10717294.956002613529563 ], [ 1727834.066874261945486, 10717302.231479836627841 ], [ 1727836.65327389142476, 10717308.738507444038987 ], [ 1727841.7960523837246, 10717319.933694029226899 ], [ 1727844.1026756237261, 10717328.26470441929996 ], [ 1727846.671060931636021, 10717333.680411359295249 ], [ 1727853.810660748044029, 10717353.211723733693361 ], [ 1727856.379042796557769, 10717358.627431575208902 ], [ 1727861.121965863276273, 10717364.37112588994205 ], [ 1727863.708356088260189, 10717370.878156052902341 ], [ 1727866.276735348394141, 10717376.293864760547876 ], [ 1727871.01965441647917, 10717382.037560576573014 ], [ 1727873.61804808001034, 10717389.27213946916163 ], [ 1727878.354960981989279, 10717394.652062475681305 ], [ 1727880.917333082528785, 10717399.70399852655828 ], [ 1727885.684259167173877, 10717406.902792222797871 ], [ 1727887.942841683514416, 10717412.323615096509457 ], [ 1727892.685752344084904, 10717418.067314168438315 ], [ 1727897.708437012275681, 10717421.98703208938241 ], [ 1727899.001626790268347, 10717425.240548770874739 ], [ 1727904.394129829481244, 10717432.792894890531898 ], [ 1727915.792707005282864, 10717447.523591909557581 ], [ 1727928.412427764618769, 10717461.142523463815451 ], [ 1727936.307251504156739, 10717470.109075613319874 ], [ 1727941.020133513491601, 10717474.033911952748895 ], [ 1727944.773631261661649, 10717476.155214412137866 ], [ 1727960.199448059778661, 10717490.819474315270782 ], [ 1727978.091566905612126, 10717504.715301673859358 ], [ 1727992.5039590052329, 10717514.302075125277042 ], [ 1728004.116231378167868, 10717523.207307664677501 ], [ 1728012.892375964671373, 10717529.248352417722344 ], [ 1728017.563228813465685, 10717530.626781517639756 ], [ 1728024.784419198520482, 10717536.329610928893089 ], [ 1728031.957594211911783, 10717539.122249791398644 ], [ 1728036.980245544109493, 10717543.041988652199507 ], [ 1728043.861633075866848, 10717546.931063001975417 ], [ 1728051.064811427611858, 10717551.542575981467962 ], [ 1728058.225978401023895, 10717553.607672333717346 ], [ 1728065.429153410019353, 10717558.21918835118413 ], [ 1728072.590318100526929, 10717560.284287696704268 ], [ 1728079.793489778181538, 10717564.895806774497032 ], [ 1728086.650863859103993, 10717567.329793639481068 ], [ 1728094.145818578079343, 10717570.844883158802986 ], [ 1728100.98518773028627, 10717572.187550785019994 ], [ 1728108.164349770871922, 10717575.343979697674513 ], [ 1728115.355511988280341, 10717579.227958209812641 ], [ 1728124.976981239626184, 10717580.160864634439349 ], [ 1728131.846350138541311, 10717583.322408650070429 ], [ 1728139.305293675977737, 10717584.654863761737943 ], [ 1728146.15665905107744, 10717586.72508848644793 ], [ 1728153.305812063859776, 10717588.062656588852406 ], [ 1728162.963279152289033, 10717591.178217973560095 ], [ 1728184.100942452205345, 10717595.196046812459826 ], [ 1728198.369241820182651, 10717596.052329922094941 ], [ 1728262.413770408835262, 10717608.823251008987427 ], [ 1728302.776322616729885, 10717613.615728225558996 ], [ 1728336.019716243958101, 10717618.889515740796924 ], [ 1728369.233108806423843, 10717622.344464795663953 ], [ 1728416.380994838662446, 10717625.205830473452806 ], [ 1728466.091141448821872, 10717633.119241859763861 ], [ 1728482.891698364401236, 10717637.208753561601043 ], [ 1728499.370469054440036, 10717640.575831959024072 ], [ 1728515.861229479778558, 10717644.670466549694538 ], [ 1728565.977047745604068, 10717658.399302130565047 ], [ 1728580.00147486012429, 10717663.262365372851491 ], [ 1728630.153211292112246, 10717679.173939723521471 ], [ 1728644.213591709733009, 10717686.219674382358789 ], [ 1728661.056065504672006, 10717692.855692643672228 ], [ 1728675.420227232156321, 10717699.532560635358095 ], [ 1728706.30506122414954, 10717712.123031880706549 ], [ 1728734.753528375411406, 10717727.300787827000022 ], [ 1728796.904790146974847, 10717756.8420524969697 ], [ 1728815.969653086736798, 10717766.716386819258332 ], [ 1728858.770128804491833, 10717787.843631150200963 ], [ 1728877.816978385439143, 10717796.626677265390754 ], [ 1728899.336123516550288, 10717805.00513418763876 ], [ 1728942.094555219635367, 10717823.58606300316751 ], [ 1728980.128245020285249, 10717837.514515571296215 ], [ 1729184.558375368826091, 10717907.65032977797091 ], [ 1729291.777606205549091, 10717945.547294987365603 ], [ 1729301.149033406982198, 10717950.123374361544847 ], [ 1729308.310039252275601, 10717952.18873168155551 ], [ 1729315.500984989805147, 10717956.072962708771229 ], [ 1729324.872406122973189, 10717960.649048602208495 ], [ 1729332.063348201802, 10717964.533283131197095 ] ] } },
{ "type": "Feature", "properties": { "name": "Almey Ct" }, "geometry": { "type": "LineString", "coordinates": [ [ 1727970.763627509353682, 10718131.061942499130964 ], [ 1727952.563083825400099, 10718173.571568552404642 ], [ 1727926.131589304888621, 10718280.622620137408376 ], [ 1727914.662360147573054, 10718317.926971567794681 ] ] } },
{ "type": "Feature", "properties": { "name": "Shady Bend Ct" }, "geometry": { "type": "LineString", "coordinates": [ [ 1727282.714838889194652, 10717559.860651353374124 ], [ 1727203.092434072634205, 10717598.291168136522174 ], [ 1727196.325157603248954, 10717601.313965341076255 ], [ 1727189.242082744138315, 10717603.978108560666442 ], [ 1727184.339553261874244, 10717607.333970764651895 ], [ 1727179.698728682706133, 10717607.774523926898837 ], [ 1727167.980843110010028, 10717611.242999205365777 ], [ 1727163.364062444772571, 10717613.138650117442012 ], [ 1727156.244927204912528, 10717613.62015681900084 ], [ 1727146.683546390384436, 10717616.325259700417519 ], [ 1727142.024690335383639, 10717615.674496268853545 ], [ 1727134.929600266041234, 10717617.611102918162942 ], [ 1727125.641943823779002, 10717618.128449287265539 ], [ 1727118.534832573495805, 10717619.337511550635099 ], [ 1727111.385642324807122, 10717618.000158095732331 ], [ 1727104.26049721124582, 10717618.117901645600796 ], [ 1727097.141363624483347, 10717618.599420549347997 ], [ 1727087.513860919047147, 10717617.30302719399333 ], [ 1727080.340622226707637, 10717614.510584676638246 ], [ 1727073.501218330580741, 10717613.168119570240378 ], [ 1726648.422398079652339, 10717504.847796969115734 ] ] } },
{ "type": "Feature", "properties": { "name": "Ridgeboro Ct" }, "geometry": { "type": "LineString", "coordinates": [ [ 1727274.453464260092005, 10717903.857348639518023 ], [ 1727286.898416269337758, 10717944.405569467693567 ], [ 1727287.07269351510331, 10717954.955017572268844 ], [ 1727289.295280575053766, 10717958.19316061027348 ], [ 1727289.403452248079702, 10717964.741094009950757 ], [ 1727289.809390597511083, 10717970.556361665949225 ], [ 1727289.565709759481251, 10717974.562994241714478 ], [ 1727292.086062044138089, 10717977.068471718579531 ], [ 1727292.16418569185771, 10717981.797534862533212 ], [ 1727292.368509080726653, 10717994.165853969752789 ], [ 1727289.962339240824804, 10717998.572084216400981 ], [ 1727290.070510919671506, 10718005.120017971843481 ], [ 1727290.434382169740275, 10718008.388867227360606 ], [ 1727290.190701675135642, 10718012.395499993115664 ], [ 1727288.130376160843298, 10718018.979257456958294 ], [ 1727288.292634301818907, 10718028.801158370450139 ], [ 1727285.856419601710513, 10718031.388518534600735 ], [ 1727285.976611342048272, 10718038.664000790566206 ], [ 1727265.887536987662315, 10718116.864791326224804 ], [ 1727255.068575948709622, 10718155.977988872677088 ] ] } },
{ "type": "Feature", "properties": { "name": "Carrington Ct" }, "geometry": { "type": "LineString", "coordinates": [ [ 1727168.681248621782288, 10716940.977278245612979 ], [ 1726814.886643446749076, 10716852.581750644370914 ] ] } },
{ "type": "Feature", "properties": { "name": "State Hwy 349" }, "geometry": { "type": "LineString", "coordinates": [ [ 1701166.862506430363283, 10686865.52744110301137 ], [ 1701099.726900500012562, 10687180.700420392677188 ], [ 1700920.414860920514911, 10687896.605268834158778 ], [ 1700741.655458430759609, 10688608.135901818051934 ], [ 1700681.243946928530931, 10688845.327408889308572 ], [ 1700566.259855523938313, 10689298.505955997854471 ], [ 1700183.585742140421644, 10690842.813804138451815 ], [ 1699891.444000810617581, 10692007.506344869732857 ], [ 1699882.406144682783633, 10692040.774503670632839 ], [ 1699559.452991956379265, 10693323.170081051066518 ], [ 1699101.187367254169658, 10695134.431226069107652 ], [ 1698948.268439479870722, 10695740.009576492011547 ], [ 1698758.70052736857906, 10696484.858234150335193 ], [ 1698730.931740760104731, 10696671.640131684020162 ], [ 1698708.477024176390842, 10696860.877039093524218 ], [ 1698691.342603915603831, 10697052.932706778869033 ], [ 1698688.874440360348672, 10697196.703497957438231 ], [ 1698690.136827605310827, 10697251.625735362991691 ], [ 1698696.539846487808973, 10697352.670132586732507 ], [ 1698696.551485404139385, 10697496.397980244830251 ], [ 1698709.536759068025276, 10697655.183381371200085 ], [ 1698716.729003021260723, 10697783.868164384737611 ], [ 1698737.198372502811253, 10697927.24137913249433 ], [ 1698785.273069378221408, 10698196.398493846878409 ], [ 1698831.940828308463097, 10698384.4373768735677 ], [ 1698888.937686637276784, 10698578.119213925674558 ], [ 1698943.094890195643529, 10698751.109865562990308 ], [ 1699010.319162347586825, 10698944.614704124629498 ], [ 1699071.397264875937253, 10699087.648398710414767 ], [ 1699180.882878879550844, 10699358.289318082854152 ], [ 1699336.812931253341958, 10699661.238229736685753 ], [ 1699495.018327037570998, 10699952.504691040143371 ], [ 1699663.650840522255749, 10700255.235247865319252 ], [ 1700118.825782531872392, 10701046.052008153870702 ], [ 1700548.600110486149788, 10701624.086429433897138 ], [ 1700972.287421475630254, 10702209.508963568136096 ], [ 1701336.329947483958676, 10702788.689242426306009 ], [ 1701708.898524329531938, 10703467.427067993208766 ], [ 1702092.922228562412784, 10704038.265916604548693 ], [ 1702273.863447138573974, 10704266.204303883016109 ], [ 1702401.763468279503286, 10704456.487474655732512 ], [ 1702868.955506916623563, 10704925.837356764823198 ], [ 1703428.575465560890734, 10705416.89096749946475 ], [ 1703753.118167923763394, 10705596.155046844854951 ], [ 1704031.261485669529065, 10705745.290611032396555 ], [ 1704508.172039608703926, 10706006.725130835548043 ], [ 1705451.716757563874125, 10706329.296869367361069 ], [ 1706160.384241117164493, 10706567.495552305132151 ], [ 1706868.234024449251592, 10706776.612984551116824 ], [ 1707196.465138451661915, 10706865.242194084450603 ], [ 1708463.702496850863099, 10707250.043121768161654 ], [ 1710033.945170931285247, 10707737.439125003293157 ], [ 1710508.226213292684406, 10707885.109115796163678 ], [ 1711596.147513939533383, 10708228.681386668235064 ], [ 1712045.23355599376373, 10708390.263219475746155 ], [ 1712371.950277122668922, 10708592.494957536458969 ], [ 1712663.472862727707252, 10708748.386537382379174 ], [ 1713014.688929054187611, 10708988.415839530527592 ], [ 1713356.074652856215835, 10709252.266692178323865 ], [ 1713646.742422555340454, 10709523.164439056068659 ], [ 1713953.295868858927861, 10709835.641384327784181 ], [ 1714223.80473135993816, 10710124.714519480243325 ], [ 1714384.461196243297309, 10710277.737689532339573 ], [ 1715153.841587356524542, 10711092.195610040798783 ], [ 1715907.010320691624656, 10711884.747891087085009 ], [ 1716297.519629128742963, 10712289.710732685402036 ], [ 1716644.552854914683849, 10712653.200358513742685 ], [ 1716843.207366621587425, 10712874.003841485828161 ], [ 1717077.491872860118747, 10713112.766903191804886 ], [ 1717747.144501393660903, 10713827.804003097116947 ], [ 1718260.42253956804052, 10714330.428955715149641 ], [ 1719100.118760582059622, 10715227.851251440122724 ], [ 1720049.955777526367456, 10716246.804816281422973 ], [ 1720879.731167449383065, 10717112.416306873783469 ], [ 1721836.15904567646794, 10718105.474783826619387 ], [ 1722979.965408452320844, 10719319.951378677040339 ], [ 1723959.28914467827417, 10720355.625886131078005 ], [ 1724886.278269851813093, 10721340.52667229808867 ], [ 1725383.464490634156391, 10721857.353534502908587 ], [ 1725924.513574774144217, 10722441.86985882371664 ], [ 1726617.841777758905664, 10723167.970405289903283 ], [ 1727046.11612733034417, 10723623.738890269771218 ], [ 1727386.09814713220112, 10723986.727322343736887 ], [ 1727671.634505421854556, 10724280.026114515960217 ], [ 1727888.274191075004637, 10724472.579028654843569 ], [ 1728254.153026070212945, 10724772.561964163556695 ], [ 1728631.996416976675391, 10725009.40092596039176 ], [ 1728861.612520326394588, 10725162.811286782845855 ], [ 1729265.693920502439141, 10725375.572868708521128 ], [ 1729669.050459007965401, 10725525.764312941581011 ], [ 1730099.045026001054794, 10725675.886334100738168 ], [ 1731393.689676453592256, 10726015.225585428997874 ], [ 1732956.314035416813567, 10726413.542685950174928 ], [ 1733606.990700014634058, 10726591.028197947889566 ], [ 1735062.198015843750909, 10726959.538499491289258 ], [ 1736538.274915503803641, 10727356.153048539534211 ] ] } },
{ "type": "Feature", "properties": { "name": "Corsair Ct" }, "geometry": { "type": "LineString", "coordinates": [ [ 1731185.17758567398414, 10718083.631263136863708 ], [ 1731196.489277190994471, 10718036.506088864058256 ], [ 1731197.887863198062405, 10717989.543560331687331 ], [ 1731195.355863678036258, 10717986.310247356072068 ], [ 1731195.599997785175219, 10717982.303642030805349 ], [ 1731192.99040907016024, 10717974.34125691652298 ], [ 1731190.470344760688022, 10717971.835493950173259 ], [ 1731190.392755948705599, 10717967.106421671807766 ], [ 1731180.550657922867686, 10717952.712991748005152 ], [ 1731178.328440111596137, 10717949.474597515538335 ], [ 1731171.072055004304275, 10717941.588455123826861 ], [ 1731166.347672823118046, 10717936.935624781996012 ], [ 1731163.827603902667761, 10717934.429863873869181 ], [ 1731159.115157165797427, 10717930.504584103822708 ], [ 1731154.420615592738613, 10717927.670629283413291 ], [ 1731151.900545136770234, 10717925.164869295433164 ], [ 1731066.099811417981982, 10717870.536387741565704 ], [ 1731056.460606752894819, 10717868.511335540562868 ], [ 1731051.426412456436083, 10717863.863605201244354 ], [ 1730979.965135838603601, 10717814.458109710365534 ], [ 1730721.642230136319995, 10717632.396073756739497 ] ] } },
{ "type": "Feature", "properties": { "name": "Cypress Ct" }, "geometry": { "type": "LineString", "coordinates": [ [ 1729350.935638429829851, 10713632.326842922717333 ], [ 1729216.605640671681613, 10713812.106963032856584 ], [ 1729195.712927056709304, 10713841.924461267888546 ], [ 1729177.26289777434431, 10713869.51853291131556 ], [ 1729135.781480262987316, 10713928.78472169674933 ], [ 1729117.367484336486086, 10713958.561463518068194 ], [ 1729098.935551758855581, 10713987.24689874984324 ], [ 1729082.708338952623308, 10714018.079269260168076 ], [ 1729064.318399051669985, 10714049.311132991686463 ], [ 1729048.3890881894622, 10714079.410875307396054 ], [ 1729032.477777229622006, 10714110.601943835616112 ], [ 1728988.681813110830262, 10714198.652280908077955 ], [ 1728975.285115772625431, 10714231.98519734852016 ], [ 1728961.536687745014206, 10714262.776814687997103 ], [ 1728950.314766281051561, 10714296.437797952443361 ], [ 1728936.620311465812847, 10714330.503381645306945 ], [ 1728925.362488747574389, 10714361.981739990413189 ], [ 1728914.134646200574934, 10714395.278966657817364 ], [ 1728902.924801965709776, 10714429.667516486719251 ], [ 1728893.865726174553856, 10714462.929030699655414 ], [ 1728880.79280544561334, 10714515.905722316354513 ], [ 1728805.0168331945315, 10714807.159593507647514 ] ] } },
{ "type": "Feature", "properties": { "name": "Island Dr" }, "geometry": { "type": "LineString", "coordinates": [ [ 1731778.935894419439137, 10718238.001189772039652 ], [ 1731523.78620276437141, 10718173.412038726732135 ], [ 1731394.343333711149171, 10718140.602996047586203 ], [ 1731339.546837662579492, 10718124.763606196269393 ], [ 1731185.17758567398414, 10718083.631263136863708 ], [ 1731109.273742313031107, 10718065.591442344710231 ], [ 1730867.168270726921037, 10718002.976321537047625 ], [ 1730860.019317761994898, 10718001.638189563527703 ], [ 1730855.336704246001318, 10717999.531824719160795 ], [ 1730843.511107378639281, 10717996.451106736436486 ], [ 1730838.506762417731807, 10717993.622280426323414 ], [ 1730831.38169496669434, 10717993.739253366366029 ], [ 1730826.711023010313511, 10717992.360441910102963 ], [ 1730822.05229519167915, 10717991.709180573001504 ], [ 1730817.381622568471357, 10717990.330370377749205 ], [ 1730812.734839003300294, 10717990.406659759581089 ], [ 1730807.754380228696391, 10717989.032936882227659 ], [ 1730800.635284316260368, 10717989.513690901920199 ], [ 1730795.976555563742295, 10717988.862433090806007 ], [ 1730791.329771804623306, 10717988.938725357875228 ], [ 1730786.349311912432313, 10717987.565005561336875 ], [ 1730769.936648181872442, 10717988.198353689163923 ], [ 1730765.295837193029001, 10717988.638424193486571 ], [ 1730760.339267808711156, 10717988.719807051122189 ], [ 1730755.680538102984428, 10717988.068554675206542 ], [ 1730751.063619282096624, 10717989.963725991547108 ], [ 1730743.938551074359566, 10717990.080717010423541 ], [ 1730739.309686884284019, 10717991.248340453952551 ], [ 1730734.353117875056341, 10717991.329727046191692 ], [ 1730729.736200625775382, 10717993.224901214241982 ], [ 1730725.077470876509324, 10717992.573652975261211 ], [ 1730720.460554285207763, 10717994.468828391283751 ], [ 1730713.353407242335379, 10717995.677149893715978 ], [ 1730708.736491687363014, 10717997.572326881811023 ], [ 1730703.821738168830052, 10718000.200140886008739 ], [ 1730699.174955934286118, 10718000.276445582509041 ], [ 1730692.091705302009359, 10718002.939870350062847 ], [ 1730687.474791863001883, 10718004.835050202906132 ], [ 1730682.845931449672207, 10718006.002681257203221 ], [ 1730680.421411845600232, 10718009.317350968718529 ], [ 1730675.792552262544632, 10718010.48498297482729 ], [ 1730668.709305488970131, 10718013.148412575945258 ], [ 1730664.116290393285453, 10718016.498694457113743 ], [ 1730659.177646975964308, 10718017.671416018158197 ], [ 1730652.457954739453271, 10718023.603734094649553 ], [ 1730647.829097980167717, 10718024.771369878202677 ], [ 1730640.465941925533116, 10718029.258766394108534 ], [ 1730633.436470008920878, 10718035.196175806224346 ], [ 1730058.01477516698651, 10718393.605339517816901 ], [ 1730053.397948214318603, 10718395.500605238601565 ], [ 1730041.715943504823372, 10718401.150755682960153 ], [ 1730034.632824837695807, 10718403.81431688554585 ], [ 1730029.676315172109753, 10718403.895804828032851 ], [ 1730017.952451348537579, 10718406.99953986145556 ], [ 1730010.857373856706545, 10718408.935556389391422 ], [ 1730001.581862612860277, 10718410.17967764288187 ], [ 1729994.456881291931495, 10718410.296823628246784 ], [ 1729982.38137247483246, 10718410.859240625053644 ], [ 1729965.933030746877193, 10718409.310323173180223 ], [ 1729956.615650733700022, 10718408.008033074438572 ], [ 1729946.946617144625634, 10718404.164415845647454 ], [ 1729942.305871006334201, 10718404.604597372934222 ], [ 1729937.295526396948844, 10718401.41212566010654 ], [ 1729899.476923882029951, 10718381.657115329056978 ], [ 1729839.644473548745736, 10718342.251160824671388 ], [ 1729791.625513599254191, 10718305.198117163032293 ], [ 1729480.346063643228263, 10718068.707559686154127 ], [ 1729415.698173969285563, 10718019.19314175285399 ], [ 1729396.567765024723485, 10718005.316952813416719 ], [ 1729389.346901866607368, 10717999.613832199946046 ], [ 1729332.063348201802, 10717964.533283131197095 ], [ 1729378.467204573797062, 10717621.001177432015538 ], [ 1729377.982222847873345, 10717591.535460038110614 ], [ 1729380.31085103796795, 10717582.40031211078167 ], [ 1729379.664211599389091, 10717543.112691143527627 ], [ 1729377.024234308861196, 10717533.33157722465694 ], [ 1729376.527277782792225, 10717503.138314757496119 ], [ 1729373.911246731411666, 10717494.812298526987433 ], [ 1729371.581054679583758, 10717485.026086730882525 ], [ 1729371.419392806710675, 10717475.204182598739862 ], [ 1729366.455200918484479, 10717456.000633327290416 ], [ 1729366.293537727557123, 10717446.178729590028524 ], [ 1729361.443103248486295, 10717433.88689161837101 ], [ 1729358.76120024221018, 10717421.55936111882329 ], [ 1729353.594981448492035, 10717408.908849524334073 ], [ 1729351.22286488651298, 10717396.576220916584134 ], [ 1729346.378406350733712, 10717384.648160062730312 ], [ 1729341.230141235515475, 10717373.088973455131054 ], [ 1729338.875981610734016, 10717361.847668783739209 ], [ 1729334.025526443962008, 10717349.555836051702499 ], [ 1729324.038766393670812, 10717326.43236918374896 ], [ 1729316.727932228241116, 10717315.272656869143248 ], [ 1729306.735163218108937, 10717291.785421948879957 ], [ 1729299.734108368167654, 10717280.620614243671298 ], [ 1729294.603777897311375, 10717270.152758536860347 ], [ 1729287.292922783643007, 10717258.993053320795298 ], [ 1729272.939071680419147, 10717234.122129550203681 ], [ 1729270.370905250310898, 10717228.70631686039269 ], [ 1729267.820703611942008, 10717224.381826659664512 ], [ 1729265.562328208005056, 10717218.960914522409439 ], [ 1729263.042068151989952, 10717216.455295138061047 ], [ 1729260.783691506600007, 10717211.03438338637352 ], [ 1729258.239476048387587, 10717207.07366806641221 ], [ 1729253.5087454628665, 10717202.057330654934049 ], [ 1729248.760047361720353, 10717195.94967170804739 ], [ 1729246.215829448308796, 10717191.988957362249494 ], [ 1729243.65364464558661, 10717186.936921032145619 ], [ 1729236.39665575674735, 10717179.051194382831454 ], [ 1729233.85243522701785, 10717175.090481039136648 ], [ 1729229.461434352211654, 10717171.887917241081595 ], [ 1729226.917212517233565, 10717167.927204452455044 ], [ 1729221.894646112574264, 10717164.00729401782155 ], [ 1729219.660215888405219, 10717160.041481524705887 ], [ 1729214.965407804818824, 10717157.207793984562159 ], [ 1729212.415194164030254, 10717152.883308289572597 ], [ 1729176.415981662692502, 10717111.994529120624065 ], [ 1729211.025723934406415, 10717068.487735223025084 ], [ 1729213.46215131948702, 10717065.900514278560877 ], [ 1729218.055158364819363, 10717062.550043240189552 ], [ 1729220.491586703574285, 10717059.962822802364826 ], [ 1729222.594265563646331, 10717055.925606837496161 ], [ 1729227.199252685764804, 10717053.302685050293803 ], [ 1729229.617715684929863, 10717049.624143309891224 ], [ 1729234.222704183775932, 10717047.001222489401698 ], [ 1729243.718522383132949, 10717040.295186638832092 ], [ 1729250.462128771468997, 10717035.81769753061235 ], [ 1729255.376914862310514, 10717033.189679546281695 ], [ 1729257.813348102383316, 10717030.602461855858564 ], [ 1729262.430318364873528, 10717028.70709284581244 ], [ 1729264.866752454079688, 10717026.119875658303499 ], [ 1729367.885871126316488, 10716959.290923548862338 ], [ 1729374.605560041964054, 10716953.358363268896937 ], [ 1729379.180635857628658, 10716948.916592255234718 ], [ 1729388.700458033243194, 10716943.665693076327443 ], [ 1729393.275536962319165, 10716939.223923983052373 ], [ 1729395.688038775930181, 10716935.181620458140969 ], [ 1729400.263119752053171, 10716930.739852346479893 ], [ 1729404.814253818243742, 10716924.842988980934024 ], [ 1729409.729067409876734, 10716922.214993380010128 ], [ 1729414.304151936899871, 10716917.773227205500007 ], [ 1729416.406862530391663, 10716913.736023792997003 ], [ 1729421.291744355345145, 10716909.289160056039691 ], [ 1729423.394456310430542, 10716905.251957109197974 ], [ 1729428.279340259032324, 10716900.805094417184591 ], [ 1729430.382053580367938, 10716896.767891939729452 ], [ 1729434.957144205924124, 10716892.326128654181957 ], [ 1729439.466382862534374, 10716883.882852479815483 ], [ 1729444.345285367453471, 10716879.072218226268888 ], [ 1729448.854528141440824, 10716870.628943422809243 ], [ 1729453.739420369733125, 10716866.18208453245461 ], [ 1729455.812206513481215, 10716860.326014053076506 ], [ 1729458.224721426144242, 10716856.2837153095752 ], [ 1729460.297508979681879, 10716850.427645178511739 ], [ 1729462.692065942799672, 10716845.294024981558323 ], [ 1729465.116555503336713, 10716841.979274675250053 ], [ 1729469.583904212573543, 10716830.989585449919105 ], [ 1729471.686626857379451, 10716826.952385861426592 ], [ 1729474.069214697461575, 10716821.091218739748001 ], [ 1729476.475748377386481, 10716816.685147566720843 ], [ 1729478.846365350298584, 10716810.096432996913791 ], [ 1729480.949090422596782, 10716806.059234084561467 ], [ 1729480.853311232756823, 10716800.238851292058825 ], [ 1729483.259847319917753, 10716795.832780698314309 ], [ 1729485.338629230158404, 10716790.340486448258162 ], [ 1729485.564619533484802, 10716785.242553692311049 ], [ 1729490.020010476233438, 10716773.525320092216134 ], [ 1729618.822917081415653, 10716277.267490277066827 ], [ 1729634.666467780945823, 10716223.153766009956598 ], [ 1729650.110504532232881, 10716163.58854447118938 ] ] } },
{ "type": "Feature", "properties": { "name": "Ridgefield Ct" }, "geometry": { "type": "LineString", "coordinates": [ [ 1727424.836140325525776, 10717853.342023879289627 ], [ 1727274.453464260092005, 10717903.857348639518023 ], [ 1727182.569901790469885, 10717931.574303584173322 ], [ 1727177.983217376982793, 10717935.288823533803225 ], [ 1727173.336426390102133, 10717935.365603661164641 ], [ 1727168.391870965715498, 10717936.175051247701049 ], [ 1727163.79316696501337, 10717939.162025015801191 ], [ 1727159.146376496180892, 10717939.238807056099176 ], [ 1727147.422595615498722, 10717942.343516699969769 ], [ 1727142.74575017625466, 10717940.601430747658014 ], [ 1727137.819229551590979, 10717942.502204833552241 ], [ 1727133.190473083639517, 10717943.670312503352761 ], [ 1727118.946328878635541, 10717944.269566111266613 ], [ 1727114.311561869224533, 10717945.073902267962694 ], [ 1727088.301563168643042, 10717946.231475200504065 ], [ 1727081.170474187703803, 10717945.985449494794011 ], [ 1727066.884248320013285, 10717944.038306387141347 ], [ 1727055.088332800660282, 10717942.777759090065956 ], [ 1727050.417494598776102, 10717941.399459691718221 ], [ 1727045.770704435650259, 10717941.476257018744946 ], [ 1727036.459087529219687, 10717940.538531487807631 ], [ 1727028.97011256031692, 10717937.387444341555238 ], [ 1727021.820984058082104, 10717936.050108866766095 ], [ 1726984.174526910763234, 10717926.847758047282696 ], [ 1726672.968626758316532, 10717846.118899060413241 ], [ 1726565.944643858121708, 10717820.234627274796367 ] ] } },
{ "type": "Feature", "properties": { "name": "Executive Ct" }, "geometry": { "type": "LineString", "coordinates": [ [ 1731523.78620276437141, 10718173.412038726732135 ], [ 1731607.481699590338394, 10717854.015059940516949 ] ] } },
{ "type": "Feature", "properties": { "name": "Power Line" }, "geometry": { "type": "LineString", "coordinates": [ [ 1726973.619721513241529, 10715375.910189084708691 ], [ 1727267.1518408076372, 10715454.750561602413654 ], [ 1727300.141751957824454, 10715463.302407048642635 ], [ 1727303.871469274861738, 10715463.968542354181409 ], [ 1727333.435445888433605, 10715471.485394014045596 ], [ 1727385.735565481008962, 10715485.904196469113231 ] ] } },
{ "type": "Feature", "properties": { "name": null }, "geometry": { "type": "LineString", "coordinates": [ [ 1724380.643605266232044, 10725894.102070571854711 ], [ 1725383.464490634156391, 10721857.353534502908587 ], [ 1725399.159872537711635, 10721794.870634818449616 ], [ 1725658.304319529561326, 10720661.471076825633645 ] ] } }
]
}
